Response and Fourier amplitude spectra (78 periods, 0.04 -  6.0 sec)   for      
Corrected accelerogram   58658-G0133-21116.07       Chan 10:  Tran       from   
Uncorrected Accelerogram Data             Processed: 05/19/21, CGS  58658007    
Rcrd of Mon Apr 26, 2021 10:09:54.0 PDT           (Avol1 v6.6,64b, 2/20; PC86)  
CSMIP Preliminary Processing            (Origin:  To be determined)             
58658-G0133-21116.07                 Start time:  4/26/21, 17:09:54.0 UTC (GPS) 
Station No. 58658   37.691N, 122.099W    Granit  s/n  133 (18 Chns of 20 at Sta)
Hayward - Hwy 580/238 Interchange Bridge  CGS   Data: Acceleration              
Chan 10:  Tran    (Sta Chn: 15)     Location: Bent 3: Deck Level                
Rcrd of Mon Apr 26, 2021 10:09:54.0 PDT    Mon Apr 26, 2021 10:09:54.0 PDT      
Hypocenter:  To be determined.               ML:  To be determined.
Instr Period = 0.0049 sec,  Damping = 0.700,  Sensitivity = 1.25 v/g
                        Record Length = 65.000 sec.
                                     Uncor Max  = -0.003 g, at   24.655 sec.
RMS accel of (uncor) record  =        .   Chn. metadata effective date: 09/01/11
Accelerogram bandpass filtered with 3 dB pts at  0.30 and 40.00 cyc/sec
                 instrument- and base-line corrected
                                                         (Avol3,v6.4,64b,12/18)




Rcrd of Mon Apr 26, 2021 10:09:54.0 PDT    Mon Apr 26, 2021 10:09:54.0 PDT

58658-G0133-21116.07      Hayward - Hwy 580/238 Interchange Bridge  CGChan 10:
Tran
58658-G0133-21116.07      Hayward - Hwy 580/238 Interchange Bridge  CGChan 10:
Tran
Units for spectra are inches and sec, except Sa is in fraction of g.

   10  100   15   18   20  200    1    3    2   24   30  133    058658    3    0
   17    9   54    0  116    4   26 2021   10    3  90013000   39   40   74   -1
13000    0  100    3  133    1    7  650    2 -999 -999 -999 -999 -999 -999 -999
 -999 -999    3 -99913000    1  222    1   24   21 -999 -999    3    1 -99913000
    313000    4   78    1   18    5    0    0 -999    0    0    1    3    1    2
    2    2    4    1   66   78    0    2 -999    0    0    1    0    0    0  222
    1    0    2    0
     0.005     0.700    65.000     0.000     1.000  1250.000    -0.003    24.655
   204.000     0.596     0.477  -999.000     5.000  -999.000     4.000  -999.000
     5.000   -13.472     5.000  -999.000    25.000    30.000  -999.000     0.004
    -0.009    -0.013     2.000    15.000    37.691  -122.099     0.255     0.258
     1.012    -0.051     0.024    49.000    25.000    35.900    13.700    71.960
     1.000    11.003    -8.000  -999.000  -999.000  -999.000  -999.000  -999.000
     7.200     6.600     6.600   980.665     0.005    65.000    32.468     0.000
  -999.000    40.000  -999.000    65.000     0.005     0.300  -999.000  -999.000
    27.105    -2.571    31.395     0.175    54.345     1.358    -0.092     0.300
    40.000     0.005     0.005    -0.732     0.005     0.039  -999.000  -999.000
     0.020     0.095     0.002     0.001     0.001     0.000  -999.000  -999.000
  -999.000  -999.000  -999.000  -999.000  -999.000  -999.000  -999.000  -999.000
  -999.000  -999.000  -999.000  -999.000
     0.050
     0.040     0.042     0.044     0.046     0.048     0.050     0.055     0.060
     0.065     0.070     0.075     0.080     0.085     0.090     0.095     0.100
     0.110     0.120     0.130     0.140     0.150     0.160     0.170     0.180
     0.190     0.200     0.220     0.240     0.260     0.280     0.300     0.320
     0.340     0.360     0.380     0.400     0.420     0.440     0.460     0.480
     0.500     0.550     0.600     0.650     0.700     0.750     0.800     0.850
     0.900     0.950     1.000     1.100     1.200     1.300     1.400     1.500
     1.600     1.700     1.800     1.900     2.000     2.200     2.400     2.600
     2.800     3.000     3.200     3.400     3.600     3.800     4.000     4.200
     4.400     4.600     4.800     5.000     5.500     6.000     0.000     0.000
     0.000     0.000     0.000     0.000     0.000     0.000     0.000     0.000
     0.000     0.000     0.000     0.000     0.000     0.000     0.000     0.000
     0.000     0.000     0.000     0.000
Fourier amplitude spectra in in/sec.
 0.000E+00 0.000E+00 0.000E+00 0.000E+00 0.000E+00 0.000E+00 0.000E+00 0.000E+00
 0.000E+00 0.000E+00 0.000E+00 0.000E+00 0.000E+00 0.000E+00 0.000E+00 0.000E+00
 0.000E+00 0.000E+00 0.000E+00 0.000E+00 0.000E+00 0.000E+00 0.000E+00 0.000E+00
 0.000E+00 0.000E+00 0.000E+00 0.000E+00 0.000E+00 0.000E+00 0.000E+00 0.000E+00
 0.000E+00 0.000E+00 0.000E+00 0.000E+00 0.000E+00 0.000E+00 0.000E+00 0.000E+00
 0.000E+00 0.000E+00 0.000E+00 0.000E+00 0.000E+00 0.000E+00 0.000E+00 0.000E+00
 0.000E+00 0.000E+00 0.000E+00 0.000E+00 0.000E+00 0.000E+00 0.000E+00 0.000E+00
 0.000E+00 0.000E+00 0.000E+00 0.000E+00 0.000E+00 0.000E+00 0.000E+00 0.000E+00
 0.000E+00 0.000E+00 0.000E+00 0.000E+00 0.000E+00 0.000E+00 0.000E+00 0.000E+00
 0.000E+00 0.000E+00 0.000E+00 0.000E+00 0.000E+00 0.000E+00 0.000E+00 0.000E+00
 0.000E+00 0.000E+00 0.000E+00 0.000E+00 0.000E+00 0.000E+00 0.000E+00 0.000E+00
 0.000E+00 0.000E+00 0.000E+00 0.000E+00 0.000E+00 0.000E+00 0.000E+00 0.000E+00
 0.000E+00 0.000E+00 0.000E+00 0.000E+00
Damping = 0.05. Data of Sd,Sv,Sa,Pssv,ttSd,ttSv,ttSa :
 0.110E-03 0.107E-03 0.141E-03 0.175E-03 0.169E-03 0.167E-03 0.230E-03 0.257E-03
 0.381E-03 0.362E-03 0.446E-03 0.625E-03 0.925E-03 0.136E-02 0.173E-02 0.137E-02
 0.896E-03 0.673E-03 0.548E-03 0.504E-03 0.506E-03 0.500E-03 0.596E-03 0.707E-03
 0.749E-03 0.760E-03 0.851E-03 0.112E-02 0.105E-02 0.106E-02 0.109E-02 0.156E-02
 0.204E-02 0.277E-02 0.362E-02 0.492E-02 0.595E-02 0.594E-02 0.518E-02 0.531E-02
 0.678E-02 0.138E-01 0.137E-01 0.971E-02 0.721E-02 0.710E-02 0.870E-02 0.760E-02
 0.851E-02 0.706E-02 0.614E-02 0.681E-02 0.685E-02 0.594E-02 0.466E-02 0.426E-02
 0.389E-02 0.422E-02 0.381E-02 0.394E-02 0.436E-02 0.487E-02 0.466E-02 0.494E-02
 0.638E-02 0.694E-02 0.707E-02 0.791E-02 0.847E-02 0.847E-02 0.874E-02 0.906E-02
 0.938E-02 0.100E-01 0.108E-01 0.112E-01 0.102E-01 0.118E-01 0.000E+00 0.000E+00
 0.000E+00 0.000E+00 0.000E+00 0.000E+00 0.000E+00 0.000E+00 0.000E+00 0.000E+00
 0.000E+00 0.000E+00 0.000E+00 0.000E+00 0.000E+00 0.000E+00 0.000E+00 0.000E+00
 0.000E+00 0.000E+00 0.000E+00 0.000E+00
 0.164E-01 0.148E-01 0.184E-01 0.223E-01 0.210E-01 0.184E-01 0.263E-01 0.250E-01
 0.345E-01 0.322E-01 0.383E-01 0.447E-01 0.642E-01 0.896E-01 0.114E+00 0.888E-01
 0.530E-01 0.417E-01 0.332E-01 0.305E-01 0.293E-01 0.261E-01 0.264E-01 0.296E-01
 0.322E-01 0.278E-01 0.311E-01 0.340E-01 0.302E-01 0.276E-01 0.267E-01 0.288E-01
 0.328E-01 0.444E-01 0.576E-01 0.725E-01 0.810E-01 0.773E-01 0.681E-01 0.688E-01
 0.873E-01 0.155E+00 0.152E+00 0.108E+00 0.801E-01 0.686E-01 0.739E-01 0.677E-01
 0.740E-01 0.611E-01 0.529E-01 0.573E-01 0.495E-01 0.470E-01 0.445E-01 0.427E-01
 0.405E-01 0.380E-01 0.368E-01 0.367E-01 0.351E-01 0.368E-01 0.400E-01 0.378E-01
 0.377E-01 0.375E-01 0.380E-01 0.385E-01 0.347E-01 0.344E-01 0.351E-01 0.357E-01
 0.359E-01 0.365E-01 0.379E-01 0.404E-01 0.398E-01 0.374E-01 0.000E+00 0.000E+00
 0.000E+00 0.000E+00 0.000E+00 0.000E+00 0.000E+00 0.000E+00 0.000E+00 0.000E+00
 0.000E+00 0.000E+00 0.000E+00 0.000E+00 0.000E+00 0.000E+00 0.000E+00 0.000E+00
 0.000E+00 0.000E+00 0.000E+00 0.000E+00
 0.708E-02 0.622E-02 0.752E-02 0.841E-02 0.758E-02 0.681E-02 0.789E-02 0.736E-02
 0.911E-02 0.759E-02 0.820E-02 0.101E-01 0.132E-01 0.172E-01 0.197E-01 0.141E-01
 0.756E-02 0.481E-02 0.333E-02 0.268E-02 0.231E-02 0.201E-02 0.212E-02 0.225E-02
 0.214E-02 0.195E-02 0.180E-02 0.202E-02 0.161E-02 0.139E-02 0.124E-02 0.156E-02
 0.181E-02 0.220E-02 0.258E-02 0.316E-02 0.347E-02 0.316E-02 0.252E-02 0.237E-02
 0.278E-02 0.470E-02 0.392E-02 0.236E-02 0.151E-02 0.130E-02 0.140E-02 0.108E-02
 0.108E-02 0.808E-03 0.634E-03 0.582E-03 0.494E-03 0.364E-03 0.252E-03 0.203E-03
 0.161E-03 0.153E-03 0.125E-03 0.116E-03 0.116E-03 0.108E-03 0.861E-04 0.778E-04
 0.868E-04 0.830E-04 0.748E-04 0.726E-04 0.701E-04 0.634E-04 0.594E-04 0.560E-04
 0.530E-04 0.519E-04 0.515E-04 0.493E-04 0.380E-04 0.368E-04 0.000E+00 0.000E+00
 0.000E+00 0.000E+00 0.000E+00 0.000E+00 0.000E+00 0.000E+00 0.000E+00 0.000E+00
 0.000E+00 0.000E+00 0.000E+00 0.000E+00 0.000E+00 0.000E+00 0.000E+00 0.000E+00
 0.000E+00 0.000E+00 0.000E+00 0.000E+00
 0.173E-01 0.159E-01 0.202E-01 0.239E-01 0.221E-01 0.210E-01 0.263E-01 0.269E-01
 0.368E-01 0.325E-01 0.374E-01 0.491E-01 0.684E-01 0.951E-01 0.114E+00 0.858E-01
 0.512E-01 0.353E-01 0.265E-01 0.226E-01 0.212E-01 0.196E-01 0.220E-01 0.247E-01
 0.248E-01 0.239E-01 0.243E-01 0.294E-01 0.255E-01 0.237E-01 0.228E-01 0.306E-01
 0.377E-01 0.484E-01 0.599E-01 0.773E-01 0.890E-01 0.849E-01 0.708E-01 0.695E-01
 0.852E-01 0.158E+00 0.144E+00 0.938E-01 0.647E-01 0.594E-01 0.683E-01 0.562E-01
 0.594E-01 0.467E-01 0.386E-01 0.389E-01 0.359E-01 0.287E-01 0.209E-01 0.178E-01
 0.153E-01 0.156E-01 0.133E-01 0.130E-01 0.137E-01 0.139E-01 0.122E-01 0.119E-01
 0.143E-01 0.145E-01 0.139E-01 0.146E-01 0.148E-01 0.140E-01 0.137E-01 0.136E-01
 0.134E-01 0.137E-01 0.142E-01 0.140E-01 0.117E-01 0.124E-01 0.000E+00 0.000E+00
 0.000E+00 0.000E+00 0.000E+00 0.000E+00 0.000E+00 0.000E+00 0.000E+00 0.000E+00
 0.000E+00 0.000E+00 0.000E+00 0.000E+00 0.000E+00 0.000E+00 0.000E+00 0.000E+00
 0.000E+00 0.000E+00 0.000E+00 0.000E+00
 0.254E+02 0.254E+02 0.238E+02 0.236E+02 0.236E+02 0.292E+02 0.251E+02 0.248E+02
 0.230E+02 0.225E+02 0.272E+02 0.312E+02 0.273E+02 0.273E+02 0.274E+02 0.275E+02
 0.330E+02 0.206E+02 0.273E+02 0.273E+02 0.222E+02 0.222E+02 0.276E+02 0.253E+02
 0.253E+02 0.276E+02 0.255E+02 0.274E+02 0.274E+02 0.274E+02 0.387E+02 0.389E+02
 0.333E+02 0.333E+02 0.335E+02 0.392E+02 0.409E+02 0.412E+02 0.412E+02 0.393E+02
 0.313E+02 0.322E+02 0.320E+02 0.321E+02 0.307E+02 0.414E+02 0.411E+02 0.338E+02
 0.319E+02 0.315E+02 0.315E+02 0.315E+02 0.335E+02 0.335E+02 0.336E+02 0.312E+02
 0.332E+02 0.252E+02 0.252E+02 0.252E+02 0.252E+02 0.252E+02 0.243E+02 0.235E+02
 0.235E+02 0.235E+02 0.236E+02 0.240E+02 0.240E+02 0.240E+02 0.240E+02 0.240E+02
 0.240E+02 0.240E+02 0.240E+02 0.240E+02 0.241E+02 0.241E+02 0.000E+00 0.000E+00
 0.000E+00 0.000E+00 0.000E+00 0.000E+00 0.000E+00 0.000E+00 0.000E+00 0.000E+00
 0.000E+00 0.000E+00 0.000E+00 0.000E+00 0.000E+00 0.000E+00 0.000E+00 0.000E+00
 0.000E+00 0.000E+00 0.000E+00 0.000E+00
 0.254E+02 0.254E+02 0.236E+02 0.236E+02 0.236E+02 0.251E+02 0.251E+02 0.249E+02
 0.230E+02 0.227E+02 0.230E+02 0.312E+02 0.273E+02 0.273E+02 0.274E+02 0.274E+02
 0.330E+02 0.273E+02 0.273E+02 0.273E+02 0.273E+02 0.273E+02 0.249E+02 0.251E+02
 0.251E+02 0.273E+02 0.273E+02 0.263E+02 0.204E+02 0.274E+02 0.329E+02 0.277E+02
 0.277E+02 0.334E+02 0.277E+02 0.391E+02 0.393E+02 0.411E+02 0.394E+02 0.394E+02
 0.312E+02 0.321E+02 0.322E+02 0.319E+02 0.308E+02 0.343E+02 0.413E+02 0.410E+02
 0.317E+02 0.317E+02 0.318E+02 0.272E+02 0.314E+02 0.334E+02 0.334E+02 0.311E+02
 0.253E+02 0.253E+02 0.311E+02 0.311E+02 0.311E+02 0.250E+02 0.311E+02 0.250E+02
 0.242E+02 0.242E+02 0.311E+02 0.311E+02 0.311E+02 0.253E+02 0.253E+02 0.253E+02
 0.253E+02 0.253E+02 0.311E+02 0.311E+02 0.311E+02 0.311E+02 0.000E+00 0.000E+00
 0.000E+00 0.000E+00 0.000E+00 0.000E+00 0.000E+00 0.000E+00 0.000E+00 0.000E+00
 0.000E+00 0.000E+00 0.000E+00 0.000E+00 0.000E+00 0.000E+00 0.000E+00 0.000E+00
 0.000E+00 0.000E+00 0.000E+00 0.000E+00
 0.254E+02 0.236E+02 0.236E+02 0.236E+02 0.236E+02 0.292E+02 0.251E+02 0.248E+02
 0.230E+02 0.227E+02 0.272E+02 0.312E+02 0.273E+02 0.273E+02 0.274E+02 0.275E+02
 0.330E+02 0.206E+02 0.273E+02 0.273E+02 0.222E+02 0.261E+02 0.276E+02 0.253E+02
 0.253E+02 0.276E+02 0.255E+02 0.274E+02 0.274E+02 0.274E+02 0.387E+02 0.389E+02
 0.333E+02 0.333E+02 0.335E+02 0.392E+02 0.409E+02 0.412E+02 0.412E+02 0.393E+02
 0.313E+02 0.322E+02 0.320E+02 0.321E+02 0.307E+02 0.414E+02 0.411E+02 0.338E+02
 0.318E+02 0.315E+02 0.315E+02 0.315E+02 0.335E+02 0.335E+02 0.312E+02 0.312E+02
 0.332E+02 0.252E+02 0.252E+02 0.252E+02 0.252E+02 0.252E+02 0.243E+02 0.235E+02
 0.235E+02 0.235E+02 0.235E+02 0.240E+02 0.240E+02 0.240E+02 0.240E+02 0.240E+02
 0.240E+02 0.240E+02 0.240E+02 0.240E+02 0.240E+02 0.240E+02 0.000E+00 0.000E+00
 0.000E+00 0.000E+00 0.000E+00 0.000E+00 0.000E+00 0.000E+00 0.000E+00 0.000E+00
 0.000E+00 0.000E+00 0.000E+00 0.000E+00 0.000E+00 0.000E+00 0.000E+00 0.000E+00
 0.000E+00 0.000E+00 0.000E+00 0.000E+00
/&   ----------  End of spectral data for channel 15  ----------
