Response and Fourier amplitude spectra (78 periods, 0.04 -  6.0 sec)   for      
Corrected accelerogram   58658-G0133-21116.07       Chan 12:  Long       from   
Uncorrected Accelerogram Data             Processed: 05/19/21, CGS  58658007    
Rcrd of Mon Apr 26, 2021 10:09:54.0 PDT           (Avol1 v6.6,64b, 2/20; PC86)  
CSMIP Preliminary Processing            (Origin:  To be determined)             
58658-G0133-21116.07                 Start time:  4/26/21, 17:09:54.0 UTC (GPS) 
Station No. 58658   37.691N, 122.099W    Granit  s/n  133 (18 Chns of 20 at Sta)
Hayward - Hwy 580/238 Interchange Bridge  CGS   Data: Acceleration              
Chan 12:  Long    (Sta Chn: 17)     Location: Bent 4: North Column, Grnd Level  
Rcrd of Mon Apr 26, 2021 10:09:54.0 PDT    Mon Apr 26, 2021 10:09:54.0 PDT      
Hypocenter:  To be determined.               ML:  To be determined.
Instr Period = 0.0048 sec,  Damping = 0.700,  Sensitivity = 1.25 v/g
                        Record Length = 65.000 sec.
                                     Uncor Max  =  0.004 g, at   28.500 sec.
RMS accel of (uncor) record  =        .   Chn. metadata effective date: 09/01/11
Accelerogram bandpass filtered with 3 dB pts at  0.30 and 40.00 cyc/sec
                 instrument- and base-line corrected
                                                         (Avol3,v6.4,64b,12/18)




Rcrd of Mon Apr 26, 2021 10:09:54.0 PDT    Mon Apr 26, 2021 10:09:54.0 PDT

58658-G0133-21116.07      Hayward - Hwy 580/238 Interchange Bridge  CGChan 12:
Long
58658-G0133-21116.07      Hayward - Hwy 580/238 Interchange Bridge  CGChan 12:
Long
Units for spectra are inches and sec, except Sa is in fraction of g.

   12  100   17   18   20  200    1    3    2   24   30  133    058658    3    0
   17    9   54    0  116    4   26 2021   10    3  80013000   39   40   74   -1
13000    1  100    3  133    1    7  650    2 -999 -999 -999 -999 -999 -999 -999
 -999 -999    3 -99913000    1  222    1   24   21 -999 -999    3    1 -99913000
    313000    4   78    1   18    5    0    0 -999    0    0    1    3    1    2
    2    2    4    1   66   78    0    2 -999    0    0    1    0    0    0  222
    1    0    2    0
     0.005     0.700    65.000     0.000     1.000  1248.000     0.004    28.500
   208.000     0.596     0.478  -999.000     5.000  -999.000     4.000  -999.000
     5.000     8.779     5.000  -999.000    25.000    30.000  -999.000     0.002
    -0.004    -0.005     2.000    15.000    37.691  -122.099     0.281     0.344
     1.226    -0.049     0.039    49.000    25.000    35.900    13.700    71.960
     1.000    11.003    -8.000  -999.000  -999.000  -999.000  -999.000  -999.000
     7.200     6.600     6.600   980.665     0.005    65.000    33.104     0.000
  -999.000    40.000  -999.000    65.000     0.005     0.300  -999.000  -999.000
    28.500     2.985    28.515     0.060    11.950    -0.347    -0.024     0.300
    40.000     0.005     0.005    -0.170     0.005     0.010  -999.000  -999.000
     0.016     0.060     0.001     0.001     0.000     0.000  -999.000  -999.000
  -999.000  -999.000  -999.000  -999.000  -999.000  -999.000  -999.000  -999.000
  -999.000  -999.000  -999.000  -999.000
     0.050
     0.040     0.042     0.044     0.046     0.048     0.050     0.055     0.060
     0.065     0.070     0.075     0.080     0.085     0.090     0.095     0.100
     0.110     0.120     0.130     0.140     0.150     0.160     0.170     0.180
     0.190     0.200     0.220     0.240     0.260     0.280     0.300     0.320
     0.340     0.360     0.380     0.400     0.420     0.440     0.460     0.480
     0.500     0.550     0.600     0.650     0.700     0.750     0.800     0.850
     0.900     0.950     1.000     1.100     1.200     1.300     1.400     1.500
     1.600     1.700     1.800     1.900     2.000     2.200     2.400     2.600
     2.800     3.000     3.200     3.400     3.600     3.800     4.000     4.200
     4.400     4.600     4.800     5.000     5.500     6.000     0.000     0.000
     0.000     0.000     0.000     0.000     0.000     0.000     0.000     0.000
     0.000     0.000     0.000     0.000     0.000     0.000     0.000     0.000
     0.000     0.000     0.000     0.000
Fourier amplitude spectra in in/sec.
 0.000E+00 0.000E+00 0.000E+00 0.000E+00 0.000E+00 0.000E+00 0.000E+00 0.000E+00
 0.000E+00 0.000E+00 0.000E+00 0.000E+00 0.000E+00 0.000E+00 0.000E+00 0.000E+00
 0.000E+00 0.000E+00 0.000E+00 0.000E+00 0.000E+00 0.000E+00 0.000E+00 0.000E+00
 0.000E+00 0.000E+00 0.000E+00 0.000E+00 0.000E+00 0.000E+00 0.000E+00 0.000E+00
 0.000E+00 0.000E+00 0.000E+00 0.000E+00 0.000E+00 0.000E+00 0.000E+00 0.000E+00
 0.000E+00 0.000E+00 0.000E+00 0.000E+00 0.000E+00 0.000E+00 0.000E+00 0.000E+00
 0.000E+00 0.000E+00 0.000E+00 0.000E+00 0.000E+00 0.000E+00 0.000E+00 0.000E+00
 0.000E+00 0.000E+00 0.000E+00 0.000E+00 0.000E+00 0.000E+00 0.000E+00 0.000E+00
 0.000E+00 0.000E+00 0.000E+00 0.000E+00 0.000E+00 0.000E+00 0.000E+00 0.000E+00
 0.000E+00 0.000E+00 0.000E+00 0.000E+00 0.000E+00 0.000E+00 0.000E+00 0.000E+00
 0.000E+00 0.000E+00 0.000E+00 0.000E+00 0.000E+00 0.000E+00 0.000E+00 0.000E+00
 0.000E+00 0.000E+00 0.000E+00 0.000E+00 0.000E+00 0.000E+00 0.000E+00 0.000E+00
 0.000E+00 0.000E+00 0.000E+00 0.000E+00
Damping = 0.05. Data of Sd,Sv,Sa,Pssv,ttSd,ttSv,ttSa :
 0.140E-03 0.119E-03 0.122E-03 0.133E-03 0.163E-03 0.188E-03 0.286E-03 0.535E-03
 0.614E-03 0.610E-03 0.515E-03 0.486E-03 0.587E-03 0.769E-03 0.741E-03 0.582E-03
 0.386E-03 0.271E-03 0.222E-03 0.220E-03 0.222E-03 0.216E-03 0.251E-03 0.263E-03
 0.240E-03 0.239E-03 0.217E-03 0.236E-03 0.375E-03 0.732E-03 0.123E-02 0.104E-02
 0.142E-02 0.107E-02 0.845E-03 0.859E-03 0.789E-03 0.897E-03 0.885E-03 0.828E-03
 0.764E-03 0.869E-03 0.863E-03 0.782E-03 0.626E-03 0.454E-03 0.390E-03 0.411E-03
 0.468E-03 0.439E-03 0.412E-03 0.381E-03 0.363E-03 0.413E-03 0.484E-03 0.437E-03
 0.391E-03 0.427E-03 0.543E-03 0.566E-03 0.582E-03 0.710E-03 0.114E-02 0.957E-03
 0.104E-02 0.101E-02 0.105E-02 0.125E-02 0.146E-02 0.182E-02 0.203E-02 0.214E-02
 0.239E-02 0.273E-02 0.285E-02 0.278E-02 0.234E-02 0.319E-02 0.000E+00 0.000E+00
 0.000E+00 0.000E+00 0.000E+00 0.000E+00 0.000E+00 0.000E+00 0.000E+00 0.000E+00
 0.000E+00 0.000E+00 0.000E+00 0.000E+00 0.000E+00 0.000E+00 0.000E+00 0.000E+00
 0.000E+00 0.000E+00 0.000E+00 0.000E+00
 0.191E-01 0.165E-01 0.153E-01 0.162E-01 0.198E-01 0.218E-01 0.295E-01 0.538E-01
 0.586E-01 0.550E-01 0.442E-01 0.391E-01 0.453E-01 0.558E-01 0.516E-01 0.409E-01
 0.249E-01 0.211E-01 0.185E-01 0.157E-01 0.152E-01 0.155E-01 0.155E-01 0.145E-01
 0.152E-01 0.151E-01 0.152E-01 0.152E-01 0.131E-01 0.166E-01 0.263E-01 0.226E-01
 0.273E-01 0.206E-01 0.158E-01 0.163E-01 0.154E-01 0.158E-01 0.158E-01 0.170E-01
 0.189E-01 0.164E-01 0.167E-01 0.190E-01 0.153E-01 0.141E-01 0.142E-01 0.138E-01
 0.136E-01 0.144E-01 0.148E-01 0.144E-01 0.142E-01 0.141E-01 0.140E-01 0.140E-01
 0.144E-01 0.144E-01 0.144E-01 0.142E-01 0.142E-01 0.141E-01 0.147E-01 0.136E-01
 0.133E-01 0.128E-01 0.132E-01 0.129E-01 0.123E-01 0.118E-01 0.116E-01 0.119E-01
 0.125E-01 0.134E-01 0.137E-01 0.133E-01 0.142E-01 0.139E-01 0.000E+00 0.000E+00
 0.000E+00 0.000E+00 0.000E+00 0.000E+00 0.000E+00 0.000E+00 0.000E+00 0.000E+00
 0.000E+00 0.000E+00 0.000E+00 0.000E+00 0.000E+00 0.000E+00 0.000E+00 0.000E+00
 0.000E+00 0.000E+00 0.000E+00 0.000E+00
 0.893E-02 0.693E-02 0.641E-02 0.643E-02 0.723E-02 0.766E-02 0.973E-02 0.156E-01
 0.152E-01 0.126E-01 0.938E-02 0.782E-02 0.828E-02 0.984E-02 0.837E-02 0.597E-02
 0.326E-02 0.196E-02 0.137E-02 0.116E-02 0.102E-02 0.882E-03 0.905E-03 0.835E-03
 0.698E-03 0.619E-03 0.468E-03 0.420E-03 0.570E-03 0.958E-03 0.141E-02 0.105E-02
 0.126E-02 0.853E-03 0.603E-03 0.552E-03 0.460E-03 0.478E-03 0.429E-03 0.370E-03
 0.316E-03 0.300E-03 0.256E-03 0.198E-03 0.136E-03 0.892E-04 0.698E-04 0.656E-04
 0.668E-04 0.540E-04 0.453E-04 0.351E-04 0.302E-04 0.306E-04 0.308E-04 0.265E-04
 0.190E-04 0.175E-04 0.182E-04 0.172E-04 0.161E-04 0.164E-04 0.214E-04 0.175E-04
 0.170E-04 0.150E-04 0.124E-04 0.142E-04 0.152E-04 0.157E-04 0.148E-04 0.143E-04
 0.147E-04 0.150E-04 0.144E-04 0.130E-04 0.967E-05 0.970E-05 0.000E+00 0.000E+00
 0.000E+00 0.000E+00 0.000E+00 0.000E+00 0.000E+00 0.000E+00 0.000E+00 0.000E+00
 0.000E+00 0.000E+00 0.000E+00 0.000E+00 0.000E+00 0.000E+00 0.000E+00 0.000E+00
 0.000E+00 0.000E+00 0.000E+00 0.000E+00
 0.221E-01 0.178E-01 0.174E-01 0.181E-01 0.213E-01 0.236E-01 0.327E-01 0.560E-01
 0.594E-01 0.547E-01 0.431E-01 0.382E-01 0.434E-01 0.537E-01 0.490E-01 0.365E-01
 0.221E-01 0.142E-01 0.107E-01 0.988E-02 0.930E-02 0.849E-02 0.928E-02 0.919E-02
 0.793E-02 0.750E-02 0.620E-02 0.618E-02 0.907E-02 0.164E-01 0.258E-01 0.205E-01
 0.262E-01 0.187E-01 0.140E-01 0.135E-01 0.118E-01 0.128E-01 0.121E-01 0.108E-01
 0.960E-02 0.993E-02 0.904E-02 0.756E-02 0.562E-02 0.380E-02 0.306E-02 0.304E-02
 0.327E-02 0.290E-02 0.259E-02 0.218E-02 0.190E-02 0.200E-02 0.217E-02 0.183E-02
 0.154E-02 0.158E-02 0.189E-02 0.187E-02 0.183E-02 0.203E-02 0.298E-02 0.231E-02
 0.234E-02 0.212E-02 0.207E-02 0.232E-02 0.255E-02 0.300E-02 0.319E-02 0.320E-02
 0.341E-02 0.373E-02 0.373E-02 0.350E-02 0.267E-02 0.334E-02 0.000E+00 0.000E+00
 0.000E+00 0.000E+00 0.000E+00 0.000E+00 0.000E+00 0.000E+00 0.000E+00 0.000E+00
 0.000E+00 0.000E+00 0.000E+00 0.000E+00 0.000E+00 0.000E+00 0.000E+00 0.000E+00
 0.000E+00 0.000E+00 0.000E+00 0.000E+00
 0.285E+02 0.285E+02 0.326E+02 0.246E+02 0.285E+02 0.285E+02 0.291E+02 0.285E+02
 0.286E+02 0.286E+02 0.243E+02 0.252E+02 0.252E+02 0.252E+02 0.251E+02 0.268E+02
 0.210E+02 0.246E+02 0.246E+02 0.266E+02 0.286E+02 0.251E+02 0.251E+02 0.251E+02
 0.280E+02 0.280E+02 0.331E+02 0.473E+02 0.464E+02 0.473E+02 0.473E+02 0.379E+02
 0.378E+02 0.380E+02 0.380E+02 0.380E+02 0.380E+02 0.392E+02 0.392E+02 0.391E+02
 0.391E+02 0.288E+02 0.288E+02 0.277E+02 0.275E+02 0.272E+02 0.288E+02 0.288E+02
 0.288E+02 0.389E+02 0.389E+02 0.389E+02 0.389E+02 0.377E+02 0.389E+02 0.326E+02
 0.615E+02 0.618E+02 0.618E+02 0.618E+02 0.618E+02 0.620E+02 0.601E+02 0.556E+02
 0.288E+02 0.288E+02 0.227E+02 0.288E+02 0.291E+02 0.294E+02 0.294E+02 0.294E+02
 0.297E+02 0.300E+02 0.304E+02 0.308E+02 0.243E+02 0.618E+02 0.000E+00 0.000E+00
 0.000E+00 0.000E+00 0.000E+00 0.000E+00 0.000E+00 0.000E+00 0.000E+00 0.000E+00
 0.000E+00 0.000E+00 0.000E+00 0.000E+00 0.000E+00 0.000E+00 0.000E+00 0.000E+00
 0.000E+00 0.000E+00 0.000E+00 0.000E+00
 0.284E+02 0.285E+02 0.326E+02 0.326E+02 0.285E+02 0.284E+02 0.291E+02 0.328E+02
 0.286E+02 0.286E+02 0.243E+02 0.252E+02 0.252E+02 0.252E+02 0.251E+02 0.250E+02
 0.246E+02 0.246E+02 0.246E+02 0.246E+02 0.246E+02 0.251E+02 0.251E+02 0.250E+02
 0.250E+02 0.246E+02 0.246E+02 0.246E+02 0.327E+02 0.448E+02 0.477E+02 0.329E+02
 0.379E+02 0.379E+02 0.381E+02 0.381E+02 0.291E+02 0.291E+02 0.291E+02 0.291E+02
 0.291E+02 0.246E+02 0.285E+02 0.285E+02 0.285E+02 0.285E+02 0.285E+02 0.285E+02
 0.285E+02 0.285E+02 0.285E+02 0.285E+02 0.285E+02 0.285E+02 0.285E+02 0.285E+02
 0.285E+02 0.285E+02 0.285E+02 0.285E+02 0.285E+02 0.285E+02 0.285E+02 0.285E+02
 0.285E+02 0.285E+02 0.285E+02 0.285E+02 0.285E+02 0.285E+02 0.327E+02 0.291E+02
 0.291E+02 0.291E+02 0.291E+02 0.250E+02 0.285E+02 0.285E+02 0.000E+00 0.000E+00
 0.000E+00 0.000E+00 0.000E+00 0.000E+00 0.000E+00 0.000E+00 0.000E+00 0.000E+00
 0.000E+00 0.000E+00 0.000E+00 0.000E+00 0.000E+00 0.000E+00 0.000E+00 0.000E+00
 0.000E+00 0.000E+00 0.000E+00 0.000E+00
 0.285E+02 0.285E+02 0.326E+02 0.246E+02 0.285E+02 0.285E+02 0.291E+02 0.285E+02
 0.286E+02 0.286E+02 0.252E+02 0.252E+02 0.252E+02 0.252E+02 0.251E+02 0.268E+02
 0.210E+02 0.246E+02 0.246E+02 0.266E+02 0.286E+02 0.251E+02 0.251E+02 0.251E+02
 0.280E+02 0.246E+02 0.331E+02 0.473E+02 0.464E+02 0.473E+02 0.473E+02 0.379E+02
 0.378E+02 0.380E+02 0.380E+02 0.380E+02 0.380E+02 0.392E+02 0.392E+02 0.390E+02
 0.391E+02 0.288E+02 0.288E+02 0.277E+02 0.275E+02 0.326E+02 0.288E+02 0.288E+02
 0.288E+02 0.276E+02 0.272E+02 0.389E+02 0.250E+02 0.331E+02 0.326E+02 0.326E+02
 0.246E+02 0.246E+02 0.618E+02 0.618E+02 0.618E+02 0.620E+02 0.601E+02 0.288E+02
 0.288E+02 0.288E+02 0.288E+02 0.288E+02 0.291E+02 0.291E+02 0.294E+02 0.294E+02
 0.297E+02 0.297E+02 0.329E+02 0.329E+02 0.243E+02 0.617E+02 0.000E+00 0.000E+00
 0.000E+00 0.000E+00 0.000E+00 0.000E+00 0.000E+00 0.000E+00 0.000E+00 0.000E+00
 0.000E+00 0.000E+00 0.000E+00 0.000E+00 0.000E+00 0.000E+00 0.000E+00 0.000E+00
 0.000E+00 0.000E+00 0.000E+00 0.000E+00
/&   ----------  End of spectral data for channel 17  ----------
