Response and Fourier amplitude spectra (78 periods, 0.04 -  6.0 sec)   for      
Corrected accelerogram   58658-G0133-21116.07       Chan  3:  Tran       from   
Uncorrected Accelerogram Data             Processed: 05/19/21, CGS  58658007    
Rcrd of Mon Apr 26, 2021 10:09:54.0 PDT           (Avol1 v6.6,64b, 2/20; PC86)  
CSMIP Preliminary Processing            (Origin:  To be determined)             
58658-G0133-21116.07                 Start time:  4/26/21, 17:09:54.0 UTC (GPS) 
Station No. 58658   37.691N, 122.099W    Granit  s/n  133 (18 Chns of 20 at Sta)
Hayward - Hwy 580/238 Interchange Bridge  CGS   Data: Acceleration              
Chan  3:  Tran                      Location: Abutment 1                        
Rcrd of Mon Apr 26, 2021 10:09:54.0 PDT    Mon Apr 26, 2021 10:09:54.0 PDT      
Hypocenter:  To be determined.               ML:  To be determined.
Instr Period = 0.0049 sec,  Damping = 0.700,  Sensitivity = 1.25 v/g
                        Record Length = 65.000 sec.
                                     Uncor Max  = -0.007 g, at   20.285 sec.
RMS accel of (uncor) record  =        .   Chn. metadata effective date: 09/01/11
Accelerogram bandpass filtered with 3 dB pts at  0.30 and 40.00 cyc/sec
                 instrument- and base-line corrected
                                                         (Avol3,v6.4,64b,12/18)




Rcrd of Mon Apr 26, 2021 10:09:54.0 PDT    Mon Apr 26, 2021 10:09:54.0 PDT

58658-G0133-21116.07      Hayward - Hwy 580/238 Interchange Bridge  CGChan  3:
Tran
58658-G0133-21116.07      Hayward - Hwy 580/238 Interchange Bridge  CGChan  3:
Tran
Units for spectra are inches and sec, except Sa is in fraction of g.

    3  100    3   18   20  200    1    3    2   24   30  133    058658    3    0
   17    9   54    0  116    4   26 2021   10    3  90013000   39   40   74   -1
13000    1  100    3  133    1    7  650    2 -999 -999 -999 -999 -999 -999 -999
 -999 -999    3 -99913000    1  222    1   24   21 -999 -999    3    1 -99913000
    313000    4   78    1   18    5    0    0 -999    0    0    1    3    1    2
    2    2    4    1   66   78    0    2 -999    0    0    1    0    0    0  222
    1    0    2    0
     0.005     0.700    65.000     0.000     1.000  1251.000    -0.007    20.285
   204.000     0.596     0.476  -999.000     5.000  -999.000     4.000  -999.000
     5.000    -8.360     5.000  -999.000    25.000    30.000  -999.000     0.001
    -0.004    -0.005     2.000    15.000    37.691  -122.099     0.194     0.116
     0.599    -0.031     0.021    49.000    25.000    35.900    13.700    71.960
     1.000    11.003    -8.000  -999.000  -999.000  -999.000  -999.000  -999.000
     7.200     6.600     6.600   980.665     0.005    65.000    32.468    -0.000
  -999.000    40.000  -999.000    65.000     0.005     0.300  -999.000  -999.000
    20.285    -2.643    20.300    -0.034    58.795     0.282    -0.017     0.300
    40.000     0.005     0.005    -0.063     0.005     0.007  -999.000  -999.000
     0.012     0.100     0.001     0.000     0.000     0.000  -999.000  -999.000
  -999.000  -999.000  -999.000  -999.000  -999.000  -999.000  -999.000  -999.000
  -999.000  -999.000  -999.000  -999.000
     0.050
     0.040     0.042     0.044     0.046     0.048     0.050     0.055     0.060
     0.065     0.070     0.075     0.080     0.085     0.090     0.095     0.100
     0.110     0.120     0.130     0.140     0.150     0.160     0.170     0.180
     0.190     0.200     0.220     0.240     0.260     0.280     0.300     0.320
     0.340     0.360     0.380     0.400     0.420     0.440     0.460     0.480
     0.500     0.550     0.600     0.650     0.700     0.750     0.800     0.850
     0.900     0.950     1.000     1.100     1.200     1.300     1.400     1.500
     1.600     1.700     1.800     1.900     2.000     2.200     2.400     2.600
     2.800     3.000     3.200     3.400     3.600     3.800     4.000     4.200
     4.400     4.600     4.800     5.000     5.500     6.000     0.000     0.000
     0.000     0.000     0.000     0.000     0.000     0.000     0.000     0.000
     0.000     0.000     0.000     0.000     0.000     0.000     0.000     0.000
     0.000     0.000     0.000     0.000
Fourier amplitude spectra in in/sec.
 0.000E+00 0.000E+00 0.000E+00 0.000E+00 0.000E+00 0.000E+00 0.000E+00 0.000E+00
 0.000E+00 0.000E+00 0.000E+00 0.000E+00 0.000E+00 0.000E+00 0.000E+00 0.000E+00
 0.000E+00 0.000E+00 0.000E+00 0.000E+00 0.000E+00 0.000E+00 0.000E+00 0.000E+00
 0.000E+00 0.000E+00 0.000E+00 0.000E+00 0.000E+00 0.000E+00 0.000E+00 0.000E+00
 0.000E+00 0.000E+00 0.000E+00 0.000E+00 0.000E+00 0.000E+00 0.000E+00 0.000E+00
 0.000E+00 0.000E+00 0.000E+00 0.000E+00 0.000E+00 0.000E+00 0.000E+00 0.000E+00
 0.000E+00 0.000E+00 0.000E+00 0.000E+00 0.000E+00 0.000E+00 0.000E+00 0.000E+00
 0.000E+00 0.000E+00 0.000E+00 0.000E+00 0.000E+00 0.000E+00 0.000E+00 0.000E+00
 0.000E+00 0.000E+00 0.000E+00 0.000E+00 0.000E+00 0.000E+00 0.000E+00 0.000E+00
 0.000E+00 0.000E+00 0.000E+00 0.000E+00 0.000E+00 0.000E+00 0.000E+00 0.000E+00
 0.000E+00 0.000E+00 0.000E+00 0.000E+00 0.000E+00 0.000E+00 0.000E+00 0.000E+00
 0.000E+00 0.000E+00 0.000E+00 0.000E+00 0.000E+00 0.000E+00 0.000E+00 0.000E+00
 0.000E+00 0.000E+00 0.000E+00 0.000E+00
Damping = 0.05. Data of Sd,Sv,Sa,Pssv,ttSd,ttSv,ttSa :
 0.664E-04 0.682E-04 0.811E-04 0.867E-04 0.867E-04 0.110E-03 0.178E-03 0.213E-03
 0.256E-03 0.296E-03 0.322E-03 0.516E-03 0.656E-03 0.738E-03 0.847E-03 0.117E-02
 0.106E-02 0.725E-03 0.428E-03 0.421E-03 0.372E-03 0.383E-03 0.397E-03 0.404E-03
 0.512E-03 0.533E-03 0.695E-03 0.693E-03 0.549E-03 0.435E-03 0.364E-03 0.478E-03
 0.577E-03 0.725E-03 0.926E-03 0.934E-03 0.946E-03 0.841E-03 0.707E-03 0.646E-03
 0.649E-03 0.918E-03 0.868E-03 0.573E-03 0.507E-03 0.436E-03 0.435E-03 0.386E-03
 0.367E-03 0.374E-03 0.392E-03 0.455E-03 0.475E-03 0.551E-03 0.612E-03 0.683E-03
 0.772E-03 0.844E-03 0.825E-03 0.806E-03 0.841E-03 0.101E-02 0.111E-02 0.115E-02
 0.122E-02 0.137E-02 0.158E-02 0.159E-02 0.164E-02 0.164E-02 0.159E-02 0.159E-02
 0.171E-02 0.186E-02 0.200E-02 0.203E-02 0.185E-02 0.201E-02 0.000E+00 0.000E+00
 0.000E+00 0.000E+00 0.000E+00 0.000E+00 0.000E+00 0.000E+00 0.000E+00 0.000E+00
 0.000E+00 0.000E+00 0.000E+00 0.000E+00 0.000E+00 0.000E+00 0.000E+00 0.000E+00
 0.000E+00 0.000E+00 0.000E+00 0.000E+00
 0.104E-01 0.104E-01 0.108E-01 0.110E-01 0.106E-01 0.110E-01 0.173E-01 0.188E-01
 0.214E-01 0.225E-01 0.223E-01 0.352E-01 0.441E-01 0.495E-01 0.531E-01 0.728E-01
 0.636E-01 0.448E-01 0.288E-01 0.247E-01 0.211E-01 0.193E-01 0.197E-01 0.202E-01
 0.208E-01 0.255E-01 0.264E-01 0.231E-01 0.200E-01 0.156E-01 0.145E-01 0.154E-01
 0.159E-01 0.156E-01 0.159E-01 0.153E-01 0.145E-01 0.159E-01 0.166E-01 0.171E-01
 0.172E-01 0.164E-01 0.151E-01 0.141E-01 0.141E-01 0.139E-01 0.138E-01 0.138E-01
 0.134E-01 0.133E-01 0.129E-01 0.128E-01 0.129E-01 0.128E-01 0.130E-01 0.131E-01
 0.133E-01 0.137E-01 0.141E-01 0.141E-01 0.142E-01 0.145E-01 0.148E-01 0.148E-01
 0.147E-01 0.148E-01 0.151E-01 0.152E-01 0.150E-01 0.148E-01 0.146E-01 0.145E-01
 0.145E-01 0.146E-01 0.147E-01 0.148E-01 0.144E-01 0.142E-01 0.000E+00 0.000E+00
 0.000E+00 0.000E+00 0.000E+00 0.000E+00 0.000E+00 0.000E+00 0.000E+00 0.000E+00
 0.000E+00 0.000E+00 0.000E+00 0.000E+00 0.000E+00 0.000E+00 0.000E+00 0.000E+00
 0.000E+00 0.000E+00 0.000E+00 0.000E+00
 0.426E-02 0.396E-02 0.427E-02 0.425E-02 0.387E-02 0.449E-02 0.616E-02 0.609E-02
 0.625E-02 0.618E-02 0.586E-02 0.826E-02 0.928E-02 0.929E-02 0.960E-02 0.121E-01
 0.906E-02 0.520E-02 0.263E-02 0.220E-02 0.171E-02 0.153E-02 0.142E-02 0.128E-02
 0.147E-02 0.139E-02 0.148E-02 0.124E-02 0.838E-03 0.577E-03 0.423E-03 0.479E-03
 0.513E-03 0.575E-03 0.660E-03 0.599E-03 0.552E-03 0.446E-03 0.344E-03 0.288E-03
 0.267E-03 0.312E-03 0.249E-03 0.140E-03 0.112E-03 0.858E-04 0.763E-04 0.615E-04
 0.528E-04 0.474E-04 0.440E-04 0.455E-04 0.407E-04 0.402E-04 0.387E-04 0.377E-04
 0.374E-04 0.363E-04 0.325E-04 0.292E-04 0.278E-04 0.244E-04 0.236E-04 0.213E-04
 0.187E-04 0.180E-04 0.177E-04 0.153E-04 0.133E-04 0.121E-04 0.107E-04 0.984E-05
 0.959E-05 0.962E-05 0.975E-05 0.922E-05 0.678E-05 0.620E-05 0.000E+00 0.000E+00
 0.000E+00 0.000E+00 0.000E+00 0.000E+00 0.000E+00 0.000E+00 0.000E+00 0.000E+00
 0.000E+00 0.000E+00 0.000E+00 0.000E+00 0.000E+00 0.000E+00 0.000E+00 0.000E+00
 0.000E+00 0.000E+00 0.000E+00 0.000E+00
 0.104E-01 0.102E-01 0.116E-01 0.118E-01 0.113E-01 0.139E-01 0.204E-01 0.223E-01
 0.247E-01 0.266E-01 0.270E-01 0.405E-01 0.485E-01 0.516E-01 0.560E-01 0.733E-01
 0.604E-01 0.380E-01 0.207E-01 0.189E-01 0.156E-01 0.151E-01 0.147E-01 0.141E-01
 0.169E-01 0.168E-01 0.198E-01 0.181E-01 0.133E-01 0.977E-02 0.763E-02 0.939E-02
 0.107E-01 0.127E-01 0.153E-01 0.147E-01 0.142E-01 0.120E-01 0.966E-02 0.845E-02
 0.816E-02 0.105E-01 0.909E-02 0.554E-02 0.455E-02 0.365E-02 0.342E-02 0.286E-02
 0.256E-02 0.247E-02 0.246E-02 0.260E-02 0.249E-02 0.266E-02 0.275E-02 0.286E-02
 0.303E-02 0.312E-02 0.288E-02 0.267E-02 0.264E-02 0.288E-02 0.290E-02 0.278E-02
 0.273E-02 0.288E-02 0.310E-02 0.294E-02 0.287E-02 0.270E-02 0.249E-02 0.239E-02
 0.244E-02 0.254E-02 0.262E-02 0.255E-02 0.212E-02 0.210E-02 0.000E+00 0.000E+00
 0.000E+00 0.000E+00 0.000E+00 0.000E+00 0.000E+00 0.000E+00 0.000E+00 0.000E+00
 0.000E+00 0.000E+00 0.000E+00 0.000E+00 0.000E+00 0.000E+00 0.000E+00 0.000E+00
 0.000E+00 0.000E+00 0.000E+00 0.000E+00
 0.206E+02 0.206E+02 0.199E+02 0.199E+02 0.199E+02 0.203E+02 0.203E+02 0.203E+02
 0.203E+02 0.203E+02 0.206E+02 0.207E+02 0.208E+02 0.203E+02 0.208E+02 0.208E+02
 0.207E+02 0.206E+02 0.203E+02 0.203E+02 0.203E+02 0.200E+02 0.200E+02 0.200E+02
 0.203E+02 0.203E+02 0.202E+02 0.204E+02 0.205E+02 0.205E+02 0.205E+02 0.335E+02
 0.385E+02 0.335E+02 0.336E+02 0.336E+02 0.399E+02 0.395E+02 0.395E+02 0.395E+02
 0.396E+02 0.336E+02 0.335E+02 0.321E+02 0.203E+02 0.203E+02 0.203E+02 0.203E+02
 0.199E+02 0.199E+02 0.199E+02 0.203E+02 0.203E+02 0.203E+02 0.203E+02 0.203E+02
 0.203E+02 0.203E+02 0.203E+02 0.203E+02 0.203E+02 0.218E+02 0.218E+02 0.220E+02
 0.223E+02 0.223E+02 0.224E+02 0.229E+02 0.230E+02 0.230E+02 0.230E+02 0.233E+02
 0.234E+02 0.234E+02 0.236E+02 0.236E+02 0.241E+02 0.241E+02 0.000E+00 0.000E+00
 0.000E+00 0.000E+00 0.000E+00 0.000E+00 0.000E+00 0.000E+00 0.000E+00 0.000E+00
 0.000E+00 0.000E+00 0.000E+00 0.000E+00 0.000E+00 0.000E+00 0.000E+00 0.000E+00
 0.000E+00 0.000E+00 0.000E+00 0.000E+00
 0.198E+02 0.198E+02 0.198E+02 0.199E+02 0.199E+02 0.199E+02 0.203E+02 0.203E+02
 0.203E+02 0.203E+02 0.203E+02 0.207E+02 0.208E+02 0.204E+02 0.208E+02 0.208E+02
 0.207E+02 0.206E+02 0.203E+02 0.203E+02 0.203E+02 0.207E+02 0.206E+02 0.203E+02
 0.202E+02 0.203E+02 0.206E+02 0.206E+02 0.207E+02 0.204E+02 0.207E+02 0.207E+02
 0.207E+02 0.207E+02 0.207E+02 0.207E+02 0.204E+02 0.206E+02 0.206E+02 0.206E+02
 0.206E+02 0.206E+02 0.207E+02 0.207E+02 0.203E+02 0.203E+02 0.203E+02 0.203E+02
 0.203E+02 0.203E+02 0.203E+02 0.203E+02 0.203E+02 0.203E+02 0.203E+02 0.203E+02
 0.203E+02 0.203E+02 0.203E+02 0.203E+02 0.203E+02 0.203E+02 0.203E+02 0.203E+02
 0.203E+02 0.203E+02 0.203E+02 0.203E+02 0.203E+02 0.203E+02 0.203E+02 0.203E+02
 0.203E+02 0.203E+02 0.203E+02 0.203E+02 0.203E+02 0.203E+02 0.000E+00 0.000E+00
 0.000E+00 0.000E+00 0.000E+00 0.000E+00 0.000E+00 0.000E+00 0.000E+00 0.000E+00
 0.000E+00 0.000E+00 0.000E+00 0.000E+00 0.000E+00 0.000E+00 0.000E+00 0.000E+00
 0.000E+00 0.000E+00 0.000E+00 0.000E+00
 0.206E+02 0.206E+02 0.199E+02 0.199E+02 0.199E+02 0.203E+02 0.203E+02 0.203E+02
 0.203E+02 0.203E+02 0.206E+02 0.207E+02 0.208E+02 0.204E+02 0.208E+02 0.208E+02
 0.207E+02 0.206E+02 0.203E+02 0.203E+02 0.203E+02 0.199E+02 0.200E+02 0.200E+02
 0.203E+02 0.203E+02 0.202E+02 0.204E+02 0.205E+02 0.205E+02 0.205E+02 0.335E+02
 0.385E+02 0.335E+02 0.335E+02 0.336E+02 0.399E+02 0.395E+02 0.395E+02 0.395E+02
 0.395E+02 0.336E+02 0.335E+02 0.321E+02 0.203E+02 0.203E+02 0.203E+02 0.203E+02
 0.203E+02 0.203E+02 0.198E+02 0.203E+02 0.203E+02 0.203E+02 0.203E+02 0.203E+02
 0.203E+02 0.203E+02 0.203E+02 0.203E+02 0.203E+02 0.207E+02 0.207E+02 0.207E+02
 0.207E+02 0.207E+02 0.207E+02 0.207E+02 0.229E+02 0.229E+02 0.229E+02 0.233E+02
 0.234E+02 0.234E+02 0.236E+02 0.236E+02 0.240E+02 0.240E+02 0.000E+00 0.000E+00
 0.000E+00 0.000E+00 0.000E+00 0.000E+00 0.000E+00 0.000E+00 0.000E+00 0.000E+00
 0.000E+00 0.000E+00 0.000E+00 0.000E+00 0.000E+00 0.000E+00 0.000E+00 0.000E+00
 0.000E+00 0.000E+00 0.000E+00 0.000E+00
/&   ----------  End of spectral data for channel  3  ----------
