Response and Fourier amplitude spectra (78 periods, 0.04 -  6.0 sec)   for      
Corrected accelerogram   58658-G0133-21116.07       Chan 14:  Long       from   
Uncorrected Accelerogram Data             Processed: 05/19/21, CGS  58658007    
Rcrd of Mon Apr 26, 2021 10:09:54.0 PDT           (Avol1 v6.6,64b, 2/20; PC86)  
CSMIP Preliminary Processing            (Origin:  To be determined)             
58658-G0133-21116.07                 Start time:  4/26/21, 17:09:54.0 UTC (GPS) 
Station No. 58658   37.691N, 122.099W    Granit  s/n  133 (18 Chns of 20 at Sta)
Hayward - Hwy 580/238 Interchange Bridge  CGS   Data: Acceleration              
Chan 14:  Long    (Sta Chn: 19)     Location: Bent 4: North Column, Top         
Rcrd of Mon Apr 26, 2021 10:09:54.0 PDT    Mon Apr 26, 2021 10:09:54.0 PDT      
Hypocenter:  To be determined.               ML:  To be determined.
Instr Period = 0.0047 sec,  Damping = 0.700,  Sensitivity = 1.25 v/g
                        Record Length = 65.000 sec.
                                     Uncor Max  = -0.004 g, at   28.385 sec.
RMS accel of (uncor) record  =        .   Chn. metadata effective date: 09/01/11
Accelerogram bandpass filtered with 3 dB pts at  0.30 and 40.00 cyc/sec
                 instrument- and base-line corrected
                                                         (Avol3,v6.4,64b,12/18)




Rcrd of Mon Apr 26, 2021 10:09:54.0 PDT    Mon Apr 26, 2021 10:09:54.0 PDT

58658-G0133-21116.07      Hayward - Hwy 580/238 Interchange Bridge  CGChan 14:
Long
58658-G0133-21116.07      Hayward - Hwy 580/238 Interchange Bridge  CGChan 14:
Long
Units for spectra are inches and sec, except Sa is in fraction of g.

   14  100   19   18   20  200    1    3    2   24   30  133    058658    3    0
   17    9   54    0  116    4   26 2021   10    3  80013000   39   40   74   -1
13000    0  100    3  133    1    7  650    2 -999 -999 -999 -999 -999 -999 -999
 -999 -999    3 -99913000    1  222    1   24   21 -999 -999    3    1 -99913000
    313000    4   78    1   18    5    0    0 -999    0    0    1    3    1    2
    2    2    4    1   66   78    0    2 -999    0    0    1    0    0    0  222
    1    0    2    0
     0.005     0.700    65.000     0.001     1.000  1249.000    -0.004    28.385
   212.000     0.596     0.477  -999.000     5.000  -999.000     4.000  -999.000
     5.000     3.528     5.000  -999.000    25.000    30.000  -999.000    -0.007
     0.011     0.018     2.000    15.000    37.691  -122.099     0.487     0.476
     0.977    -0.053     0.090    49.000    25.000    35.900    13.700    71.960
     1.000    11.003    -8.000  -999.000  -999.000  -999.000  -999.000  -999.000
     7.200     6.600     6.600   980.665     0.005    65.000    33.741     0.000
  -999.000    40.000  -999.000    65.000     0.005     0.300  -999.000  -999.000
    31.220    -3.646    32.840     0.276    44.875     1.580    -0.069     0.300
    40.000     0.005     0.005    -1.099     0.005     0.053  -999.000  -999.000
     0.019     0.300     0.004     0.015     0.001     0.000  -999.000  -999.000
  -999.000  -999.000  -999.000  -999.000  -999.000  -999.000  -999.000  -999.000
  -999.000  -999.000  -999.000  -999.000
     0.050
     0.040     0.042     0.044     0.046     0.048     0.050     0.055     0.060
     0.065     0.070     0.075     0.080     0.085     0.090     0.095     0.100
     0.110     0.120     0.130     0.140     0.150     0.160     0.170     0.180
     0.190     0.200     0.220     0.240     0.260     0.280     0.300     0.320
     0.340     0.360     0.380     0.400     0.420     0.440     0.460     0.480
     0.500     0.550     0.600     0.650     0.700     0.750     0.800     0.850
     0.900     0.950     1.000     1.100     1.200     1.300     1.400     1.500
     1.600     1.700     1.800     1.900     2.000     2.200     2.400     2.600
     2.800     3.000     3.200     3.400     3.600     3.800     4.000     4.200
     4.400     4.600     4.800     5.000     5.500     6.000     0.000     0.000
     0.000     0.000     0.000     0.000     0.000     0.000     0.000     0.000
     0.000     0.000     0.000     0.000     0.000     0.000     0.000     0.000
     0.000     0.000     0.000     0.000
Fourier amplitude spectra in in/sec.
 0.000E+00 0.000E+00 0.000E+00 0.000E+00 0.000E+00 0.000E+00 0.000E+00 0.000E+00
 0.000E+00 0.000E+00 0.000E+00 0.000E+00 0.000E+00 0.000E+00 0.000E+00 0.000E+00
 0.000E+00 0.000E+00 0.000E+00 0.000E+00 0.000E+00 0.000E+00 0.000E+00 0.000E+00
 0.000E+00 0.000E+00 0.000E+00 0.000E+00 0.000E+00 0.000E+00 0.000E+00 0.000E+00
 0.000E+00 0.000E+00 0.000E+00 0.000E+00 0.000E+00 0.000E+00 0.000E+00 0.000E+00
 0.000E+00 0.000E+00 0.000E+00 0.000E+00 0.000E+00 0.000E+00 0.000E+00 0.000E+00
 0.000E+00 0.000E+00 0.000E+00 0.000E+00 0.000E+00 0.000E+00 0.000E+00 0.000E+00
 0.000E+00 0.000E+00 0.000E+00 0.000E+00 0.000E+00 0.000E+00 0.000E+00 0.000E+00
 0.000E+00 0.000E+00 0.000E+00 0.000E+00 0.000E+00 0.000E+00 0.000E+00 0.000E+00
 0.000E+00 0.000E+00 0.000E+00 0.000E+00 0.000E+00 0.000E+00 0.000E+00 0.000E+00
 0.000E+00 0.000E+00 0.000E+00 0.000E+00 0.000E+00 0.000E+00 0.000E+00 0.000E+00
 0.000E+00 0.000E+00 0.000E+00 0.000E+00 0.000E+00 0.000E+00 0.000E+00 0.000E+00
 0.000E+00 0.000E+00 0.000E+00 0.000E+00
Damping = 0.05. Data of Sd,Sv,Sa,Pssv,ttSd,ttSv,ttSa :
 0.161E-03 0.140E-03 0.137E-03 0.135E-03 0.121E-03 0.141E-03 0.202E-03 0.286E-03
 0.383E-03 0.543E-03 0.721E-03 0.809E-03 0.841E-03 0.114E-02 0.117E-02 0.114E-02
 0.848E-03 0.800E-03 0.806E-03 0.856E-03 0.851E-03 0.960E-03 0.103E-02 0.114E-02
 0.143E-02 0.152E-02 0.201E-02 0.303E-02 0.499E-02 0.950E-02 0.162E-01 0.134E-01
 0.184E-01 0.153E-01 0.126E-01 0.140E-01 0.122E-01 0.106E-01 0.119E-01 0.113E-01
 0.104E-01 0.155E-01 0.160E-01 0.121E-01 0.899E-02 0.677E-02 0.643E-02 0.675E-02
 0.695E-02 0.573E-02 0.511E-02 0.506E-02 0.475E-02 0.468E-02 0.465E-02 0.406E-02
 0.397E-02 0.450E-02 0.441E-02 0.435E-02 0.456E-02 0.503E-02 0.580E-02 0.563E-02
 0.595E-02 0.703E-02 0.940E-02 0.117E-01 0.111E-01 0.116E-01 0.123E-01 0.139E-01
 0.132E-01 0.139E-01 0.156E-01 0.167E-01 0.166E-01 0.217E-01 0.000E+00 0.000E+00
 0.000E+00 0.000E+00 0.000E+00 0.000E+00 0.000E+00 0.000E+00 0.000E+00 0.000E+00
 0.000E+00 0.000E+00 0.000E+00 0.000E+00 0.000E+00 0.000E+00 0.000E+00 0.000E+00
 0.000E+00 0.000E+00 0.000E+00 0.000E+00
 0.241E-01 0.194E-01 0.177E-01 0.158E-01 0.159E-01 0.171E-01 0.193E-01 0.285E-01
 0.346E-01 0.431E-01 0.579E-01 0.596E-01 0.614E-01 0.750E-01 0.750E-01 0.703E-01
 0.391E-01 0.332E-01 0.299E-01 0.304E-01 0.263E-01 0.275E-01 0.297E-01 0.328E-01
 0.366E-01 0.456E-01 0.522E-01 0.640E-01 0.102E+00 0.197E+00 0.334E+00 0.246E+00
 0.338E+00 0.267E+00 0.218E+00 0.219E+00 0.189E+00 0.159E+00 0.168E+00 0.154E+00
 0.141E+00 0.184E+00 0.185E+00 0.138E+00 0.106E+00 0.851E-01 0.796E-01 0.791E-01
 0.736E-01 0.752E-01 0.725E-01 0.683E-01 0.668E-01 0.675E-01 0.665E-01 0.662E-01
 0.660E-01 0.661E-01 0.675E-01 0.655E-01 0.644E-01 0.624E-01 0.636E-01 0.667E-01
 0.701E-01 0.706E-01 0.660E-01 0.604E-01 0.666E-01 0.737E-01 0.780E-01 0.769E-01
 0.735E-01 0.725E-01 0.704E-01 0.660E-01 0.606E-01 0.650E-01 0.000E+00 0.000E+00
 0.000E+00 0.000E+00 0.000E+00 0.000E+00 0.000E+00 0.000E+00 0.000E+00 0.000E+00
 0.000E+00 0.000E+00 0.000E+00 0.000E+00 0.000E+00 0.000E+00 0.000E+00 0.000E+00
 0.000E+00 0.000E+00 0.000E+00 0.000E+00
 0.103E-01 0.814E-02 0.718E-02 0.661E-02 0.540E-02 0.579E-02 0.690E-02 0.824E-02
 0.941E-02 0.113E-01 0.130E-01 0.129E-01 0.120E-01 0.146E-01 0.133E-01 0.117E-01
 0.724E-02 0.571E-02 0.490E-02 0.450E-02 0.389E-02 0.384E-02 0.367E-02 0.362E-02
 0.404E-02 0.389E-02 0.426E-02 0.539E-02 0.758E-02 0.124E-01 0.185E-01 0.135E-01
 0.163E-01 0.122E-01 0.900E-02 0.898E-02 0.710E-02 0.566E-02 0.577E-02 0.505E-02
 0.428E-02 0.527E-02 0.458E-02 0.294E-02 0.189E-02 0.125E-02 0.104E-02 0.968E-03
 0.890E-03 0.660E-03 0.535E-03 0.440E-03 0.349E-03 0.295E-03 0.254E-03 0.196E-03
 0.169E-03 0.170E-03 0.150E-03 0.134E-03 0.129E-03 0.118E-03 0.110E-03 0.920E-04
 0.852E-04 0.901E-04 0.104E-03 0.115E-03 0.968E-04 0.907E-04 0.869E-04 0.876E-04
 0.772E-04 0.742E-04 0.750E-04 0.751E-04 0.635E-04 0.663E-04 0.000E+00 0.000E+00
 0.000E+00 0.000E+00 0.000E+00 0.000E+00 0.000E+00 0.000E+00 0.000E+00 0.000E+00
 0.000E+00 0.000E+00 0.000E+00 0.000E+00 0.000E+00 0.000E+00 0.000E+00 0.000E+00
 0.000E+00 0.000E+00 0.000E+00 0.000E+00
 0.253E-01 0.209E-01 0.195E-01 0.185E-01 0.159E-01 0.178E-01 0.231E-01 0.299E-01
 0.370E-01 0.488E-01 0.604E-01 0.636E-01 0.622E-01 0.797E-01 0.776E-01 0.715E-01
 0.484E-01 0.419E-01 0.389E-01 0.384E-01 0.356E-01 0.377E-01 0.382E-01 0.399E-01
 0.471E-01 0.477E-01 0.575E-01 0.793E-01 0.121E+00 0.213E+00 0.340E+00 0.264E+00
 0.339E+00 0.268E+00 0.209E+00 0.220E+00 0.182E+00 0.152E+00 0.162E+00 0.148E+00
 0.131E+00 0.177E+00 0.168E+00 0.117E+00 0.807E-01 0.567E-01 0.505E-01 0.499E-01
 0.485E-01 0.379E-01 0.321E-01 0.289E-01 0.249E-01 0.226E-01 0.209E-01 0.170E-01
 0.156E-01 0.166E-01 0.154E-01 0.144E-01 0.143E-01 0.144E-01 0.152E-01 0.136E-01
 0.133E-01 0.147E-01 0.185E-01 0.216E-01 0.195E-01 0.191E-01 0.193E-01 0.208E-01
 0.189E-01 0.190E-01 0.204E-01 0.210E-01 0.189E-01 0.228E-01 0.000E+00 0.000E+00
 0.000E+00 0.000E+00 0.000E+00 0.000E+00 0.000E+00 0.000E+00 0.000E+00 0.000E+00
 0.000E+00 0.000E+00 0.000E+00 0.000E+00 0.000E+00 0.000E+00 0.000E+00 0.000E+00
 0.000E+00 0.000E+00 0.000E+00 0.000E+00
 0.285E+02 0.572E+02 0.283E+02 0.283E+02 0.283E+02 0.312E+02 0.329E+02 0.329E+02
 0.291E+02 0.292E+02 0.292E+02 0.297E+02 0.292E+02 0.269E+02 0.267E+02 0.267E+02
 0.329E+02 0.329E+02 0.329E+02 0.329E+02 0.329E+02 0.329E+02 0.329E+02 0.329E+02
 0.329E+02 0.329E+02 0.462E+02 0.462E+02 0.462E+02 0.474E+02 0.476E+02 0.379E+02
 0.381E+02 0.367E+02 0.367E+02 0.273E+02 0.273E+02 0.392E+02 0.392E+02 0.393E+02
 0.393E+02 0.316E+02 0.289E+02 0.283E+02 0.272E+02 0.269E+02 0.269E+02 0.270E+02
 0.270E+02 0.270E+02 0.389E+02 0.389E+02 0.389E+02 0.389E+02 0.389E+02 0.389E+02
 0.389E+02 0.389E+02 0.270E+02 0.389E+02 0.355E+02 0.355E+02 0.315E+02 0.315E+02
 0.321E+02 0.283E+02 0.284E+02 0.270E+02 0.289E+02 0.315E+02 0.315E+02 0.321E+02
 0.321E+02 0.321E+02 0.327E+02 0.327E+02 0.331E+02 0.338E+02 0.000E+00 0.000E+00
 0.000E+00 0.000E+00 0.000E+00 0.000E+00 0.000E+00 0.000E+00 0.000E+00 0.000E+00
 0.000E+00 0.000E+00 0.000E+00 0.000E+00 0.000E+00 0.000E+00 0.000E+00 0.000E+00
 0.000E+00 0.000E+00 0.000E+00 0.000E+00
 0.285E+02 0.572E+02 0.572E+02 0.572E+02 0.284E+02 0.284E+02 0.290E+02 0.285E+02
 0.285E+02 0.292E+02 0.292E+02 0.297E+02 0.292E+02 0.252E+02 0.251E+02 0.267E+02
 0.329E+02 0.329E+02 0.329E+02 0.329E+02 0.329E+02 0.329E+02 0.330E+02 0.330E+02
 0.330E+02 0.330E+02 0.330E+02 0.473E+02 0.461E+02 0.474E+02 0.476E+02 0.378E+02
 0.381E+02 0.366E+02 0.368E+02 0.272E+02 0.381E+02 0.393E+02 0.393E+02 0.392E+02
 0.392E+02 0.317E+02 0.290E+02 0.282E+02 0.271E+02 0.271E+02 0.271E+02 0.271E+02
 0.268E+02 0.328E+02 0.328E+02 0.328E+02 0.328E+02 0.328E+02 0.328E+02 0.328E+02
 0.328E+02 0.328E+02 0.328E+02 0.328E+02 0.328E+02 0.328E+02 0.328E+02 0.328E+02
 0.328E+02 0.328E+02 0.328E+02 0.328E+02 0.328E+02 0.328E+02 0.328E+02 0.328E+02
 0.328E+02 0.328E+02 0.328E+02 0.328E+02 0.328E+02 0.269E+02 0.000E+00 0.000E+00
 0.000E+00 0.000E+00 0.000E+00 0.000E+00 0.000E+00 0.000E+00 0.000E+00 0.000E+00
 0.000E+00 0.000E+00 0.000E+00 0.000E+00 0.000E+00 0.000E+00 0.000E+00 0.000E+00
 0.000E+00 0.000E+00 0.000E+00 0.000E+00
 0.285E+02 0.572E+02 0.283E+02 0.283E+02 0.280E+02 0.312E+02 0.290E+02 0.329E+02
 0.285E+02 0.292E+02 0.292E+02 0.297E+02 0.292E+02 0.269E+02 0.268E+02 0.267E+02
 0.329E+02 0.329E+02 0.329E+02 0.329E+02 0.329E+02 0.329E+02 0.329E+02 0.329E+02
 0.329E+02 0.329E+02 0.462E+02 0.462E+02 0.462E+02 0.474E+02 0.476E+02 0.379E+02
 0.381E+02 0.367E+02 0.367E+02 0.273E+02 0.273E+02 0.392E+02 0.392E+02 0.393E+02
 0.393E+02 0.316E+02 0.289E+02 0.283E+02 0.272E+02 0.269E+02 0.269E+02 0.269E+02
 0.269E+02 0.270E+02 0.389E+02 0.389E+02 0.389E+02 0.389E+02 0.389E+02 0.389E+02
 0.389E+02 0.389E+02 0.389E+02 0.389E+02 0.355E+02 0.355E+02 0.314E+02 0.314E+02
 0.321E+02 0.283E+02 0.283E+02 0.269E+02 0.269E+02 0.314E+02 0.314E+02 0.321E+02
 0.321E+02 0.321E+02 0.327E+02 0.327E+02 0.331E+02 0.337E+02 0.000E+00 0.000E+00
 0.000E+00 0.000E+00 0.000E+00 0.000E+00 0.000E+00 0.000E+00 0.000E+00 0.000E+00
 0.000E+00 0.000E+00 0.000E+00 0.000E+00 0.000E+00 0.000E+00 0.000E+00 0.000E+00
 0.000E+00 0.000E+00 0.000E+00 0.000E+00
/&   ----------  End of spectral data for channel 19  ----------
