Response and Fourier amplitude spectra (78 periods, 0.04 -  6.0 sec)   for      
Corrected accelerogram   58658-G0133-21116.07       Chan 18:  Tran       from   
Uncorrected Accelerogram Data             Processed: 05/19/21, CGS  58658007    
Rcrd of Mon Apr 26, 2021 10:09:54.0 PDT           (Avol1 v6.6,64b, 2/20; PC86)  
CSMIP Preliminary Processing            (Origin:  To be determined)             
58658-G0133-21116.07                 Start time:  4/26/21, 17:09:54.0 UTC (GPS) 
Station No. 58658   37.691N, 122.099W    Granit  s/n  133 (18 Chns of 20 at Sta)
Hayward - Hwy 580/238 Interchange Bridge  CGS   Data: Acceleration              
Chan 18:  Tran    (Sta Chn: 23)     Location: Bent 4: Deck Level                
Rcrd of Mon Apr 26, 2021 10:09:54.0 PDT    Mon Apr 26, 2021 10:09:54.0 PDT      
Hypocenter:  To be determined.               ML:  To be determined.
Instr Period = 0.0047 sec,  Damping = 0.700,  Sensitivity = 1.25 v/g
                        Record Length = 65.000 sec.
                                     Uncor Max  = -0.004 g, at   26.380 sec.
RMS accel of (uncor) record  =        .   Chn. metadata effective date: 09/01/11
Accelerogram bandpass filtered with 3 dB pts at  0.30 and 40.00 cyc/sec
                 instrument- and base-line corrected
                                                         (Avol3,v6.4,64b,12/18)




Rcrd of Mon Apr 26, 2021 10:09:54.0 PDT    Mon Apr 26, 2021 10:09:54.0 PDT

58658-G0133-21116.07      Hayward - Hwy 580/238 Interchange Bridge  CGChan 18:
Tran
58658-G0133-21116.07      Hayward - Hwy 580/238 Interchange Bridge  CGChan 18:
Tran
Units for spectra are inches and sec, except Sa is in fraction of g.

   18  100   23   18   20  200    1    3    2   24   30  133    058658    3    0
   17    9   54    0  116    4   26 2021   10    3  90013000   39   40   74   -1
13000    0  100    3  133    1    7  650    2 -999 -999 -999 -999 -999 -999 -999
 -999 -999    3 -99913000    1  222    1   24   21 -999 -999    3    1 -99913000
    313000    4   78    1   18    5    0    0 -999    0    0    1    3    1    2
    2    2    4    1   66   78    0    2 -999    0    0    1    0    0    0  222
    1    0    2    0
     0.005     0.700    65.000     0.001     1.000  1248.000    -0.004    26.380
   212.000     0.596     0.478  -999.000     5.000  -999.000     4.000  -999.000
     5.000    -6.357     5.000  -999.000    25.000    30.000  -999.000    -0.015
     0.007     0.022     2.000    15.000    37.691  -122.099     0.179     0.308
     1.717    -0.010     0.054    49.000    25.000    35.900    13.700    71.960
     1.000    11.003    -8.000  -999.000  -999.000  -999.000  -999.000  -999.000
     7.200     6.600     6.600   980.665     0.005    65.000    33.741     0.000
  -999.000    40.000  -999.000    65.000     0.005     0.300  -999.000  -999.000
    24.545     3.343    24.050    -0.162     5.085     0.470     0.033     0.300
    40.000     0.005     0.005     0.367     0.005     0.016  -999.000  -999.000
     0.019     0.095     0.003     0.003     0.001     0.000  -999.000  -999.000
  -999.000  -999.000  -999.000  -999.000  -999.000  -999.000  -999.000  -999.000
  -999.000  -999.000  -999.000  -999.000
     0.050
     0.040     0.042     0.044     0.046     0.048     0.050     0.055     0.060
     0.065     0.070     0.075     0.080     0.085     0.090     0.095     0.100
     0.110     0.120     0.130     0.140     0.150     0.160     0.170     0.180
     0.190     0.200     0.220     0.240     0.260     0.280     0.300     0.320
     0.340     0.360     0.380     0.400     0.420     0.440     0.460     0.480
     0.500     0.550     0.600     0.650     0.700     0.750     0.800     0.850
     0.900     0.950     1.000     1.100     1.200     1.300     1.400     1.500
     1.600     1.700     1.800     1.900     2.000     2.200     2.400     2.600
     2.800     3.000     3.200     3.400     3.600     3.800     4.000     4.200
     4.400     4.600     4.800     5.000     5.500     6.000     0.000     0.000
     0.000     0.000     0.000     0.000     0.000     0.000     0.000     0.000
     0.000     0.000     0.000     0.000     0.000     0.000     0.000     0.000
     0.000     0.000     0.000     0.000
Fourier amplitude spectra in in/sec.
 0.000E+00 0.000E+00 0.000E+00 0.000E+00 0.000E+00 0.000E+00 0.000E+00 0.000E+00
 0.000E+00 0.000E+00 0.000E+00 0.000E+00 0.000E+00 0.000E+00 0.000E+00 0.000E+00
 0.000E+00 0.000E+00 0.000E+00 0.000E+00 0.000E+00 0.000E+00 0.000E+00 0.000E+00
 0.000E+00 0.000E+00 0.000E+00 0.000E+00 0.000E+00 0.000E+00 0.000E+00 0.000E+00
 0.000E+00 0.000E+00 0.000E+00 0.000E+00 0.000E+00 0.000E+00 0.000E+00 0.000E+00
 0.000E+00 0.000E+00 0.000E+00 0.000E+00 0.000E+00 0.000E+00 0.000E+00 0.000E+00
 0.000E+00 0.000E+00 0.000E+00 0.000E+00 0.000E+00 0.000E+00 0.000E+00 0.000E+00
 0.000E+00 0.000E+00 0.000E+00 0.000E+00 0.000E+00 0.000E+00 0.000E+00 0.000E+00
 0.000E+00 0.000E+00 0.000E+00 0.000E+00 0.000E+00 0.000E+00 0.000E+00 0.000E+00
 0.000E+00 0.000E+00 0.000E+00 0.000E+00 0.000E+00 0.000E+00 0.000E+00 0.000E+00
 0.000E+00 0.000E+00 0.000E+00 0.000E+00 0.000E+00 0.000E+00 0.000E+00 0.000E+00
 0.000E+00 0.000E+00 0.000E+00 0.000E+00 0.000E+00 0.000E+00 0.000E+00 0.000E+00
 0.000E+00 0.000E+00 0.000E+00 0.000E+00
Damping = 0.05. Data of Sd,Sv,Sa,Pssv,ttSd,ttSv,ttSa :
 0.766E-04 0.834E-04 0.988E-04 0.103E-03 0.115E-03 0.125E-03 0.179E-03 0.262E-03
 0.339E-03 0.405E-03 0.466E-03 0.560E-03 0.832E-03 0.138E-02 0.171E-02 0.134E-02
 0.833E-03 0.642E-03 0.574E-03 0.624E-03 0.716E-03 0.819E-03 0.102E-02 0.904E-03
 0.894E-03 0.931E-03 0.124E-02 0.195E-02 0.238E-02 0.266E-02 0.241E-02 0.386E-02
 0.532E-02 0.655E-02 0.862E-02 0.104E-01 0.930E-02 0.735E-02 0.671E-02 0.582E-02
 0.532E-02 0.636E-02 0.695E-02 0.661E-02 0.433E-02 0.440E-02 0.538E-02 0.516E-02
 0.620E-02 0.539E-02 0.658E-02 0.998E-02 0.692E-02 0.564E-02 0.489E-02 0.430E-02
 0.519E-02 0.563E-02 0.441E-02 0.478E-02 0.583E-02 0.621E-02 0.550E-02 0.608E-02
 0.671E-02 0.722E-02 0.741E-02 0.741E-02 0.880E-02 0.103E-01 0.117E-01 0.122E-01
 0.137E-01 0.148E-01 0.152E-01 0.147E-01 0.139E-01 0.202E-01 0.000E+00 0.000E+00
 0.000E+00 0.000E+00 0.000E+00 0.000E+00 0.000E+00 0.000E+00 0.000E+00 0.000E+00
 0.000E+00 0.000E+00 0.000E+00 0.000E+00 0.000E+00 0.000E+00 0.000E+00 0.000E+00
 0.000E+00 0.000E+00 0.000E+00 0.000E+00
 0.865E-02 0.100E-01 0.112E-01 0.117E-01 0.108E-01 0.120E-01 0.164E-01 0.215E-01
 0.273E-01 0.344E-01 0.339E-01 0.384E-01 0.566E-01 0.911E-01 0.112E+00 0.863E-01
 0.530E-01 0.402E-01 0.304E-01 0.303E-01 0.333E-01 0.319E-01 0.360E-01 0.317E-01
 0.332E-01 0.354E-01 0.350E-01 0.487E-01 0.440E-01 0.540E-01 0.501E-01 0.679E-01
 0.946E-01 0.111E+00 0.143E+00 0.168E+00 0.148E+00 0.110E+00 0.100E+00 0.831E-01
 0.777E-01 0.807E-01 0.908E-01 0.845E-01 0.652E-01 0.598E-01 0.610E-01 0.523E-01
 0.508E-01 0.485E-01 0.565E-01 0.738E-01 0.703E-01 0.535E-01 0.464E-01 0.454E-01
 0.470E-01 0.488E-01 0.445E-01 0.408E-01 0.411E-01 0.458E-01 0.437E-01 0.420E-01
 0.432E-01 0.402E-01 0.402E-01 0.404E-01 0.412E-01 0.422E-01 0.426E-01 0.432E-01
 0.442E-01 0.450E-01 0.453E-01 0.447E-01 0.396E-01 0.422E-01 0.000E+00 0.000E+00
 0.000E+00 0.000E+00 0.000E+00 0.000E+00 0.000E+00 0.000E+00 0.000E+00 0.000E+00
 0.000E+00 0.000E+00 0.000E+00 0.000E+00 0.000E+00 0.000E+00 0.000E+00 0.000E+00
 0.000E+00 0.000E+00 0.000E+00 0.000E+00
 0.490E-02 0.483E-02 0.520E-02 0.498E-02 0.510E-02 0.507E-02 0.599E-02 0.739E-02
 0.814E-02 0.840E-02 0.850E-02 0.905E-02 0.119E-01 0.175E-01 0.194E-01 0.137E-01
 0.715E-02 0.464E-02 0.347E-02 0.325E-02 0.329E-02 0.328E-02 0.362E-02 0.286E-02
 0.254E-02 0.240E-02 0.264E-02 0.348E-02 0.361E-02 0.349E-02 0.275E-02 0.387E-02
 0.473E-02 0.519E-02 0.613E-02 0.668E-02 0.543E-02 0.391E-02 0.326E-02 0.260E-02
 0.219E-02 0.216E-02 0.199E-02 0.162E-02 0.919E-03 0.815E-03 0.866E-03 0.738E-03
 0.796E-03 0.620E-03 0.679E-03 0.859E-03 0.496E-03 0.346E-03 0.261E-03 0.203E-03
 0.213E-03 0.204E-03 0.145E-03 0.140E-03 0.154E-03 0.138E-03 0.999E-04 0.963E-04
 0.931E-04 0.879E-04 0.760E-04 0.732E-04 0.763E-04 0.787E-04 0.775E-04 0.760E-04
 0.735E-04 0.736E-04 0.704E-04 0.626E-04 0.504E-04 0.606E-04 0.000E+00 0.000E+00
 0.000E+00 0.000E+00 0.000E+00 0.000E+00 0.000E+00 0.000E+00 0.000E+00 0.000E+00
 0.000E+00 0.000E+00 0.000E+00 0.000E+00 0.000E+00 0.000E+00 0.000E+00 0.000E+00
 0.000E+00 0.000E+00 0.000E+00 0.000E+00
 0.120E-01 0.125E-01 0.141E-01 0.141E-01 0.150E-01 0.157E-01 0.204E-01 0.275E-01
 0.328E-01 0.363E-01 0.390E-01 0.440E-01 0.615E-01 0.962E-01 0.113E+00 0.841E-01
 0.476E-01 0.336E-01 0.277E-01 0.280E-01 0.300E-01 0.322E-01 0.377E-01 0.315E-01
 0.296E-01 0.293E-01 0.355E-01 0.511E-01 0.574E-01 0.597E-01 0.504E-01 0.757E-01
 0.984E-01 0.114E+00 0.143E+00 0.163E+00 0.139E+00 0.105E+00 0.916E-01 0.762E-01
 0.669E-01 0.727E-01 0.727E-01 0.639E-01 0.388E-01 0.368E-01 0.423E-01 0.381E-01
 0.433E-01 0.357E-01 0.414E-01 0.570E-01 0.362E-01 0.273E-01 0.220E-01 0.180E-01
 0.204E-01 0.208E-01 0.154E-01 0.158E-01 0.183E-01 0.177E-01 0.144E-01 0.147E-01
 0.151E-01 0.151E-01 0.145E-01 0.137E-01 0.154E-01 0.171E-01 0.184E-01 0.182E-01
 0.195E-01 0.202E-01 0.200E-01 0.185E-01 0.159E-01 0.211E-01 0.000E+00 0.000E+00
 0.000E+00 0.000E+00 0.000E+00 0.000E+00 0.000E+00 0.000E+00 0.000E+00 0.000E+00
 0.000E+00 0.000E+00 0.000E+00 0.000E+00 0.000E+00 0.000E+00 0.000E+00 0.000E+00
 0.000E+00 0.000E+00 0.000E+00 0.000E+00
 0.240E+02 0.239E+02 0.271E+02 0.271E+02 0.259E+02 0.259E+02 0.245E+02 0.245E+02
 0.245E+02 0.245E+02 0.246E+02 0.260E+02 0.260E+02 0.264E+02 0.275E+02 0.275E+02
 0.262E+02 0.262E+02 0.246E+02 0.246E+02 0.246E+02 0.331E+02 0.328E+02 0.252E+02
 0.249E+02 0.246E+02 0.254E+02 0.249E+02 0.249E+02 0.250E+02 0.250E+02 0.308E+02
 0.310E+02 0.311E+02 0.254E+02 0.257E+02 0.259E+02 0.243E+02 0.243E+02 0.243E+02
 0.300E+02 0.298E+02 0.256E+02 0.242E+02 0.242E+02 0.275E+02 0.407E+02 0.396E+02
 0.310E+02 0.310E+02 0.585E+02 0.242E+02 0.341E+02 0.341E+02 0.331E+02 0.308E+02
 0.251E+02 0.251E+02 0.251E+02 0.251E+02 0.251E+02 0.252E+02 0.314E+02 0.394E+02
 0.308E+02 0.308E+02 0.575E+02 0.260E+02 0.260E+02 0.601E+02 0.583E+02 0.264E+02
 0.630E+02 0.294E+02 0.294E+02 0.320E+02 0.299E+02 0.299E+02 0.000E+00 0.000E+00
 0.000E+00 0.000E+00 0.000E+00 0.000E+00 0.000E+00 0.000E+00 0.000E+00 0.000E+00
 0.000E+00 0.000E+00 0.000E+00 0.000E+00 0.000E+00 0.000E+00 0.000E+00 0.000E+00
 0.000E+00 0.000E+00 0.000E+00 0.000E+00
 0.245E+02 0.240E+02 0.266E+02 0.240E+02 0.249E+02 0.326E+02 0.326E+02 0.326E+02
 0.246E+02 0.246E+02 0.246E+02 0.247E+02 0.260E+02 0.264E+02 0.274E+02 0.274E+02
 0.262E+02 0.262E+02 0.262E+02 0.248E+02 0.248E+02 0.328E+02 0.328E+02 0.328E+02
 0.246E+02 0.246E+02 0.246E+02 0.255E+02 0.250E+02 0.250E+02 0.250E+02 0.309E+02
 0.311E+02 0.311E+02 0.257E+02 0.256E+02 0.258E+02 0.242E+02 0.246E+02 0.247E+02
 0.301E+02 0.299E+02 0.254E+02 0.240E+02 0.240E+02 0.240E+02 0.240E+02 0.311E+02
 0.311E+02 0.248E+02 0.248E+02 0.240E+02 0.240E+02 0.240E+02 0.240E+02 0.253E+02
 0.240E+02 0.240E+02 0.240E+02 0.240E+02 0.240E+02 0.240E+02 0.240E+02 0.240E+02
 0.240E+02 0.240E+02 0.240E+02 0.240E+02 0.240E+02 0.240E+02 0.240E+02 0.240E+02
 0.240E+02 0.240E+02 0.240E+02 0.240E+02 0.307E+02 0.307E+02 0.000E+00 0.000E+00
 0.000E+00 0.000E+00 0.000E+00 0.000E+00 0.000E+00 0.000E+00 0.000E+00 0.000E+00
 0.000E+00 0.000E+00 0.000E+00 0.000E+00 0.000E+00 0.000E+00 0.000E+00 0.000E+00
 0.000E+00 0.000E+00 0.000E+00 0.000E+00
 0.240E+02 0.239E+02 0.271E+02 0.271E+02 0.259E+02 0.259E+02 0.245E+02 0.245E+02
 0.245E+02 0.245E+02 0.246E+02 0.260E+02 0.260E+02 0.264E+02 0.274E+02 0.275E+02
 0.262E+02 0.262E+02 0.246E+02 0.246E+02 0.246E+02 0.331E+02 0.328E+02 0.252E+02
 0.249E+02 0.246E+02 0.254E+02 0.249E+02 0.249E+02 0.250E+02 0.250E+02 0.308E+02
 0.310E+02 0.311E+02 0.258E+02 0.256E+02 0.259E+02 0.243E+02 0.243E+02 0.243E+02
 0.300E+02 0.298E+02 0.255E+02 0.241E+02 0.242E+02 0.275E+02 0.406E+02 0.396E+02
 0.310E+02 0.310E+02 0.585E+02 0.241E+02 0.340E+02 0.341E+02 0.331E+02 0.308E+02
 0.251E+02 0.251E+02 0.251E+02 0.251E+02 0.251E+02 0.251E+02 0.313E+02 0.394E+02
 0.308E+02 0.308E+02 0.574E+02 0.259E+02 0.259E+02 0.263E+02 0.263E+02 0.263E+02
 0.629E+02 0.294E+02 0.294E+02 0.298E+02 0.298E+02 0.298E+02 0.000E+00 0.000E+00
 0.000E+00 0.000E+00 0.000E+00 0.000E+00 0.000E+00 0.000E+00 0.000E+00 0.000E+00
 0.000E+00 0.000E+00 0.000E+00 0.000E+00 0.000E+00 0.000E+00 0.000E+00 0.000E+00
 0.000E+00 0.000E+00 0.000E+00 0.000E+00
/&   ----------  End of spectral data for channel 23  ----------
