Response and Fourier amplitude spectra (78 periods, 0.04 -  6.0 sec)   for      
Corrected accelerogram   58658-G0133-21116.07       Chan  2:  Tran       from   
Uncorrected Accelerogram Data             Processed: 05/19/21, CGS  58658007    
Rcrd of Mon Apr 26, 2021 10:09:54.0 PDT           (Avol1 v6.6,64b, 2/20; PC86)  
CSMIP Preliminary Processing            (Origin:  To be determined)             
58658-G0133-21116.07                 Start time:  4/26/21, 17:09:54.0 UTC (GPS) 
Station No. 58658   37.691N, 122.099W    Granit  s/n  133  (2 Chns of 20 at Sta)
Hayward - Hwy 580/238 Interchange Bridge  CGS   Data: Acceleration              
Chan  2:  Tran    (Sta Chn: 25)     Location: Bent 4: South Column, Grnd Level  
Rcrd of Mon Apr 26, 2021 10:09:54.0 PDT    Mon Apr 26, 2021 10:09:54.0 PDT      
Hypocenter:  To be determined.               ML:  To be determined.
Instr Period = 0.0047 sec,  Damping = 0.700,  Sensitivity = 1.25 v/g
                        Record Length = 65.000 sec.
                                     Uncor Max  =  0.007 g, at   24.970 sec.
RMS accel of (uncor) record  =        .   Chn. metadata effective date: 09/01/11
Accelerogram bandpass filtered with 3 dB pts at  0.30 and 40.00 cyc/sec
                 instrument- and base-line corrected
                                                         (Avol3,v6.4,64b,12/18)




Rcrd of Mon Apr 26, 2021 10:09:54.0 PDT    Mon Apr 26, 2021 10:09:54.0 PDT

58658-G0133-21116.07      Hayward - Hwy 580/238 Interchange Bridge  CGChan  2:
Tran
58658-G0133-21116.07      Hayward - Hwy 580/238 Interchange Bridge  CGChan  2:
Tran
Units for spectra are inches and sec, except Sa is in fraction of g.

    2  100   25    2   20  200    1    3    2   24   30  133    058658    3    0
   17    9   54    0  116    4   26 2021   10    3  90013000   39   40   74   -1
13000    1  100    3  133    1    7  650    2 -999 -999 -999 -999 -999 -999 -999
 -999 -999    3 -99913000    1  222    1   24   21 -999 -999    3    1 -99913000
    313000    4   78    1    2    5    0    0 -999    0    0    1    3    1    2
    2    2    4    1   66   78    0    2 -999    0    0    1    0    0    0  222
    1    0    2    0
     0.005     0.700    65.000     0.001     1.000  1252.000     0.007    24.970
   214.000     0.596     0.476  -999.000     5.000  -999.000     4.000  -999.000
     5.000    17.846     5.000  -999.000    25.000    30.000  -999.000     0.006
    -0.003    -0.008     2.000    15.000    37.691  -122.099     0.181     0.284
     1.572    -0.039     0.023    49.000    25.000    35.900    13.700    71.960
     1.000    11.003    -8.000  -999.000  -999.000  -999.000  -999.000  -999.000
     7.200     6.600     6.600   980.665     0.005    65.000    34.059    -0.000
  -999.000    40.000  -999.000    65.000     0.005     0.300  -999.000  -999.000
    24.970     6.969    27.485    -0.125    25.395     0.151    -0.009     0.300
    40.000     0.005     0.005    -0.077     0.005     0.010  -999.000  -999.000
     0.053     0.090     0.002     0.002     0.000     0.000  -999.000  -999.000
  -999.000  -999.000  -999.000  -999.000  -999.000  -999.000  -999.000  -999.000
  -999.000  -999.000  -999.000  -999.000
     0.050
     0.040     0.042     0.044     0.046     0.048     0.050     0.055     0.060
     0.065     0.070     0.075     0.080     0.085     0.090     0.095     0.100
     0.110     0.120     0.130     0.140     0.150     0.160     0.170     0.180
     0.190     0.200     0.220     0.240     0.260     0.280     0.300     0.320
     0.340     0.360     0.380     0.400     0.420     0.440     0.460     0.480
     0.500     0.550     0.600     0.650     0.700     0.750     0.800     0.850
     0.900     0.950     1.000     1.100     1.200     1.300     1.400     1.500
     1.600     1.700     1.800     1.900     2.000     2.200     2.400     2.600
     2.800     3.000     3.200     3.400     3.600     3.800     4.000     4.200
     4.400     4.600     4.800     5.000     5.500     6.000     0.000     0.000
     0.000     0.000     0.000     0.000     0.000     0.000     0.000     0.000
     0.000     0.000     0.000     0.000     0.000     0.000     0.000     0.000
     0.000     0.000     0.000     0.000
Fourier amplitude spectra in in/sec.
 0.000E+00 0.000E+00 0.000E+00 0.000E+00 0.000E+00 0.000E+00 0.000E+00 0.000E+00
 0.000E+00 0.000E+00 0.000E+00 0.000E+00 0.000E+00 0.000E+00 0.000E+00 0.000E+00
 0.000E+00 0.000E+00 0.000E+00 0.000E+00 0.000E+00 0.000E+00 0.000E+00 0.000E+00
 0.000E+00 0.000E+00 0.000E+00 0.000E+00 0.000E+00 0.000E+00 0.000E+00 0.000E+00
 0.000E+00 0.000E+00 0.000E+00 0.000E+00 0.000E+00 0.000E+00 0.000E+00 0.000E+00
 0.000E+00 0.000E+00 0.000E+00 0.000E+00 0.000E+00 0.000E+00 0.000E+00 0.000E+00
 0.000E+00 0.000E+00 0.000E+00 0.000E+00 0.000E+00 0.000E+00 0.000E+00 0.000E+00
 0.000E+00 0.000E+00 0.000E+00 0.000E+00 0.000E+00 0.000E+00 0.000E+00 0.000E+00
 0.000E+00 0.000E+00 0.000E+00 0.000E+00 0.000E+00 0.000E+00 0.000E+00 0.000E+00
 0.000E+00 0.000E+00 0.000E+00 0.000E+00 0.000E+00 0.000E+00 0.000E+00 0.000E+00
 0.000E+00 0.000E+00 0.000E+00 0.000E+00 0.000E+00 0.000E+00 0.000E+00 0.000E+00
 0.000E+00 0.000E+00 0.000E+00 0.000E+00 0.000E+00 0.000E+00 0.000E+00 0.000E+00
 0.000E+00 0.000E+00 0.000E+00 0.000E+00
Damping = 0.05. Data of Sd,Sv,Sa,Pssv,ttSd,ttSv,ttSa :
 0.160E-03 0.181E-03 0.199E-03 0.220E-03 0.233E-03 0.252E-03 0.344E-03 0.453E-03
 0.636E-03 0.868E-03 0.119E-02 0.168E-02 0.274E-02 0.420E-02 0.429E-02 0.340E-02
 0.185E-02 0.135E-02 0.114E-02 0.997E-03 0.994E-03 0.869E-03 0.851E-03 0.840E-03
 0.866E-03 0.872E-03 0.934E-03 0.127E-02 0.135E-02 0.137E-02 0.130E-02 0.130E-02
 0.147E-02 0.203E-02 0.255E-02 0.324E-02 0.265E-02 0.226E-02 0.200E-02 0.221E-02
 0.253E-02 0.285E-02 0.344E-02 0.300E-02 0.224E-02 0.177E-02 0.163E-02 0.153E-02
 0.155E-02 0.150E-02 0.157E-02 0.203E-02 0.158E-02 0.142E-02 0.136E-02 0.145E-02
 0.144E-02 0.150E-02 0.162E-02 0.158E-02 0.171E-02 0.195E-02 0.186E-02 0.217E-02
 0.216E-02 0.247E-02 0.285E-02 0.316E-02 0.356E-02 0.384E-02 0.419E-02 0.481E-02
 0.572E-02 0.687E-02 0.797E-02 0.866E-02 0.970E-02 0.115E-01 0.000E+00 0.000E+00
 0.000E+00 0.000E+00 0.000E+00 0.000E+00 0.000E+00 0.000E+00 0.000E+00 0.000E+00
 0.000E+00 0.000E+00 0.000E+00 0.000E+00 0.000E+00 0.000E+00 0.000E+00 0.000E+00
 0.000E+00 0.000E+00 0.000E+00 0.000E+00
 0.197E-01 0.193E-01 0.188E-01 0.196E-01 0.196E-01 0.194E-01 0.262E-01 0.350E-01
 0.463E-01 0.641E-01 0.882E-01 0.119E+00 0.193E+00 0.289E+00 0.287E+00 0.221E+00
 0.121E+00 0.884E-01 0.721E-01 0.630E-01 0.596E-01 0.552E-01 0.542E-01 0.516E-01
 0.502E-01 0.491E-01 0.513E-01 0.578E-01 0.520E-01 0.507E-01 0.508E-01 0.505E-01
 0.515E-01 0.597E-01 0.670E-01 0.710E-01 0.639E-01 0.553E-01 0.515E-01 0.489E-01
 0.500E-01 0.558E-01 0.640E-01 0.585E-01 0.503E-01 0.492E-01 0.492E-01 0.477E-01
 0.472E-01 0.478E-01 0.480E-01 0.451E-01 0.427E-01 0.430E-01 0.434E-01 0.430E-01
 0.430E-01 0.434E-01 0.440E-01 0.435E-01 0.432E-01 0.440E-01 0.436E-01 0.435E-01
 0.436E-01 0.433E-01 0.428E-01 0.424E-01 0.422E-01 0.422E-01 0.421E-01 0.422E-01
 0.431E-01 0.443E-01 0.455E-01 0.460E-01 0.448E-01 0.445E-01 0.000E+00 0.000E+00
 0.000E+00 0.000E+00 0.000E+00 0.000E+00 0.000E+00 0.000E+00 0.000E+00 0.000E+00
 0.000E+00 0.000E+00 0.000E+00 0.000E+00 0.000E+00 0.000E+00 0.000E+00 0.000E+00
 0.000E+00 0.000E+00 0.000E+00 0.000E+00
 0.103E-01 0.104E-01 0.106E-01 0.106E-01 0.103E-01 0.104E-01 0.116E-01 0.130E-01
 0.153E-01 0.183E-01 0.218E-01 0.267E-01 0.388E-01 0.530E-01 0.489E-01 0.346E-01
 0.158E-01 0.967E-02 0.688E-02 0.521E-02 0.454E-02 0.356E-02 0.305E-02 0.270E-02
 0.250E-02 0.229E-02 0.201E-02 0.229E-02 0.207E-02 0.182E-02 0.151E-02 0.133E-02
 0.132E-02 0.163E-02 0.183E-02 0.210E-02 0.156E-02 0.122E-02 0.996E-03 0.100E-02
 0.105E-02 0.980E-03 0.100E-02 0.756E-03 0.495E-03 0.351E-03 0.288E-03 0.240E-03
 0.221E-03 0.195E-03 0.185E-03 0.196E-03 0.133E-03 0.101E-03 0.870E-04 0.801E-04
 0.743E-04 0.678E-04 0.659E-04 0.591E-04 0.575E-04 0.547E-04 0.487E-04 0.447E-04
 0.434E-04 0.427E-04 0.410E-04 0.383E-04 0.372E-04 0.359E-04 0.352E-04 0.357E-04
 0.377E-04 0.405E-04 0.428E-04 0.429E-04 0.403E-04 0.396E-04 0.000E+00 0.000E+00
 0.000E+00 0.000E+00 0.000E+00 0.000E+00 0.000E+00 0.000E+00 0.000E+00 0.000E+00
 0.000E+00 0.000E+00 0.000E+00 0.000E+00 0.000E+00 0.000E+00 0.000E+00 0.000E+00
 0.000E+00 0.000E+00 0.000E+00 0.000E+00
 0.252E-01 0.270E-01 0.284E-01 0.300E-01 0.305E-01 0.316E-01 0.394E-01 0.474E-01
 0.615E-01 0.779E-01 0.997E-01 0.132E+00 0.202E+00 0.293E+00 0.284E+00 0.213E+00
 0.106E+00 0.708E-01 0.550E-01 0.447E-01 0.416E-01 0.341E-01 0.315E-01 0.293E-01
 0.286E-01 0.274E-01 0.267E-01 0.333E-01 0.325E-01 0.306E-01 0.272E-01 0.255E-01
 0.272E-01 0.354E-01 0.421E-01 0.509E-01 0.396E-01 0.322E-01 0.274E-01 0.290E-01
 0.318E-01 0.325E-01 0.361E-01 0.290E-01 0.201E-01 0.148E-01 0.128E-01 0.113E-01
 0.108E-01 0.992E-02 0.987E-02 0.116E-01 0.825E-02 0.687E-02 0.609E-02 0.607E-02
 0.564E-02 0.553E-02 0.565E-02 0.522E-02 0.537E-02 0.558E-02 0.486E-02 0.524E-02
 0.485E-02 0.518E-02 0.560E-02 0.584E-02 0.622E-02 0.635E-02 0.658E-02 0.719E-02
 0.817E-02 0.938E-02 0.104E-01 0.109E-01 0.111E-01 0.120E-01 0.000E+00 0.000E+00
 0.000E+00 0.000E+00 0.000E+00 0.000E+00 0.000E+00 0.000E+00 0.000E+00 0.000E+00
 0.000E+00 0.000E+00 0.000E+00 0.000E+00 0.000E+00 0.000E+00 0.000E+00 0.000E+00
 0.000E+00 0.000E+00 0.000E+00 0.000E+00
 0.246E+02 0.254E+02 0.254E+02 0.254E+02 0.254E+02 0.250E+02 0.249E+02 0.250E+02
 0.250E+02 0.250E+02 0.251E+02 0.251E+02 0.251E+02 0.253E+02 0.254E+02 0.254E+02
 0.252E+02 0.253E+02 0.253E+02 0.253E+02 0.253E+02 0.253E+02 0.252E+02 0.253E+02
 0.253E+02 0.253E+02 0.253E+02 0.254E+02 0.250E+02 0.275E+02 0.275E+02 0.276E+02
 0.307E+02 0.254E+02 0.276E+02 0.279E+02 0.265E+02 0.270E+02 0.270E+02 0.284E+02
 0.282E+02 0.299E+02 0.280E+02 0.277E+02 0.275E+02 0.275E+02 0.275E+02 0.278E+02
 0.278E+02 0.275E+02 0.252E+02 0.275E+02 0.276E+02 0.256E+02 0.256E+02 0.256E+02
 0.256E+02 0.264E+02 0.264E+02 0.264E+02 0.264E+02 0.264E+02 0.264E+02 0.264E+02
 0.252E+02 0.252E+02 0.256E+02 0.264E+02 0.264E+02 0.264E+02 0.264E+02 0.264E+02
 0.264E+02 0.264E+02 0.264E+02 0.264E+02 0.269E+02 0.269E+02 0.000E+00 0.000E+00
 0.000E+00 0.000E+00 0.000E+00 0.000E+00 0.000E+00 0.000E+00 0.000E+00 0.000E+00
 0.000E+00 0.000E+00 0.000E+00 0.000E+00 0.000E+00 0.000E+00 0.000E+00 0.000E+00
 0.000E+00 0.000E+00 0.000E+00 0.000E+00
 0.246E+02 0.246E+02 0.246E+02 0.246E+02 0.246E+02 0.250E+02 0.253E+02 0.250E+02
 0.250E+02 0.250E+02 0.250E+02 0.250E+02 0.250E+02 0.251E+02 0.254E+02 0.254E+02
 0.252E+02 0.254E+02 0.254E+02 0.250E+02 0.253E+02 0.250E+02 0.250E+02 0.250E+02
 0.250E+02 0.253E+02 0.253E+02 0.250E+02 0.274E+02 0.249E+02 0.249E+02 0.249E+02
 0.249E+02 0.249E+02 0.275E+02 0.278E+02 0.254E+02 0.271E+02 0.271E+02 0.254E+02
 0.279E+02 0.254E+02 0.279E+02 0.276E+02 0.253E+02 0.253E+02 0.253E+02 0.253E+02
 0.253E+02 0.253E+02 0.253E+02 0.277E+02 0.275E+02 0.253E+02 0.253E+02 0.253E+02
 0.253E+02 0.253E+02 0.253E+02 0.253E+02 0.253E+02 0.253E+02 0.253E+02 0.253E+02
 0.253E+02 0.253E+02 0.253E+02 0.253E+02 0.253E+02 0.253E+02 0.253E+02 0.277E+02
 0.277E+02 0.277E+02 0.277E+02 0.277E+02 0.277E+02 0.277E+02 0.000E+00 0.000E+00
 0.000E+00 0.000E+00 0.000E+00 0.000E+00 0.000E+00 0.000E+00 0.000E+00 0.000E+00
 0.000E+00 0.000E+00 0.000E+00 0.000E+00 0.000E+00 0.000E+00 0.000E+00 0.000E+00
 0.000E+00 0.000E+00 0.000E+00 0.000E+00
 0.246E+02 0.254E+02 0.254E+02 0.254E+02 0.254E+02 0.250E+02 0.249E+02 0.250E+02
 0.250E+02 0.250E+02 0.251E+02 0.251E+02 0.251E+02 0.252E+02 0.254E+02 0.254E+02
 0.252E+02 0.253E+02 0.253E+02 0.253E+02 0.253E+02 0.253E+02 0.252E+02 0.253E+02
 0.253E+02 0.253E+02 0.253E+02 0.254E+02 0.250E+02 0.275E+02 0.275E+02 0.275E+02
 0.307E+02 0.254E+02 0.276E+02 0.279E+02 0.265E+02 0.270E+02 0.270E+02 0.281E+02
 0.282E+02 0.298E+02 0.280E+02 0.277E+02 0.275E+02 0.275E+02 0.275E+02 0.275E+02
 0.275E+02 0.275E+02 0.251E+02 0.275E+02 0.276E+02 0.256E+02 0.276E+02 0.256E+02
 0.275E+02 0.264E+02 0.264E+02 0.264E+02 0.264E+02 0.264E+02 0.251E+02 0.264E+02
 0.251E+02 0.251E+02 0.251E+02 0.251E+02 0.264E+02 0.264E+02 0.251E+02 0.264E+02
 0.264E+02 0.264E+02 0.264E+02 0.264E+02 0.268E+02 0.268E+02 0.000E+00 0.000E+00
 0.000E+00 0.000E+00 0.000E+00 0.000E+00 0.000E+00 0.000E+00 0.000E+00 0.000E+00
 0.000E+00 0.000E+00 0.000E+00 0.000E+00 0.000E+00 0.000E+00 0.000E+00 0.000E+00
 0.000E+00 0.000E+00 0.000E+00 0.000E+00
/&   ----------  End of spectral data for channel 25  ----------
