Response and Fourier amplitude spectra (78 periods, 0.04 -  6.0 sec)   for      
Corrected accelerogram   58658-G0133-21116.07       Chan  9:  Long       from   
Uncorrected Accelerogram Data             Processed: 05/19/21, CGS  58658007    
Rcrd of Mon Apr 26, 2021 10:09:54.0 PDT           (Avol1 v6.6,64b, 2/20; PC86)  
CSMIP Preliminary Processing            (Origin:  To be determined)             
58658-G0133-21116.07                 Start time:  4/26/21, 17:09:54.0 UTC (GPS) 
Station No. 58658   37.691N, 122.099W    Granit  s/n  133 (18 Chns of 20 at Sta)
Hayward - Hwy 580/238 Interchange Bridge  CGS   Data: Acceleration              
Chan  9:  Long    (Sta Chn: 14)     Location: Bent 3: Deck Level                
Rcrd of Mon Apr 26, 2021 10:09:54.0 PDT    Mon Apr 26, 2021 10:09:54.0 PDT      
Hypocenter:  To be determined.               ML:  To be determined.
Instr Period = 0.0047 sec,  Damping = 0.700,  Sensitivity = 1.25 v/g
                        Record Length = 65.000 sec.
                                     Uncor Max  = -0.005 g, at   25.030 sec.
RMS accel of (uncor) record  =        .   Chn. metadata effective date: 09/01/11
Accelerogram bandpass filtered with 3 dB pts at  0.30 and 40.00 cyc/sec
                 instrument- and base-line corrected
                                                         (Avol3,v6.4,64b,12/18)




Rcrd of Mon Apr 26, 2021 10:09:54.0 PDT    Mon Apr 26, 2021 10:09:54.0 PDT

58658-G0133-21116.07      Hayward - Hwy 580/238 Interchange Bridge  CGChan  9:
Long
58658-G0133-21116.07      Hayward - Hwy 580/238 Interchange Bridge  CGChan  9:
Long
Units for spectra are inches and sec, except Sa is in fraction of g.

    9  100   14   18   20  200    1    3    2   24   30  133    058658    3    0
   17    9   54    0  116    4   26 2021   10    3  80013000   39   40   74   -1
13000    0  100    3  133    1    7  650    2 -999 -999 -999 -999 -999 -999 -999
 -999 -999    3 -99913000    1  222    1   24   21 -999 -999    3    1 -99913000
    313000    4   78    1   18    5    0    0 -999    0    0    1    3    1    2
    2    2    4    1   66   78    0    2 -999    0    0    1    0    0    0  222
    1    0    2    0
     0.005     0.700    65.000     0.001     1.000  1247.000    -0.005    25.030
   212.000     0.596     0.478  -999.000     5.000  -999.000     4.000  -999.000
     5.000     3.456     5.000  -999.000    25.000    30.000  -999.000     0.000
    -0.002    -0.002     2.000    15.000    37.691  -122.099     0.199     0.264
     1.324    -0.034     0.029    49.000    25.000    35.900    13.700    71.960
     1.000    11.003    -8.000  -999.000  -999.000  -999.000  -999.000  -999.000
     7.200     6.600     6.600   980.665     0.005    65.000    33.741     0.000
  -999.000    40.000  -999.000    65.000     0.005     0.300  -999.000  -999.000
    25.030    -4.726    23.225     0.112    24.190     0.122     0.001     0.300
    40.000     0.005     0.005     0.017     0.005     0.008  -999.000  -999.000
     0.027     0.090     0.002     0.003     0.000     0.000  -999.000  -999.000
  -999.000  -999.000  -999.000  -999.000  -999.000  -999.000  -999.000  -999.000
  -999.000  -999.000  -999.000  -999.000
     0.050
     0.040     0.042     0.044     0.046     0.048     0.050     0.055     0.060
     0.065     0.070     0.075     0.080     0.085     0.090     0.095     0.100
     0.110     0.120     0.130     0.140     0.150     0.160     0.170     0.180
     0.190     0.200     0.220     0.240     0.260     0.280     0.300     0.320
     0.340     0.360     0.380     0.400     0.420     0.440     0.460     0.480
     0.500     0.550     0.600     0.650     0.700     0.750     0.800     0.850
     0.900     0.950     1.000     1.100     1.200     1.300     1.400     1.500
     1.600     1.700     1.800     1.900     2.000     2.200     2.400     2.600
     2.800     3.000     3.200     3.400     3.600     3.800     4.000     4.200
     4.400     4.600     4.800     5.000     5.500     6.000     0.000     0.000
     0.000     0.000     0.000     0.000     0.000     0.000     0.000     0.000
     0.000     0.000     0.000     0.000     0.000     0.000     0.000     0.000
     0.000     0.000     0.000     0.000
Fourier amplitude spectra in in/sec.
 0.000E+00 0.000E+00 0.000E+00 0.000E+00 0.000E+00 0.000E+00 0.000E+00 0.000E+00
 0.000E+00 0.000E+00 0.000E+00 0.000E+00 0.000E+00 0.000E+00 0.000E+00 0.000E+00
 0.000E+00 0.000E+00 0.000E+00 0.000E+00 0.000E+00 0.000E+00 0.000E+00 0.000E+00
 0.000E+00 0.000E+00 0.000E+00 0.000E+00 0.000E+00 0.000E+00 0.000E+00 0.000E+00
 0.000E+00 0.000E+00 0.000E+00 0.000E+00 0.000E+00 0.000E+00 0.000E+00 0.000E+00
 0.000E+00 0.000E+00 0.000E+00 0.000E+00 0.000E+00 0.000E+00 0.000E+00 0.000E+00
 0.000E+00 0.000E+00 0.000E+00 0.000E+00 0.000E+00 0.000E+00 0.000E+00 0.000E+00
 0.000E+00 0.000E+00 0.000E+00 0.000E+00 0.000E+00 0.000E+00 0.000E+00 0.000E+00
 0.000E+00 0.000E+00 0.000E+00 0.000E+00 0.000E+00 0.000E+00 0.000E+00 0.000E+00
 0.000E+00 0.000E+00 0.000E+00 0.000E+00 0.000E+00 0.000E+00 0.000E+00 0.000E+00
 0.000E+00 0.000E+00 0.000E+00 0.000E+00 0.000E+00 0.000E+00 0.000E+00 0.000E+00
 0.000E+00 0.000E+00 0.000E+00 0.000E+00 0.000E+00 0.000E+00 0.000E+00 0.000E+00
 0.000E+00 0.000E+00 0.000E+00 0.000E+00
Damping = 0.05. Data of Sd,Sv,Sa,Pssv,ttSd,ttSv,ttSa :
 0.139E-03 0.142E-03 0.144E-03 0.147E-03 0.163E-03 0.179E-03 0.308E-03 0.386E-03
 0.453E-03 0.571E-03 0.757E-03 0.111E-02 0.171E-02 0.215E-02 0.191E-02 0.189E-02
 0.105E-02 0.768E-03 0.718E-03 0.602E-03 0.575E-03 0.629E-03 0.721E-03 0.821E-03
 0.871E-03 0.849E-03 0.936E-03 0.120E-02 0.166E-02 0.202E-02 0.251E-02 0.449E-02
 0.695E-02 0.657E-02 0.685E-02 0.846E-02 0.920E-02 0.950E-02 0.906E-02 0.765E-02
 0.685E-02 0.801E-02 0.787E-02 0.728E-02 0.588E-02 0.518E-02 0.375E-02 0.354E-02
 0.372E-02 0.360E-02 0.321E-02 0.347E-02 0.307E-02 0.374E-02 0.372E-02 0.381E-02
 0.421E-02 0.567E-02 0.659E-02 0.788E-02 0.992E-02 0.106E-01 0.129E-01 0.159E-01
 0.182E-01 0.199E-01 0.244E-01 0.292E-01 0.302E-01 0.298E-01 0.307E-01 0.322E-01
 0.340E-01 0.359E-01 0.379E-01 0.391E-01 0.384E-01 0.402E-01 0.000E+00 0.000E+00
 0.000E+00 0.000E+00 0.000E+00 0.000E+00 0.000E+00 0.000E+00 0.000E+00 0.000E+00
 0.000E+00 0.000E+00 0.000E+00 0.000E+00 0.000E+00 0.000E+00 0.000E+00 0.000E+00
 0.000E+00 0.000E+00 0.000E+00 0.000E+00
 0.196E-01 0.188E-01 0.181E-01 0.175E-01 0.173E-01 0.176E-01 0.285E-01 0.358E-01
 0.386E-01 0.463E-01 0.569E-01 0.820E-01 0.127E+00 0.149E+00 0.133E+00 0.121E+00
 0.674E-01 0.464E-01 0.429E-01 0.340E-01 0.319E-01 0.323E-01 0.323E-01 0.315E-01
 0.305E-01 0.304E-01 0.333E-01 0.388E-01 0.415E-01 0.437E-01 0.435E-01 0.795E-01
 0.125E+00 0.112E+00 0.113E+00 0.135E+00 0.142E+00 0.141E+00 0.131E+00 0.110E+00
 0.884E-01 0.102E+00 0.908E-01 0.789E-01 0.663E-01 0.579E-01 0.479E-01 0.422E-01
 0.429E-01 0.450E-01 0.431E-01 0.397E-01 0.402E-01 0.377E-01 0.346E-01 0.344E-01
 0.358E-01 0.339E-01 0.369E-01 0.391E-01 0.441E-01 0.551E-01 0.595E-01 0.629E-01
 0.611E-01 0.577E-01 0.660E-01 0.675E-01 0.660E-01 0.623E-01 0.632E-01 0.650E-01
 0.653E-01 0.680E-01 0.729E-01 0.745E-01 0.703E-01 0.693E-01 0.000E+00 0.000E+00
 0.000E+00 0.000E+00 0.000E+00 0.000E+00 0.000E+00 0.000E+00 0.000E+00 0.000E+00
 0.000E+00 0.000E+00 0.000E+00 0.000E+00 0.000E+00 0.000E+00 0.000E+00 0.000E+00
 0.000E+00 0.000E+00 0.000E+00 0.000E+00
 0.885E-02 0.821E-02 0.767E-02 0.711E-02 0.724E-02 0.727E-02 0.106E-01 0.110E-01
 0.110E-01 0.119E-01 0.136E-01 0.180E-01 0.243E-01 0.273E-01 0.218E-01 0.193E-01
 0.890E-02 0.556E-02 0.442E-02 0.320E-02 0.266E-02 0.255E-02 0.257E-02 0.261E-02
 0.249E-02 0.218E-02 0.200E-02 0.215E-02 0.254E-02 0.266E-02 0.286E-02 0.451E-02
 0.617E-02 0.521E-02 0.488E-02 0.544E-02 0.536E-02 0.505E-02 0.440E-02 0.342E-02
 0.282E-02 0.273E-02 0.225E-02 0.178E-02 0.124E-02 0.951E-03 0.608E-03 0.505E-03
 0.478E-03 0.416E-03 0.331E-03 0.303E-03 0.223E-03 0.229E-03 0.196E-03 0.175E-03
 0.171E-03 0.203E-03 0.212E-03 0.231E-03 0.259E-03 0.229E-03 0.236E-03 0.250E-03
 0.243E-03 0.232E-03 0.252E-03 0.265E-03 0.249E-03 0.218E-03 0.204E-03 0.196E-03
 0.190E-03 0.182E-03 0.170E-03 0.162E-03 0.132E-03 0.118E-03 0.000E+00 0.000E+00
 0.000E+00 0.000E+00 0.000E+00 0.000E+00 0.000E+00 0.000E+00 0.000E+00 0.000E+00
 0.000E+00 0.000E+00 0.000E+00 0.000E+00 0.000E+00 0.000E+00 0.000E+00 0.000E+00
 0.000E+00 0.000E+00 0.000E+00 0.000E+00
 0.218E-01 0.213E-01 0.206E-01 0.200E-01 0.214E-01 0.225E-01 0.352E-01 0.404E-01
 0.437E-01 0.513E-01 0.634E-01 0.871E-01 0.127E+00 0.150E+00 0.126E+00 0.119E+00
 0.597E-01 0.402E-01 0.347E-01 0.270E-01 0.241E-01 0.247E-01 0.266E-01 0.287E-01
 0.288E-01 0.267E-01 0.267E-01 0.315E-01 0.401E-01 0.453E-01 0.525E-01 0.882E-01
 0.128E+00 0.115E+00 0.113E+00 0.133E+00 0.138E+00 0.136E+00 0.124E+00 0.100E+00
 0.861E-01 0.915E-01 0.824E-01 0.704E-01 0.528E-01 0.434E-01 0.294E-01 0.262E-01
 0.260E-01 0.238E-01 0.202E-01 0.198E-01 0.161E-01 0.181E-01 0.167E-01 0.159E-01
 0.165E-01 0.210E-01 0.230E-01 0.261E-01 0.312E-01 0.301E-01 0.338E-01 0.385E-01
 0.409E-01 0.416E-01 0.480E-01 0.539E-01 0.527E-01 0.492E-01 0.483E-01 0.482E-01
 0.486E-01 0.490E-01 0.495E-01 0.491E-01 0.439E-01 0.420E-01 0.000E+00 0.000E+00
 0.000E+00 0.000E+00 0.000E+00 0.000E+00 0.000E+00 0.000E+00 0.000E+00 0.000E+00
 0.000E+00 0.000E+00 0.000E+00 0.000E+00 0.000E+00 0.000E+00 0.000E+00 0.000E+00
 0.000E+00 0.000E+00 0.000E+00 0.000E+00
 0.228E+02 0.250E+02 0.250E+02 0.250E+02 0.250E+02 0.250E+02 0.250E+02 0.250E+02
 0.251E+02 0.220E+02 0.252E+02 0.252E+02 0.253E+02 0.252E+02 0.251E+02 0.248E+02
 0.246E+02 0.246E+02 0.249E+02 0.251E+02 0.249E+02 0.250E+02 0.250E+02 0.250E+02
 0.284E+02 0.332E+02 0.250E+02 0.252E+02 0.252E+02 0.252E+02 0.376E+02 0.378E+02
 0.378E+02 0.380E+02 0.380E+02 0.399E+02 0.398E+02 0.394E+02 0.392E+02 0.390E+02
 0.292E+02 0.290E+02 0.286E+02 0.275E+02 0.300E+02 0.300E+02 0.272E+02 0.352E+02
 0.272E+02 0.272E+02 0.270E+02 0.225E+02 0.235E+02 0.236E+02 0.236E+02 0.236E+02
 0.236E+02 0.236E+02 0.236E+02 0.239E+02 0.240E+02 0.240E+02 0.243E+02 0.243E+02
 0.244E+02 0.244E+02 0.247E+02 0.248E+02 0.248E+02 0.270E+02 0.252E+02 0.252E+02
 0.252E+02 0.252E+02 0.255E+02 0.256E+02 0.259E+02 0.259E+02 0.000E+00 0.000E+00
 0.000E+00 0.000E+00 0.000E+00 0.000E+00 0.000E+00 0.000E+00 0.000E+00 0.000E+00
 0.000E+00 0.000E+00 0.000E+00 0.000E+00 0.000E+00 0.000E+00 0.000E+00 0.000E+00
 0.000E+00 0.000E+00 0.000E+00 0.000E+00
 0.228E+02 0.228E+02 0.204E+02 0.227E+02 0.227E+02 0.244E+02 0.250E+02 0.250E+02
 0.251E+02 0.220E+02 0.252E+02 0.252E+02 0.252E+02 0.252E+02 0.250E+02 0.249E+02
 0.246E+02 0.246E+02 0.251E+02 0.250E+02 0.250E+02 0.250E+02 0.250E+02 0.250E+02
 0.250E+02 0.251E+02 0.251E+02 0.251E+02 0.251E+02 0.252E+02 0.252E+02 0.375E+02
 0.379E+02 0.381E+02 0.381E+02 0.306E+02 0.399E+02 0.393E+02 0.393E+02 0.391E+02
 0.293E+02 0.289E+02 0.284E+02 0.273E+02 0.301E+02 0.299E+02 0.271E+02 0.271E+02
 0.271E+02 0.271E+02 0.271E+02 0.271E+02 0.249E+02 0.249E+02 0.249E+02 0.249E+02
 0.378E+02 0.250E+02 0.271E+02 0.235E+02 0.235E+02 0.249E+02 0.249E+02 0.249E+02
 0.249E+02 0.249E+02 0.271E+02 0.256E+02 0.256E+02 0.260E+02 0.283E+02 0.283E+02
 0.287E+02 0.269E+02 0.269E+02 0.269E+02 0.247E+02 0.247E+02 0.000E+00 0.000E+00
 0.000E+00 0.000E+00 0.000E+00 0.000E+00 0.000E+00 0.000E+00 0.000E+00 0.000E+00
 0.000E+00 0.000E+00 0.000E+00 0.000E+00 0.000E+00 0.000E+00 0.000E+00 0.000E+00
 0.000E+00 0.000E+00 0.000E+00 0.000E+00
 0.228E+02 0.250E+02 0.250E+02 0.250E+02 0.250E+02 0.250E+02 0.250E+02 0.250E+02
 0.251E+02 0.220E+02 0.252E+02 0.252E+02 0.253E+02 0.252E+02 0.251E+02 0.248E+02
 0.246E+02 0.246E+02 0.248E+02 0.251E+02 0.248E+02 0.250E+02 0.250E+02 0.250E+02
 0.284E+02 0.331E+02 0.250E+02 0.252E+02 0.252E+02 0.252E+02 0.376E+02 0.378E+02
 0.378E+02 0.380E+02 0.380E+02 0.399E+02 0.398E+02 0.394E+02 0.392E+02 0.390E+02
 0.292E+02 0.290E+02 0.286E+02 0.275E+02 0.300E+02 0.300E+02 0.272E+02 0.352E+02
 0.272E+02 0.272E+02 0.269E+02 0.225E+02 0.235E+02 0.236E+02 0.236E+02 0.236E+02
 0.236E+02 0.236E+02 0.236E+02 0.239E+02 0.240E+02 0.240E+02 0.243E+02 0.243E+02
 0.244E+02 0.244E+02 0.247E+02 0.248E+02 0.248E+02 0.248E+02 0.251E+02 0.251E+02
 0.251E+02 0.251E+02 0.254E+02 0.255E+02 0.259E+02 0.259E+02 0.000E+00 0.000E+00
 0.000E+00 0.000E+00 0.000E+00 0.000E+00 0.000E+00 0.000E+00 0.000E+00 0.000E+00
 0.000E+00 0.000E+00 0.000E+00 0.000E+00 0.000E+00 0.000E+00 0.000E+00 0.000E+00
 0.000E+00 0.000E+00 0.000E+00 0.000E+00
/&   ----------  End of spectral data for channel 14  ----------
