Response and Fourier amplitude spectra (78 periods, 0.04 -  6.0 sec)   for      
Corrected accelerogram   58658-G0133-21116.07       Chan  2:  Long       from   
Uncorrected Accelerogram Data             Processed: 05/19/21, CGS  58658007    
Rcrd of Mon Apr 26, 2021 10:09:54.0 PDT           (Avol1 v6.6,64b, 2/20; PC86)  
CSMIP Preliminary Processing            (Origin:  To be determined)             
58658-G0133-21116.07                 Start time:  4/26/21, 17:09:54.0 UTC (GPS) 
Station No. 58658   37.691N, 122.099W    Granit  s/n  133 (18 Chns of 20 at Sta)
Hayward - Hwy 580/238 Interchange Bridge  CGS   Data: Acceleration              
Chan  2:  Long                      Location: Abutment 1                        
Rcrd of Mon Apr 26, 2021 10:09:54.0 PDT    Mon Apr 26, 2021 10:09:54.0 PDT      
Hypocenter:  To be determined.               ML:  To be determined.
Instr Period = 0.0048 sec,  Damping = 0.700,  Sensitivity = 1.25 v/g
                        Record Length = 65.000 sec.
                                     Uncor Max  =  0.014 g, at   20.285 sec.
RMS accel of (uncor) record  =        .   Chn. metadata effective date: 09/01/11
Accelerogram bandpass filtered with 3 dB pts at  0.30 and 40.00 cyc/sec
                 instrument- and base-line corrected
                                                         (Avol3,v6.4,64b,12/18)




Rcrd of Mon Apr 26, 2021 10:09:54.0 PDT    Mon Apr 26, 2021 10:09:54.0 PDT

58658-G0133-21116.07      Hayward - Hwy 580/238 Interchange Bridge  CGChan  2:
Long
58658-G0133-21116.07      Hayward - Hwy 580/238 Interchange Bridge  CGChan  2:
Long
Units for spectra are inches and sec, except Sa is in fraction of g.

    2  100    2   18   20  200    1    3    2   24   30  133    058658    3    0
   17    9   54    0  116    4   26 2021   10    3  80013000   39   40   74   -1
13000    1  100    3  133    1    7  650    2 -999 -999 -999 -999 -999 -999 -999
 -999 -999    3 -99913000    1  222    1   24   21 -999 -999    3    1 -99913000
    313000    4   78    1   18    5    0    0 -999    0    0    1    3    1    2
    2    2    4    1   66   78    0    2 -999    0    0    1    0    0    0  222
    1    0    2    0
     0.005     0.700    65.000     0.000     1.000  1249.000     0.014    20.285
   210.000     0.596     0.477  -999.000     5.000  -999.000     4.000  -999.000
     5.000   -11.121     5.000  -999.000    25.000    30.000  -999.000     0.001
    -0.002    -0.003     2.000    15.000    37.691  -122.099     0.230     0.116
     0.506    -0.033     0.028    49.000    25.000    35.900    13.700    71.960
     1.000    11.003    -8.000  -999.000  -999.000  -999.000  -999.000  -999.000
     7.200     6.600     6.600   980.665     0.005    65.000    33.423     0.000
  -999.000    40.000  -999.000    65.000     0.005     0.300  -999.000  -999.000
    19.775     4.635    19.785     0.049    54.170     0.190    -0.013     0.300
    40.000     0.005     0.005    -0.110     0.005     0.005  -999.000  -999.000
     0.013     0.046     0.002     0.001     0.000     0.000  -999.000  -999.000
  -999.000  -999.000  -999.000  -999.000  -999.000  -999.000  -999.000  -999.000
  -999.000  -999.000  -999.000  -999.000
     0.050
     0.040     0.042     0.044     0.046     0.048     0.050     0.055     0.060
     0.065     0.070     0.075     0.080     0.085     0.090     0.095     0.100
     0.110     0.120     0.130     0.140     0.150     0.160     0.170     0.180
     0.190     0.200     0.220     0.240     0.260     0.280     0.300     0.320
     0.340     0.360     0.380     0.400     0.420     0.440     0.460     0.480
     0.500     0.550     0.600     0.650     0.700     0.750     0.800     0.850
     0.900     0.950     1.000     1.100     1.200     1.300     1.400     1.500
     1.600     1.700     1.800     1.900     2.000     2.200     2.400     2.600
     2.800     3.000     3.200     3.400     3.600     3.800     4.000     4.200
     4.400     4.600     4.800     5.000     5.500     6.000     0.000     0.000
     0.000     0.000     0.000     0.000     0.000     0.000     0.000     0.000
     0.000     0.000     0.000     0.000     0.000     0.000     0.000     0.000
     0.000     0.000     0.000     0.000
Fourier amplitude spectra in in/sec.
 0.000E+00 0.000E+00 0.000E+00 0.000E+00 0.000E+00 0.000E+00 0.000E+00 0.000E+00
 0.000E+00 0.000E+00 0.000E+00 0.000E+00 0.000E+00 0.000E+00 0.000E+00 0.000E+00
 0.000E+00 0.000E+00 0.000E+00 0.000E+00 0.000E+00 0.000E+00 0.000E+00 0.000E+00
 0.000E+00 0.000E+00 0.000E+00 0.000E+00 0.000E+00 0.000E+00 0.000E+00 0.000E+00
 0.000E+00 0.000E+00 0.000E+00 0.000E+00 0.000E+00 0.000E+00 0.000E+00 0.000E+00
 0.000E+00 0.000E+00 0.000E+00 0.000E+00 0.000E+00 0.000E+00 0.000E+00 0.000E+00
 0.000E+00 0.000E+00 0.000E+00 0.000E+00 0.000E+00 0.000E+00 0.000E+00 0.000E+00
 0.000E+00 0.000E+00 0.000E+00 0.000E+00 0.000E+00 0.000E+00 0.000E+00 0.000E+00
 0.000E+00 0.000E+00 0.000E+00 0.000E+00 0.000E+00 0.000E+00 0.000E+00 0.000E+00
 0.000E+00 0.000E+00 0.000E+00 0.000E+00 0.000E+00 0.000E+00 0.000E+00 0.000E+00
 0.000E+00 0.000E+00 0.000E+00 0.000E+00 0.000E+00 0.000E+00 0.000E+00 0.000E+00
 0.000E+00 0.000E+00 0.000E+00 0.000E+00 0.000E+00 0.000E+00 0.000E+00 0.000E+00
 0.000E+00 0.000E+00 0.000E+00 0.000E+00
Damping = 0.05. Data of Sd,Sv,Sa,Pssv,ttSd,ttSv,ttSa :
 0.165E-03 0.165E-03 0.214E-03 0.266E-03 0.276E-03 0.299E-03 0.316E-03 0.325E-03
 0.339E-03 0.362E-03 0.490E-03 0.438E-03 0.630E-03 0.688E-03 0.733E-03 0.665E-03
 0.459E-03 0.365E-03 0.340E-03 0.349E-03 0.480E-03 0.551E-03 0.667E-03 0.675E-03
 0.752E-03 0.838E-03 0.120E-02 0.109E-02 0.705E-03 0.625E-03 0.562E-03 0.609E-03
 0.707E-03 0.754E-03 0.711E-03 0.739E-03 0.787E-03 0.810E-03 0.790E-03 0.783E-03
 0.767E-03 0.676E-03 0.686E-03 0.666E-03 0.683E-03 0.681E-03 0.648E-03 0.630E-03
 0.602E-03 0.594E-03 0.566E-03 0.463E-03 0.424E-03 0.379E-03 0.415E-03 0.405E-03
 0.408E-03 0.424E-03 0.451E-03 0.489E-03 0.471E-03 0.477E-03 0.565E-03 0.641E-03
 0.706E-03 0.733E-03 0.859E-03 0.992E-03 0.108E-02 0.114E-02 0.118E-02 0.122E-02
 0.127E-02 0.138E-02 0.148E-02 0.150E-02 0.135E-02 0.158E-02 0.000E+00 0.000E+00
 0.000E+00 0.000E+00 0.000E+00 0.000E+00 0.000E+00 0.000E+00 0.000E+00 0.000E+00
 0.000E+00 0.000E+00 0.000E+00 0.000E+00 0.000E+00 0.000E+00 0.000E+00 0.000E+00
 0.000E+00 0.000E+00 0.000E+00 0.000E+00
 0.276E-01 0.268E-01 0.276E-01 0.332E-01 0.329E-01 0.353E-01 0.349E-01 0.323E-01
 0.298E-01 0.304E-01 0.418E-01 0.344E-01 0.414E-01 0.493E-01 0.469E-01 0.456E-01
 0.306E-01 0.227E-01 0.185E-01 0.198E-01 0.211E-01 0.256E-01 0.293E-01 0.325E-01
 0.325E-01 0.312E-01 0.369E-01 0.353E-01 0.295E-01 0.231E-01 0.208E-01 0.203E-01
 0.219E-01 0.243E-01 0.251E-01 0.251E-01 0.254E-01 0.256E-01 0.251E-01 0.248E-01
 0.246E-01 0.235E-01 0.217E-01 0.203E-01 0.194E-01 0.185E-01 0.177E-01 0.173E-01
 0.170E-01 0.168E-01 0.164E-01 0.160E-01 0.162E-01 0.162E-01 0.164E-01 0.165E-01
 0.165E-01 0.165E-01 0.166E-01 0.167E-01 0.166E-01 0.165E-01 0.166E-01 0.166E-01
 0.166E-01 0.165E-01 0.166E-01 0.167E-01 0.167E-01 0.166E-01 0.165E-01 0.164E-01
 0.165E-01 0.166E-01 0.166E-01 0.164E-01 0.161E-01 0.163E-01 0.000E+00 0.000E+00
 0.000E+00 0.000E+00 0.000E+00 0.000E+00 0.000E+00 0.000E+00 0.000E+00 0.000E+00
 0.000E+00 0.000E+00 0.000E+00 0.000E+00 0.000E+00 0.000E+00 0.000E+00 0.000E+00
 0.000E+00 0.000E+00 0.000E+00 0.000E+00
 0.107E-01 0.968E-02 0.114E-01 0.128E-01 0.122E-01 0.125E-01 0.110E-01 0.927E-02
 0.836E-02 0.751E-02 0.905E-02 0.699E-02 0.902E-02 0.882E-02 0.824E-02 0.682E-02
 0.388E-02 0.265E-02 0.206E-02 0.185E-02 0.219E-02 0.220E-02 0.238E-02 0.214E-02
 0.215E-02 0.217E-02 0.256E-02 0.196E-02 0.108E-02 0.828E-03 0.650E-03 0.620E-03
 0.637E-03 0.605E-03 0.511E-03 0.479E-03 0.464E-03 0.436E-03 0.390E-03 0.356E-03
 0.321E-03 0.238E-03 0.203E-03 0.167E-03 0.149E-03 0.131E-03 0.110E-03 0.960E-04
 0.827E-04 0.740E-04 0.645E-04 0.456E-04 0.361E-04 0.316E-04 0.305E-04 0.269E-04
 0.246E-04 0.232E-04 0.223E-04 0.209E-04 0.185E-04 0.157E-04 0.147E-04 0.135E-04
 0.127E-04 0.111E-04 0.104E-04 0.103E-04 0.996E-05 0.929E-05 0.843E-05 0.768E-05
 0.732E-05 0.732E-05 0.736E-05 0.712E-05 0.540E-05 0.511E-05 0.000E+00 0.000E+00
 0.000E+00 0.000E+00 0.000E+00 0.000E+00 0.000E+00 0.000E+00 0.000E+00 0.000E+00
 0.000E+00 0.000E+00 0.000E+00 0.000E+00 0.000E+00 0.000E+00 0.000E+00 0.000E+00
 0.000E+00 0.000E+00 0.000E+00 0.000E+00
 0.259E-01 0.248E-01 0.306E-01 0.363E-01 0.361E-01 0.376E-01 0.361E-01 0.340E-01
 0.328E-01 0.325E-01 0.411E-01 0.344E-01 0.465E-01 0.481E-01 0.485E-01 0.418E-01
 0.262E-01 0.191E-01 0.164E-01 0.157E-01 0.201E-01 0.216E-01 0.247E-01 0.236E-01
 0.249E-01 0.263E-01 0.342E-01 0.286E-01 0.170E-01 0.140E-01 0.118E-01 0.120E-01
 0.131E-01 0.132E-01 0.118E-01 0.116E-01 0.118E-01 0.116E-01 0.108E-01 0.102E-01
 0.964E-02 0.772E-02 0.718E-02 0.644E-02 0.613E-02 0.570E-02 0.509E-02 0.466E-02
 0.420E-02 0.393E-02 0.356E-02 0.265E-02 0.222E-02 0.183E-02 0.186E-02 0.169E-02
 0.160E-02 0.157E-02 0.157E-02 0.162E-02 0.148E-02 0.136E-02 0.148E-02 0.155E-02
 0.159E-02 0.153E-02 0.169E-02 0.183E-02 0.188E-02 0.189E-02 0.186E-02 0.182E-02
 0.182E-02 0.188E-02 0.193E-02 0.189E-02 0.154E-02 0.165E-02 0.000E+00 0.000E+00
 0.000E+00 0.000E+00 0.000E+00 0.000E+00 0.000E+00 0.000E+00 0.000E+00 0.000E+00
 0.000E+00 0.000E+00 0.000E+00 0.000E+00 0.000E+00 0.000E+00 0.000E+00 0.000E+00
 0.000E+00 0.000E+00 0.000E+00 0.000E+00
 0.198E+02 0.198E+02 0.199E+02 0.199E+02 0.199E+02 0.199E+02 0.199E+02 0.196E+02
 0.196E+02 0.200E+02 0.200E+02 0.192E+02 0.192E+02 0.194E+02 0.196E+02 0.196E+02
 0.195E+02 0.195E+02 0.193E+02 0.195E+02 0.200E+02 0.195E+02 0.195E+02 0.195E+02
 0.195E+02 0.195E+02 0.199E+02 0.199E+02 0.195E+02 0.194E+02 0.194E+02 0.199E+02
 0.199E+02 0.199E+02 0.199E+02 0.200E+02 0.200E+02 0.200E+02 0.200E+02 0.200E+02
 0.200E+02 0.198E+02 0.198E+02 0.199E+02 0.199E+02 0.199E+02 0.199E+02 0.199E+02
 0.199E+02 0.199E+02 0.199E+02 0.199E+02 0.199E+02 0.199E+02 0.194E+02 0.194E+02
 0.194E+02 0.194E+02 0.194E+02 0.204E+02 0.204E+02 0.204E+02 0.207E+02 0.207E+02
 0.207E+02 0.226E+02 0.226E+02 0.227E+02 0.229E+02 0.231E+02 0.233E+02 0.233E+02
 0.233E+02 0.236E+02 0.239E+02 0.240E+02 0.243E+02 0.243E+02 0.000E+00 0.000E+00
 0.000E+00 0.000E+00 0.000E+00 0.000E+00 0.000E+00 0.000E+00 0.000E+00 0.000E+00
 0.000E+00 0.000E+00 0.000E+00 0.000E+00 0.000E+00 0.000E+00 0.000E+00 0.000E+00
 0.000E+00 0.000E+00 0.000E+00 0.000E+00
 0.198E+02 0.198E+02 0.199E+02 0.199E+02 0.199E+02 0.199E+02 0.199E+02 0.196E+02
 0.200E+02 0.200E+02 0.200E+02 0.196E+02 0.193E+02 0.193E+02 0.197E+02 0.196E+02
 0.195E+02 0.195E+02 0.195E+02 0.195E+02 0.195E+02 0.199E+02 0.195E+02 0.195E+02
 0.195E+02 0.195E+02 0.200E+02 0.199E+02 0.199E+02 0.194E+02 0.195E+02 0.199E+02
 0.199E+02 0.199E+02 0.199E+02 0.199E+02 0.199E+02 0.199E+02 0.199E+02 0.199E+02
 0.199E+02 0.199E+02 0.199E+02 0.199E+02 0.199E+02 0.199E+02 0.199E+02 0.199E+02
 0.199E+02 0.199E+02 0.198E+02 0.199E+02 0.199E+02 0.199E+02 0.199E+02 0.199E+02
 0.199E+02 0.199E+02 0.199E+02 0.199E+02 0.199E+02 0.199E+02 0.199E+02 0.199E+02
 0.199E+02 0.199E+02 0.199E+02 0.199E+02 0.199E+02 0.199E+02 0.199E+02 0.199E+02
 0.199E+02 0.199E+02 0.199E+02 0.199E+02 0.199E+02 0.199E+02 0.000E+00 0.000E+00
 0.000E+00 0.000E+00 0.000E+00 0.000E+00 0.000E+00 0.000E+00 0.000E+00 0.000E+00
 0.000E+00 0.000E+00 0.000E+00 0.000E+00 0.000E+00 0.000E+00 0.000E+00 0.000E+00
 0.000E+00 0.000E+00 0.000E+00 0.000E+00
 0.198E+02 0.198E+02 0.199E+02 0.199E+02 0.199E+02 0.199E+02 0.199E+02 0.196E+02
 0.196E+02 0.200E+02 0.200E+02 0.192E+02 0.192E+02 0.194E+02 0.196E+02 0.196E+02
 0.195E+02 0.195E+02 0.193E+02 0.195E+02 0.200E+02 0.195E+02 0.195E+02 0.195E+02
 0.195E+02 0.195E+02 0.199E+02 0.199E+02 0.195E+02 0.194E+02 0.194E+02 0.199E+02
 0.199E+02 0.199E+02 0.199E+02 0.200E+02 0.200E+02 0.200E+02 0.200E+02 0.200E+02
 0.200E+02 0.198E+02 0.198E+02 0.199E+02 0.199E+02 0.199E+02 0.199E+02 0.199E+02
 0.199E+02 0.199E+02 0.199E+02 0.199E+02 0.199E+02 0.194E+02 0.194E+02 0.194E+02
 0.194E+02 0.194E+02 0.194E+02 0.194E+02 0.194E+02 0.194E+02 0.194E+02 0.194E+02
 0.194E+02 0.194E+02 0.194E+02 0.194E+02 0.194E+02 0.194E+02 0.194E+02 0.194E+02
 0.194E+02 0.194E+02 0.194E+02 0.194E+02 0.194E+02 0.242E+02 0.000E+00 0.000E+00
 0.000E+00 0.000E+00 0.000E+00 0.000E+00 0.000E+00 0.000E+00 0.000E+00 0.000E+00
 0.000E+00 0.000E+00 0.000E+00 0.000E+00 0.000E+00 0.000E+00 0.000E+00 0.000E+00
 0.000E+00 0.000E+00 0.000E+00 0.000E+00
/&   ----------  End of spectral data for channel  2  ----------
