Response and Fourier amplitude spectra (78 periods, 0.04 -  6.0 sec)   for      
Corrected accelerogram   58658-G0133-21116.07       Chan 13:  Tran       from   
Uncorrected Accelerogram Data             Processed: 05/19/21, CGS  58658007    
Rcrd of Mon Apr 26, 2021 10:09:54.0 PDT           (Avol1 v6.6,64b, 2/20; PC86)  
CSMIP Preliminary Processing            (Origin:  To be determined)             
58658-G0133-21116.07                 Start time:  4/26/21, 17:09:54.0 UTC (GPS) 
Station No. 58658   37.691N, 122.099W    Granit  s/n  133 (18 Chns of 20 at Sta)
Hayward - Hwy 580/238 Interchange Bridge  CGS   Data: Acceleration              
Chan 13:  Tran    (Sta Chn: 18)     Location: Bent 4: North Column, Grnd Level  
Rcrd of Mon Apr 26, 2021 10:09:54.0 PDT    Mon Apr 26, 2021 10:09:54.0 PDT      
Hypocenter:  To be determined.               ML:  To be determined.
Instr Period = 0.0047 sec,  Damping = 0.700,  Sensitivity = 1.25 v/g
                        Record Length = 65.000 sec.
                                     Uncor Max  =  0.004 g, at   25.150 sec.
RMS accel of (uncor) record  =        .   Chn. metadata effective date: 09/01/11
Accelerogram bandpass filtered with 3 dB pts at  0.30 and 40.00 cyc/sec
                 instrument- and base-line corrected
                                                         (Avol3,v6.4,64b,12/18)




Rcrd of Mon Apr 26, 2021 10:09:54.0 PDT    Mon Apr 26, 2021 10:09:54.0 PDT

58658-G0133-21116.07      Hayward - Hwy 580/238 Interchange Bridge  CGChan 13:
Tran
58658-G0133-21116.07      Hayward - Hwy 580/238 Interchange Bridge  CGChan 13:
Tran
Units for spectra are inches and sec, except Sa is in fraction of g.

   13  100   18   18   20  200    1    3    2   24   30  133    058658    3    0
   17    9   54    0  116    4   26 2021   10    3  90013000   39   40   74   -1
13000    1  100    3  133    1    7  650    2 -999 -999 -999 -999 -999 -999 -999
 -999 -999    3 -99913000    1  222    1   24   21 -999 -999    3    1 -99913000
    313000    4   78    1   18    5    0    0 -999    0    0    1    3    1    2
    2    2    4    1   66   78    0    2 -999    0    0    1    0    0    0  222
    1    0    2    0
     0.005     0.700    65.000     0.000     1.000  1249.000     0.004    25.150
   212.000     0.596     0.477  -999.000     5.000  -999.000     4.000  -999.000
     5.000   -21.092     5.000  -999.000    25.000    30.000  -999.000     0.001
    -0.002    -0.003     2.000    15.000    37.691  -122.099     0.215     0.276
     1.283    -0.037     0.031    49.000    25.000    35.900    13.700    71.960
     1.000    11.003    -8.000  -999.000  -999.000  -999.000  -999.000  -999.000
     7.200     6.600     6.600   980.665     0.005    65.000    33.741    -0.000
  -999.000    40.000  -999.000    65.000     0.005     0.300  -999.000  -999.000
    25.150     3.477    25.100     0.042    26.360     0.091    -0.004     0.300
    40.000     0.005     0.005    -0.045     0.005     0.005  -999.000  -999.000
     0.017     0.070     0.001     0.001     0.000     0.000  -999.000  -999.000
  -999.000  -999.000  -999.000  -999.000  -999.000  -999.000  -999.000  -999.000
  -999.000  -999.000  -999.000  -999.000
     0.050
     0.040     0.042     0.044     0.046     0.048     0.050     0.055     0.060
     0.065     0.070     0.075     0.080     0.085     0.090     0.095     0.100
     0.110     0.120     0.130     0.140     0.150     0.160     0.170     0.180
     0.190     0.200     0.220     0.240     0.260     0.280     0.300     0.320
     0.340     0.360     0.380     0.400     0.420     0.440     0.460     0.480
     0.500     0.550     0.600     0.650     0.700     0.750     0.800     0.850
     0.900     0.950     1.000     1.100     1.200     1.300     1.400     1.500
     1.600     1.700     1.800     1.900     2.000     2.200     2.400     2.600
     2.800     3.000     3.200     3.400     3.600     3.800     4.000     4.200
     4.400     4.600     4.800     5.000     5.500     6.000     0.000     0.000
     0.000     0.000     0.000     0.000     0.000     0.000     0.000     0.000
     0.000     0.000     0.000     0.000     0.000     0.000     0.000     0.000
     0.000     0.000     0.000     0.000
Fourier amplitude spectra in in/sec.
 0.000E+00 0.000E+00 0.000E+00 0.000E+00 0.000E+00 0.000E+00 0.000E+00 0.000E+00
 0.000E+00 0.000E+00 0.000E+00 0.000E+00 0.000E+00 0.000E+00 0.000E+00 0.000E+00
 0.000E+00 0.000E+00 0.000E+00 0.000E+00 0.000E+00 0.000E+00 0.000E+00 0.000E+00
 0.000E+00 0.000E+00 0.000E+00 0.000E+00 0.000E+00 0.000E+00 0.000E+00 0.000E+00
 0.000E+00 0.000E+00 0.000E+00 0.000E+00 0.000E+00 0.000E+00 0.000E+00 0.000E+00
 0.000E+00 0.000E+00 0.000E+00 0.000E+00 0.000E+00 0.000E+00 0.000E+00 0.000E+00
 0.000E+00 0.000E+00 0.000E+00 0.000E+00 0.000E+00 0.000E+00 0.000E+00 0.000E+00
 0.000E+00 0.000E+00 0.000E+00 0.000E+00 0.000E+00 0.000E+00 0.000E+00 0.000E+00
 0.000E+00 0.000E+00 0.000E+00 0.000E+00 0.000E+00 0.000E+00 0.000E+00 0.000E+00
 0.000E+00 0.000E+00 0.000E+00 0.000E+00 0.000E+00 0.000E+00 0.000E+00 0.000E+00
 0.000E+00 0.000E+00 0.000E+00 0.000E+00 0.000E+00 0.000E+00 0.000E+00 0.000E+00
 0.000E+00 0.000E+00 0.000E+00 0.000E+00 0.000E+00 0.000E+00 0.000E+00 0.000E+00
 0.000E+00 0.000E+00 0.000E+00 0.000E+00
Damping = 0.05. Data of Sd,Sv,Sa,Pssv,ttSd,ttSv,ttSa :
 0.822E-04 0.931E-04 0.109E-03 0.138E-03 0.176E-03 0.200E-03 0.302E-03 0.547E-03
 0.593E-03 0.797E-03 0.788E-03 0.721E-03 0.805E-03 0.899E-03 0.831E-03 0.808E-03
 0.439E-03 0.346E-03 0.336E-03 0.290E-03 0.287E-03 0.329E-03 0.300E-03 0.275E-03
 0.258E-03 0.240E-03 0.270E-03 0.354E-03 0.413E-03 0.422E-03 0.475E-03 0.502E-03
 0.608E-03 0.727E-03 0.995E-03 0.113E-02 0.107E-02 0.812E-03 0.712E-03 0.606E-03
 0.668E-03 0.871E-03 0.928E-03 0.682E-03 0.583E-03 0.546E-03 0.522E-03 0.489E-03
 0.504E-03 0.470E-03 0.574E-03 0.964E-03 0.704E-03 0.496E-03 0.441E-03 0.462E-03
 0.541E-03 0.497E-03 0.440E-03 0.462E-03 0.563E-03 0.854E-03 0.876E-03 0.763E-03
 0.882E-03 0.931E-03 0.111E-02 0.133E-02 0.151E-02 0.190E-02 0.219E-02 0.232E-02
 0.251E-02 0.283E-02 0.297E-02 0.292E-02 0.303E-02 0.321E-02 0.000E+00 0.000E+00
 0.000E+00 0.000E+00 0.000E+00 0.000E+00 0.000E+00 0.000E+00 0.000E+00 0.000E+00
 0.000E+00 0.000E+00 0.000E+00 0.000E+00 0.000E+00 0.000E+00 0.000E+00 0.000E+00
 0.000E+00 0.000E+00 0.000E+00 0.000E+00
 0.890E-02 0.105E-01 0.116E-01 0.138E-01 0.166E-01 0.187E-01 0.324E-01 0.515E-01
 0.566E-01 0.705E-01 0.701E-01 0.602E-01 0.629E-01 0.683E-01 0.626E-01 0.573E-01
 0.352E-01 0.277E-01 0.258E-01 0.235E-01 0.213E-01 0.227E-01 0.228E-01 0.216E-01
 0.201E-01 0.194E-01 0.187E-01 0.201E-01 0.201E-01 0.199E-01 0.180E-01 0.188E-01
 0.198E-01 0.245E-01 0.294E-01 0.293E-01 0.227E-01 0.186E-01 0.184E-01 0.167E-01
 0.160E-01 0.183E-01 0.205E-01 0.174E-01 0.162E-01 0.164E-01 0.159E-01 0.158E-01
 0.156E-01 0.158E-01 0.153E-01 0.183E-01 0.177E-01 0.163E-01 0.162E-01 0.163E-01
 0.160E-01 0.155E-01 0.155E-01 0.157E-01 0.156E-01 0.159E-01 0.160E-01 0.159E-01
 0.158E-01 0.155E-01 0.155E-01 0.154E-01 0.156E-01 0.157E-01 0.155E-01 0.154E-01
 0.155E-01 0.154E-01 0.154E-01 0.156E-01 0.156E-01 0.157E-01 0.000E+00 0.000E+00
 0.000E+00 0.000E+00 0.000E+00 0.000E+00 0.000E+00 0.000E+00 0.000E+00 0.000E+00
 0.000E+00 0.000E+00 0.000E+00 0.000E+00 0.000E+00 0.000E+00 0.000E+00 0.000E+00
 0.000E+00 0.000E+00 0.000E+00 0.000E+00
 0.528E-02 0.540E-02 0.574E-02 0.668E-02 0.779E-02 0.832E-02 0.104E-01 0.156E-01
 0.143E-01 0.168E-01 0.146E-01 0.115E-01 0.116E-01 0.115E-01 0.958E-02 0.829E-02
 0.370E-02 0.249E-02 0.206E-02 0.153E-02 0.134E-02 0.134E-02 0.107E-02 0.884E-03
 0.756E-03 0.637E-03 0.599E-03 0.639E-03 0.638E-03 0.567E-03 0.561E-03 0.521E-03
 0.558E-03 0.596E-03 0.711E-03 0.732E-03 0.635E-03 0.436E-03 0.355E-03 0.280E-03
 0.279E-03 0.298E-03 0.271E-03 0.176E-03 0.127E-03 0.104E-03 0.877E-04 0.736E-04
 0.667E-04 0.592E-04 0.613E-04 0.852E-04 0.561E-04 0.406E-04 0.333E-04 0.310E-04
 0.315E-04 0.272E-04 0.216E-04 0.213E-04 0.217E-04 0.201E-04 0.179E-04 0.149E-04
 0.142E-04 0.126E-04 0.129E-04 0.134E-04 0.135E-04 0.149E-04 0.155E-04 0.149E-04
 0.146E-04 0.147E-04 0.141E-04 0.128E-04 0.111E-04 0.101E-04 0.000E+00 0.000E+00
 0.000E+00 0.000E+00 0.000E+00 0.000E+00 0.000E+00 0.000E+00 0.000E+00 0.000E+00
 0.000E+00 0.000E+00 0.000E+00 0.000E+00 0.000E+00 0.000E+00 0.000E+00 0.000E+00
 0.000E+00 0.000E+00 0.000E+00 0.000E+00
 0.129E-01 0.139E-01 0.156E-01 0.189E-01 0.230E-01 0.252E-01 0.345E-01 0.573E-01
 0.573E-01 0.716E-01 0.660E-01 0.566E-01 0.595E-01 0.628E-01 0.550E-01 0.508E-01
 0.251E-01 0.181E-01 0.163E-01 0.130E-01 0.120E-01 0.129E-01 0.111E-01 0.960E-02
 0.854E-02 0.753E-02 0.772E-02 0.928E-02 0.997E-02 0.948E-02 0.995E-02 0.986E-02
 0.112E-01 0.127E-01 0.164E-01 0.178E-01 0.160E-01 0.116E-01 0.972E-02 0.794E-02
 0.840E-02 0.994E-02 0.971E-02 0.659E-02 0.523E-02 0.457E-02 0.410E-02 0.362E-02
 0.352E-02 0.311E-02 0.361E-02 0.551E-02 0.368E-02 0.240E-02 0.198E-02 0.194E-02
 0.212E-02 0.184E-02 0.153E-02 0.153E-02 0.177E-02 0.244E-02 0.229E-02 0.184E-02
 0.198E-02 0.195E-02 0.219E-02 0.246E-02 0.264E-02 0.314E-02 0.343E-02 0.347E-02
 0.359E-02 0.386E-02 0.389E-02 0.366E-02 0.346E-02 0.337E-02 0.000E+00 0.000E+00
 0.000E+00 0.000E+00 0.000E+00 0.000E+00 0.000E+00 0.000E+00 0.000E+00 0.000E+00
 0.000E+00 0.000E+00 0.000E+00 0.000E+00 0.000E+00 0.000E+00 0.000E+00 0.000E+00
 0.000E+00 0.000E+00 0.000E+00 0.000E+00
 0.252E+02 0.252E+02 0.252E+02 0.251E+02 0.251E+02 0.251E+02 0.246E+02 0.252E+02
 0.252E+02 0.252E+02 0.252E+02 0.252E+02 0.252E+02 0.252E+02 0.252E+02 0.251E+02
 0.251E+02 0.251E+02 0.251E+02 0.251E+02 0.251E+02 0.251E+02 0.251E+02 0.251E+02
 0.251E+02 0.251E+02 0.251E+02 0.255E+02 0.251E+02 0.251E+02 0.251E+02 0.251E+02
 0.251E+02 0.252E+02 0.256E+02 0.261E+02 0.257E+02 0.247E+02 0.245E+02 0.245E+02
 0.300E+02 0.298E+02 0.283E+02 0.278E+02 0.275E+02 0.275E+02 0.273E+02 0.273E+02
 0.310E+02 0.310E+02 0.585E+02 0.242E+02 0.266E+02 0.341E+02 0.331E+02 0.308E+02
 0.251E+02 0.251E+02 0.289E+02 0.278E+02 0.242E+02 0.289E+02 0.289E+02 0.290E+02
 0.278E+02 0.278E+02 0.289E+02 0.289E+02 0.289E+02 0.289E+02 0.290E+02 0.290E+02
 0.290E+02 0.294E+02 0.294E+02 0.294E+02 0.294E+02 0.299E+02 0.000E+00 0.000E+00
 0.000E+00 0.000E+00 0.000E+00 0.000E+00 0.000E+00 0.000E+00 0.000E+00 0.000E+00
 0.000E+00 0.000E+00 0.000E+00 0.000E+00 0.000E+00 0.000E+00 0.000E+00 0.000E+00
 0.000E+00 0.000E+00 0.000E+00 0.000E+00
 0.252E+02 0.246E+02 0.246E+02 0.251E+02 0.251E+02 0.251E+02 0.247E+02 0.252E+02
 0.252E+02 0.252E+02 0.252E+02 0.252E+02 0.252E+02 0.252E+02 0.252E+02 0.252E+02
 0.251E+02 0.251E+02 0.251E+02 0.251E+02 0.251E+02 0.251E+02 0.251E+02 0.251E+02
 0.251E+02 0.251E+02 0.251E+02 0.251E+02 0.252E+02 0.252E+02 0.251E+02 0.251E+02
 0.251E+02 0.251E+02 0.251E+02 0.251E+02 0.251E+02 0.252E+02 0.251E+02 0.251E+02
 0.251E+02 0.251E+02 0.251E+02 0.251E+02 0.251E+02 0.251E+02 0.251E+02 0.251E+02
 0.251E+02 0.251E+02 0.251E+02 0.251E+02 0.251E+02 0.251E+02 0.251E+02 0.251E+02
 0.251E+02 0.251E+02 0.251E+02 0.251E+02 0.251E+02 0.251E+02 0.251E+02 0.251E+02
 0.251E+02 0.251E+02 0.251E+02 0.251E+02 0.251E+02 0.251E+02 0.251E+02 0.251E+02
 0.251E+02 0.251E+02 0.251E+02 0.251E+02 0.251E+02 0.251E+02 0.000E+00 0.000E+00
 0.000E+00 0.000E+00 0.000E+00 0.000E+00 0.000E+00 0.000E+00 0.000E+00 0.000E+00
 0.000E+00 0.000E+00 0.000E+00 0.000E+00 0.000E+00 0.000E+00 0.000E+00 0.000E+00
 0.000E+00 0.000E+00 0.000E+00 0.000E+00
 0.252E+02 0.252E+02 0.252E+02 0.251E+02 0.251E+02 0.251E+02 0.246E+02 0.252E+02
 0.252E+02 0.252E+02 0.252E+02 0.252E+02 0.252E+02 0.252E+02 0.252E+02 0.251E+02
 0.251E+02 0.251E+02 0.251E+02 0.251E+02 0.251E+02 0.251E+02 0.251E+02 0.251E+02
 0.251E+02 0.251E+02 0.251E+02 0.255E+02 0.251E+02 0.251E+02 0.251E+02 0.251E+02
 0.251E+02 0.251E+02 0.256E+02 0.261E+02 0.257E+02 0.247E+02 0.245E+02 0.245E+02
 0.300E+02 0.298E+02 0.282E+02 0.251E+02 0.275E+02 0.275E+02 0.273E+02 0.273E+02
 0.310E+02 0.229E+02 0.585E+02 0.242E+02 0.266E+02 0.251E+02 0.251E+02 0.251E+02
 0.251E+02 0.251E+02 0.251E+02 0.251E+02 0.251E+02 0.289E+02 0.289E+02 0.245E+02
 0.245E+02 0.277E+02 0.285E+02 0.289E+02 0.289E+02 0.289E+02 0.289E+02 0.289E+02
 0.289E+02 0.293E+02 0.293E+02 0.293E+02 0.293E+02 0.298E+02 0.000E+00 0.000E+00
 0.000E+00 0.000E+00 0.000E+00 0.000E+00 0.000E+00 0.000E+00 0.000E+00 0.000E+00
 0.000E+00 0.000E+00 0.000E+00 0.000E+00 0.000E+00 0.000E+00 0.000E+00 0.000E+00
 0.000E+00 0.000E+00 0.000E+00 0.000E+00
/&   ----------  End of spectral data for channel 18  ----------
