Response and Fourier amplitude spectra (78 periods, 0.04 -  6.0 sec)   for      
Corrected accelerogram   58658-G0133-21116.07       Chan 16:  Up         from   
Uncorrected Accelerogram Data             Processed: 05/19/21, CGS  58658007    
Rcrd of Mon Apr 26, 2021 10:09:54.0 PDT           (Avol1 v6.6,64b, 2/20; PC86)  
CSMIP Preliminary Processing            (Origin:  To be determined)             
58658-G0133-21116.07                 Start time:  4/26/21, 17:09:54.0 UTC (GPS) 
Station No. 58658   37.691N, 122.099W    Granit  s/n  133 (18 Chns of 20 at Sta)
Hayward - Hwy 580/238 Interchange Bridge  CGS   Data: Acceleration              
Chan 16:  Up      (Sta Chn: 21)     Location: Bent 4: Deck Level                
Rcrd of Mon Apr 26, 2021 10:09:54.0 PDT    Mon Apr 26, 2021 10:09:54.0 PDT      
Hypocenter:  To be determined.               ML:  To be determined.
Instr Period = 0.0046 sec,  Damping = 0.700,  Sensitivity = 1.25 v/g
                        Record Length = 65.000 sec.
                                     Uncor Max  =  0.008 g, at   24.530 sec.
RMS accel of (uncor) record  =        .   Chn. metadata effective date: 09/01/11
Accelerogram bandpass filtered with 3 dB pts at  0.30 and 40.00 cyc/sec
                 instrument- and base-line corrected
                                                         (Avol3,v6.4,64b,12/18)




Rcrd of Mon Apr 26, 2021 10:09:54.0 PDT    Mon Apr 26, 2021 10:09:54.0 PDT

58658-G0133-21116.07      Hayward - Hwy 580/238 Interchange Bridge  CGChan 16:
Up
58658-G0133-21116.07      Hayward - Hwy 580/238 Interchange Bridge  CGChan 16:
Up
Units for spectra are inches and sec, except Sa is in fraction of g.

   16  100   21   18   20  200    1    3    2   24   30  133    058658    3    0
   17    9   54    0  116    4   26 2021   10    3  50013000   39   40   74   -1
13000    0  100    3  133    1    7  650    2 -999 -999 -999 -999 -999 -999 -999
 -999 -999    3 -99913000    1  222    1   24   21 -999 -999    3    1 -99913000
    313000    4   78    1   18    5    0    0 -999    0    0    1    3    1    2
    2    2    4    1   66   78    0    2 -999    0    0    1    0    0    0  222
    1    0    2    0
     0.005     0.700    65.000     0.001     1.000  1252.000     0.008    24.530
   216.000     0.596     0.476  -999.000     5.000  -999.000     4.000  -999.000
     5.000     1.035     5.000  -999.000    25.000    30.000  -999.000     0.009
    -0.008    -0.017     2.000    15.000    37.691  -122.099     0.291     0.427
     1.466    -0.065     0.032    49.000    25.000    35.900    13.700    71.960
     1.000    11.003    -8.000  -999.000  -999.000  -999.000  -999.000  -999.000
     7.200     6.600     6.600   980.665     0.005    65.000    34.377    -0.000
  -999.000    40.000  -999.000    65.000     0.005     0.300  -999.000  -999.000
    24.535     7.302    25.000     0.163    10.455    -1.104    -0.074     0.300
    40.000     0.005     0.005    -0.676     0.005     0.031  -999.000  -999.000
     0.046     0.090     0.002     0.001     0.000     0.000  -999.000  -999.000
  -999.000  -999.000  -999.000  -999.000  -999.000  -999.000  -999.000  -999.000
  -999.000  -999.000  -999.000  -999.000
     0.050
     0.040     0.042     0.044     0.046     0.048     0.050     0.055     0.060
     0.065     0.070     0.075     0.080     0.085     0.090     0.095     0.100
     0.110     0.120     0.130     0.140     0.150     0.160     0.170     0.180
     0.190     0.200     0.220     0.240     0.260     0.280     0.300     0.320
     0.340     0.360     0.380     0.400     0.420     0.440     0.460     0.480
     0.500     0.550     0.600     0.650     0.700     0.750     0.800     0.850
     0.900     0.950     1.000     1.100     1.200     1.300     1.400     1.500
     1.600     1.700     1.800     1.900     2.000     2.200     2.400     2.600
     2.800     3.000     3.200     3.400     3.600     3.800     4.000     4.200
     4.400     4.600     4.800     5.000     5.500     6.000     0.000     0.000
     0.000     0.000     0.000     0.000     0.000     0.000     0.000     0.000
     0.000     0.000     0.000     0.000     0.000     0.000     0.000     0.000
     0.000     0.000     0.000     0.000
Fourier amplitude spectra in in/sec.
 0.000E+00 0.000E+00 0.000E+00 0.000E+00 0.000E+00 0.000E+00 0.000E+00 0.000E+00
 0.000E+00 0.000E+00 0.000E+00 0.000E+00 0.000E+00 0.000E+00 0.000E+00 0.000E+00
 0.000E+00 0.000E+00 0.000E+00 0.000E+00 0.000E+00 0.000E+00 0.000E+00 0.000E+00
 0.000E+00 0.000E+00 0.000E+00 0.000E+00 0.000E+00 0.000E+00 0.000E+00 0.000E+00
 0.000E+00 0.000E+00 0.000E+00 0.000E+00 0.000E+00 0.000E+00 0.000E+00 0.000E+00
 0.000E+00 0.000E+00 0.000E+00 0.000E+00 0.000E+00 0.000E+00 0.000E+00 0.000E+00
 0.000E+00 0.000E+00 0.000E+00 0.000E+00 0.000E+00 0.000E+00 0.000E+00 0.000E+00
 0.000E+00 0.000E+00 0.000E+00 0.000E+00 0.000E+00 0.000E+00 0.000E+00 0.000E+00
 0.000E+00 0.000E+00 0.000E+00 0.000E+00 0.000E+00 0.000E+00 0.000E+00 0.000E+00
 0.000E+00 0.000E+00 0.000E+00 0.000E+00 0.000E+00 0.000E+00 0.000E+00 0.000E+00
 0.000E+00 0.000E+00 0.000E+00 0.000E+00 0.000E+00 0.000E+00 0.000E+00 0.000E+00
 0.000E+00 0.000E+00 0.000E+00 0.000E+00 0.000E+00 0.000E+00 0.000E+00 0.000E+00
 0.000E+00 0.000E+00 0.000E+00 0.000E+00
Damping = 0.05. Data of Sd,Sv,Sa,Pssv,ttSd,ttSv,ttSa :
 0.242E-03 0.241E-03 0.265E-03 0.333E-03 0.335E-03 0.372E-03 0.425E-03 0.616E-03
 0.781E-03 0.108E-02 0.143E-02 0.169E-02 0.249E-02 0.362E-02 0.343E-02 0.281E-02
 0.176E-02 0.128E-02 0.105E-02 0.933E-03 0.854E-03 0.887E-03 0.787E-03 0.794E-03
 0.793E-03 0.766E-03 0.731E-03 0.878E-03 0.941E-03 0.105E-02 0.116E-02 0.151E-02
 0.207E-02 0.250E-02 0.329E-02 0.393E-02 0.345E-02 0.267E-02 0.252E-02 0.299E-02
 0.326E-02 0.406E-02 0.487E-02 0.402E-02 0.287E-02 0.238E-02 0.203E-02 0.181E-02
 0.168E-02 0.157E-02 0.150E-02 0.150E-02 0.133E-02 0.130E-02 0.123E-02 0.120E-02
 0.124E-02 0.118E-02 0.136E-02 0.130E-02 0.121E-02 0.133E-02 0.147E-02 0.186E-02
 0.165E-02 0.173E-02 0.192E-02 0.174E-02 0.193E-02 0.242E-02 0.275E-02 0.294E-02
 0.351E-02 0.359E-02 0.332E-02 0.364E-02 0.452E-02 0.554E-02 0.000E+00 0.000E+00
 0.000E+00 0.000E+00 0.000E+00 0.000E+00 0.000E+00 0.000E+00 0.000E+00 0.000E+00
 0.000E+00 0.000E+00 0.000E+00 0.000E+00 0.000E+00 0.000E+00 0.000E+00 0.000E+00
 0.000E+00 0.000E+00 0.000E+00 0.000E+00
 0.275E-01 0.303E-01 0.323E-01 0.398E-01 0.373E-01 0.378E-01 0.400E-01 0.548E-01
 0.646E-01 0.881E-01 0.114E+00 0.129E+00 0.187E+00 0.252E+00 0.236E+00 0.195E+00
 0.117E+00 0.842E-01 0.726E-01 0.598E-01 0.534E-01 0.529E-01 0.493E-01 0.483E-01
 0.474E-01 0.468E-01 0.440E-01 0.442E-01 0.422E-01 0.429E-01 0.400E-01 0.397E-01
 0.452E-01 0.516E-01 0.642E-01 0.734E-01 0.698E-01 0.629E-01 0.639E-01 0.606E-01
 0.590E-01 0.642E-01 0.613E-01 0.537E-01 0.455E-01 0.421E-01 0.418E-01 0.415E-01
 0.414E-01 0.414E-01 0.414E-01 0.419E-01 0.412E-01 0.409E-01 0.411E-01 0.409E-01
 0.410E-01 0.405E-01 0.413E-01 0.414E-01 0.410E-01 0.408E-01 0.406E-01 0.395E-01
 0.396E-01 0.393E-01 0.395E-01 0.401E-01 0.403E-01 0.406E-01 0.408E-01 0.407E-01
 0.412E-01 0.424E-01 0.432E-01 0.429E-01 0.407E-01 0.409E-01 0.000E+00 0.000E+00
 0.000E+00 0.000E+00 0.000E+00 0.000E+00 0.000E+00 0.000E+00 0.000E+00 0.000E+00
 0.000E+00 0.000E+00 0.000E+00 0.000E+00 0.000E+00 0.000E+00 0.000E+00 0.000E+00
 0.000E+00 0.000E+00 0.000E+00 0.000E+00
 0.156E-01 0.139E-01 0.140E-01 0.162E-01 0.149E-01 0.152E-01 0.146E-01 0.176E-01
 0.190E-01 0.224E-01 0.258E-01 0.274E-01 0.354E-01 0.463E-01 0.393E-01 0.291E-01
 0.152E-01 0.908E-02 0.646E-02 0.487E-02 0.391E-02 0.362E-02 0.286E-02 0.253E-02
 0.228E-02 0.199E-02 0.158E-02 0.160E-02 0.146E-02 0.138E-02 0.133E-02 0.152E-02
 0.184E-02 0.198E-02 0.235E-02 0.253E-02 0.203E-02 0.142E-02 0.123E-02 0.134E-02
 0.135E-02 0.139E-02 0.139E-02 0.992E-03 0.613E-03 0.445E-03 0.337E-03 0.269E-03
 0.225E-03 0.190E-03 0.165E-03 0.139E-03 0.106E-03 0.903E-04 0.750E-04 0.652E-04
 0.596E-04 0.533E-04 0.525E-04 0.463E-04 0.435E-04 0.371E-04 0.371E-04 0.363E-04
 0.295E-04 0.274E-04 0.230E-04 0.216E-04 0.211E-04 0.208E-04 0.191E-04 0.185E-04
 0.197E-04 0.213E-04 0.202E-04 0.192E-04 0.170E-04 0.165E-04 0.000E+00 0.000E+00
 0.000E+00 0.000E+00 0.000E+00 0.000E+00 0.000E+00 0.000E+00 0.000E+00 0.000E+00
 0.000E+00 0.000E+00 0.000E+00 0.000E+00 0.000E+00 0.000E+00 0.000E+00 0.000E+00
 0.000E+00 0.000E+00 0.000E+00 0.000E+00
 0.379E-01 0.360E-01 0.378E-01 0.455E-01 0.439E-01 0.467E-01 0.486E-01 0.645E-01
 0.755E-01 0.965E-01 0.119E+00 0.133E+00 0.184E+00 0.253E+00 0.227E+00 0.177E+00
 0.101E+00 0.669E-01 0.506E-01 0.419E-01 0.358E-01 0.348E-01 0.291E-01 0.277E-01
 0.262E-01 0.241E-01 0.209E-01 0.230E-01 0.228E-01 0.235E-01 0.243E-01 0.296E-01
 0.382E-01 0.436E-01 0.544E-01 0.618E-01 0.517E-01 0.381E-01 0.344E-01 0.392E-01
 0.409E-01 0.464E-01 0.510E-01 0.388E-01 0.257E-01 0.199E-01 0.159E-01 0.134E-01
 0.117E-01 0.104E-01 0.939E-02 0.856E-02 0.697E-02 0.630E-02 0.550E-02 0.503E-02
 0.485E-02 0.435E-02 0.474E-02 0.429E-02 0.380E-02 0.381E-02 0.385E-02 0.450E-02
 0.371E-02 0.362E-02 0.378E-02 0.322E-02 0.337E-02 0.400E-02 0.431E-02 0.439E-02
 0.501E-02 0.490E-02 0.434E-02 0.458E-02 0.517E-02 0.580E-02 0.000E+00 0.000E+00
 0.000E+00 0.000E+00 0.000E+00 0.000E+00 0.000E+00 0.000E+00 0.000E+00 0.000E+00
 0.000E+00 0.000E+00 0.000E+00 0.000E+00 0.000E+00 0.000E+00 0.000E+00 0.000E+00
 0.000E+00 0.000E+00 0.000E+00 0.000E+00
 0.245E+02 0.245E+02 0.239E+02 0.239E+02 0.245E+02 0.245E+02 0.241E+02 0.245E+02
 0.251E+02 0.251E+02 0.251E+02 0.251E+02 0.251E+02 0.246E+02 0.246E+02 0.246E+02
 0.245E+02 0.245E+02 0.244E+02 0.244E+02 0.244E+02 0.246E+02 0.249E+02 0.249E+02
 0.245E+02 0.245E+02 0.245E+02 0.249E+02 0.249E+02 0.276E+02 0.276E+02 0.306E+02
 0.309E+02 0.309E+02 0.256E+02 0.267E+02 0.259E+02 0.257E+02 0.257E+02 0.284E+02
 0.284E+02 0.299E+02 0.280E+02 0.278E+02 0.275E+02 0.275E+02 0.275E+02 0.275E+02
 0.275E+02 0.275E+02 0.275E+02 0.275E+02 0.275E+02 0.275E+02 0.275E+02 0.275E+02
 0.275E+02 0.275E+02 0.275E+02 0.275E+02 0.275E+02 0.275E+02 0.275E+02 0.275E+02
 0.275E+02 0.252E+02 0.256E+02 0.256E+02 0.602E+02 0.602E+02 0.602E+02 0.605E+02
 0.608E+02 0.613E+02 0.275E+02 0.613E+02 0.463E+01 0.463E+01 0.000E+00 0.000E+00
 0.000E+00 0.000E+00 0.000E+00 0.000E+00 0.000E+00 0.000E+00 0.000E+00 0.000E+00
 0.000E+00 0.000E+00 0.000E+00 0.000E+00 0.000E+00 0.000E+00 0.000E+00 0.000E+00
 0.000E+00 0.000E+00 0.000E+00 0.000E+00
 0.245E+02 0.235E+02 0.235E+02 0.239E+02 0.239E+02 0.246E+02 0.236E+02 0.245E+02
 0.250E+02 0.250E+02 0.250E+02 0.250E+02 0.251E+02 0.246E+02 0.246E+02 0.246E+02
 0.245E+02 0.245E+02 0.245E+02 0.245E+02 0.244E+02 0.245E+02 0.245E+02 0.246E+02
 0.245E+02 0.245E+02 0.245E+02 0.245E+02 0.245E+02 0.245E+02 0.245E+02 0.245E+02
 0.243E+02 0.246E+02 0.259E+02 0.258E+02 0.260E+02 0.245E+02 0.245E+02 0.245E+02
 0.245E+02 0.245E+02 0.281E+02 0.277E+02 0.277E+02 0.245E+02 0.245E+02 0.245E+02
 0.245E+02 0.245E+02 0.245E+02 0.245E+02 0.245E+02 0.245E+02 0.245E+02 0.245E+02
 0.245E+02 0.245E+02 0.245E+02 0.245E+02 0.245E+02 0.245E+02 0.245E+02 0.245E+02
 0.245E+02 0.245E+02 0.245E+02 0.245E+02 0.245E+02 0.245E+02 0.245E+02 0.245E+02
 0.245E+02 0.245E+02 0.245E+02 0.245E+02 0.245E+02 0.245E+02 0.000E+00 0.000E+00
 0.000E+00 0.000E+00 0.000E+00 0.000E+00 0.000E+00 0.000E+00 0.000E+00 0.000E+00
 0.000E+00 0.000E+00 0.000E+00 0.000E+00 0.000E+00 0.000E+00 0.000E+00 0.000E+00
 0.000E+00 0.000E+00 0.000E+00 0.000E+00
 0.245E+02 0.245E+02 0.239E+02 0.239E+02 0.245E+02 0.245E+02 0.241E+02 0.245E+02
 0.251E+02 0.251E+02 0.251E+02 0.251E+02 0.250E+02 0.246E+02 0.246E+02 0.246E+02
 0.245E+02 0.245E+02 0.244E+02 0.244E+02 0.244E+02 0.246E+02 0.246E+02 0.249E+02
 0.245E+02 0.245E+02 0.245E+02 0.249E+02 0.249E+02 0.276E+02 0.276E+02 0.305E+02
 0.308E+02 0.309E+02 0.256E+02 0.267E+02 0.259E+02 0.257E+02 0.257E+02 0.284E+02
 0.284E+02 0.299E+02 0.280E+02 0.278E+02 0.275E+02 0.275E+02 0.275E+02 0.275E+02
 0.275E+02 0.275E+02 0.275E+02 0.275E+02 0.275E+02 0.275E+02 0.275E+02 0.275E+02
 0.275E+02 0.278E+02 0.275E+02 0.275E+02 0.245E+02 0.245E+02 0.245E+02 0.275E+02
 0.275E+02 0.251E+02 0.256E+02 0.263E+02 0.263E+02 0.263E+02 0.263E+02 0.263E+02
 0.605E+02 0.275E+02 0.275E+02 0.236E+02 0.245E+02 0.455E+01 0.000E+00 0.000E+00
 0.000E+00 0.000E+00 0.000E+00 0.000E+00 0.000E+00 0.000E+00 0.000E+00 0.000E+00
 0.000E+00 0.000E+00 0.000E+00 0.000E+00 0.000E+00 0.000E+00 0.000E+00 0.000E+00
 0.000E+00 0.000E+00 0.000E+00 0.000E+00
/&   ----------  End of spectral data for channel 21  ----------
