Response and Fourier amplitude spectra (78 periods, 0.04 -  6.0 sec)   for      
Corrected accelerogram   58658-G0133-21116.07       Chan  1:  Up         from   
Uncorrected Accelerogram Data             Processed: 05/19/21, CGS  58658007    
Rcrd of Mon Apr 26, 2021 10:09:54.0 PDT           (Avol1 v6.6,64b, 2/20; PC86)  
CSMIP Preliminary Processing            (Origin:  To be determined)             
58658-G0133-21116.07                 Start time:  4/26/21, 17:09:54.0 UTC (GPS) 
Station No. 58658   37.691N, 122.099W    Granit  s/n  133 (18 Chns of 20 at Sta)
Hayward - Hwy 580/238 Interchange Bridge  CGS   Data: Acceleration              
Chan  1:  Up                        Location: Abutment 1                        
Rcrd of Mon Apr 26, 2021 10:09:54.0 PDT    Mon Apr 26, 2021 10:09:54.0 PDT      
Hypocenter:  To be determined.               ML:  To be determined.
Instr Period = 0.0047 sec,  Damping = 0.700,  Sensitivity = 1.25 v/g
                        Record Length = 65.000 sec.
                                     Uncor Max  =  0.027 g, at   20.280 sec.
RMS accel of (uncor) record  =        .   Chn. metadata effective date: 09/01/11
Accelerogram bandpass filtered with 3 dB pts at  0.30 and 40.00 cyc/sec
                 instrument- and base-line corrected
                                                         (Avol3,v6.4,64b,12/18)




Rcrd of Mon Apr 26, 2021 10:09:54.0 PDT    Mon Apr 26, 2021 10:09:54.0 PDT

58658-G0133-21116.07      Hayward - Hwy 580/238 Interchange Bridge  CGChan  1:
Up
58658-G0133-21116.07      Hayward - Hwy 580/238 Interchange Bridge  CGChan  1:
Up
Units for spectra are inches and sec, except Sa is in fraction of g.

    1  100    1   18   20  200    1    3    2   24   30  133    058658    3    0
   17    9   54    0  116    4   26 2021   10    3  50013000   39   40   74   -1
13000    1  100    3  133    1    7  650    2 -999 -999 -999 -999 -999 -999 -999
 -999 -999    3 -99913000    1  222    1   24   21 -999 -999    3    1 -99913000
    313000    4   78    1   18    5    0    0 -999    0    0    1    3    1    2
    2    2    4    1   66   78    0    2 -999    0    0    1    0    0    0  222
    1    0    2    0
     0.005     0.700    65.000     0.001     1.000  1248.000     0.027    20.280
   212.000     0.596     0.478  -999.000     5.000  -999.000     4.000  -999.000
     5.000    17.538     5.000  -999.000    25.000    30.000  -999.000     0.005
    -0.005    -0.010     2.000    15.000    37.691  -122.099     0.380     0.202
     0.532    -0.061     0.041    49.000    25.000    35.900    13.700    71.960
     1.000    11.003    -8.000  -999.000  -999.000  -999.000  -999.000  -999.000
     7.200     6.600     6.600   980.665     0.005    65.000    33.741     0.000
  -999.000    40.000  -999.000    65.000     0.005     0.300  -999.000  -999.000
    20.270    17.433    20.290     0.205    20.270    -0.004     0.000     0.300
    40.000     0.005     0.005     0.000     0.005     0.002  -999.000  -999.000
     0.065     0.100     0.005     0.002     0.000     0.000  -999.000  -999.000
  -999.000  -999.000  -999.000  -999.000  -999.000  -999.000  -999.000  -999.000
  -999.000  -999.000  -999.000  -999.000
     0.050
     0.040     0.042     0.044     0.046     0.048     0.050     0.055     0.060
     0.065     0.070     0.075     0.080     0.085     0.090     0.095     0.100
     0.110     0.120     0.130     0.140     0.150     0.160     0.170     0.180
     0.190     0.200     0.220     0.240     0.260     0.280     0.300     0.320
     0.340     0.360     0.380     0.400     0.420     0.440     0.460     0.480
     0.500     0.550     0.600     0.650     0.700     0.750     0.800     0.850
     0.900     0.950     1.000     1.100     1.200     1.300     1.400     1.500
     1.600     1.700     1.800     1.900     2.000     2.200     2.400     2.600
     2.800     3.000     3.200     3.400     3.600     3.800     4.000     4.200
     4.400     4.600     4.800     5.000     5.500     6.000     0.000     0.000
     0.000     0.000     0.000     0.000     0.000     0.000     0.000     0.000
     0.000     0.000     0.000     0.000     0.000     0.000     0.000     0.000
     0.000     0.000     0.000     0.000
Fourier amplitude spectra in in/sec.
 0.000E+00 0.000E+00 0.000E+00 0.000E+00 0.000E+00 0.000E+00 0.000E+00 0.000E+00
 0.000E+00 0.000E+00 0.000E+00 0.000E+00 0.000E+00 0.000E+00 0.000E+00 0.000E+00
 0.000E+00 0.000E+00 0.000E+00 0.000E+00 0.000E+00 0.000E+00 0.000E+00 0.000E+00
 0.000E+00 0.000E+00 0.000E+00 0.000E+00 0.000E+00 0.000E+00 0.000E+00 0.000E+00
 0.000E+00 0.000E+00 0.000E+00 0.000E+00 0.000E+00 0.000E+00 0.000E+00 0.000E+00
 0.000E+00 0.000E+00 0.000E+00 0.000E+00 0.000E+00 0.000E+00 0.000E+00 0.000E+00
 0.000E+00 0.000E+00 0.000E+00 0.000E+00 0.000E+00 0.000E+00 0.000E+00 0.000E+00
 0.000E+00 0.000E+00 0.000E+00 0.000E+00 0.000E+00 0.000E+00 0.000E+00 0.000E+00
 0.000E+00 0.000E+00 0.000E+00 0.000E+00 0.000E+00 0.000E+00 0.000E+00 0.000E+00
 0.000E+00 0.000E+00 0.000E+00 0.000E+00 0.000E+00 0.000E+00 0.000E+00 0.000E+00
 0.000E+00 0.000E+00 0.000E+00 0.000E+00 0.000E+00 0.000E+00 0.000E+00 0.000E+00
 0.000E+00 0.000E+00 0.000E+00 0.000E+00 0.000E+00 0.000E+00 0.000E+00 0.000E+00
 0.000E+00 0.000E+00 0.000E+00 0.000E+00
Damping = 0.05. Data of Sd,Sv,Sa,Pssv,ttSd,ttSv,ttSa :
 0.495E-03 0.538E-03 0.606E-03 0.646E-03 0.678E-03 0.858E-03 0.138E-02 0.152E-02
 0.202E-02 0.214E-02 0.261E-02 0.286E-02 0.372E-02 0.433E-02 0.446E-02 0.629E-02
 0.593E-02 0.421E-02 0.261E-02 0.222E-02 0.185E-02 0.150E-02 0.171E-02 0.177E-02
 0.188E-02 0.191E-02 0.157E-02 0.157E-02 0.156E-02 0.152E-02 0.149E-02 0.191E-02
 0.222E-02 0.228E-02 0.214E-02 0.190E-02 0.194E-02 0.191E-02 0.186E-02 0.181E-02
 0.173E-02 0.158E-02 0.144E-02 0.139E-02 0.140E-02 0.143E-02 0.140E-02 0.131E-02
 0.134E-02 0.139E-02 0.147E-02 0.171E-02 0.187E-02 0.195E-02 0.201E-02 0.201E-02
 0.200E-02 0.220E-02 0.237E-02 0.250E-02 0.259E-02 0.252E-02 0.253E-02 0.246E-02
 0.227E-02 0.211E-02 0.200E-02 0.190E-02 0.200E-02 0.207E-02 0.207E-02 0.207E-02
 0.212E-02 0.214E-02 0.212E-02 0.206E-02 0.196E-02 0.199E-02 0.000E+00 0.000E+00
 0.000E+00 0.000E+00 0.000E+00 0.000E+00 0.000E+00 0.000E+00 0.000E+00 0.000E+00
 0.000E+00 0.000E+00 0.000E+00 0.000E+00 0.000E+00 0.000E+00 0.000E+00 0.000E+00
 0.000E+00 0.000E+00 0.000E+00 0.000E+00
 0.616E-01 0.645E-01 0.645E-01 0.648E-01 0.703E-01 0.824E-01 0.133E+00 0.141E+00
 0.176E+00 0.182E+00 0.207E+00 0.217E+00 0.266E+00 0.304E+00 0.286E+00 0.393E+00
 0.365E+00 0.246E+00 0.159E+00 0.145E+00 0.119E+00 0.932E-01 0.103E+00 0.116E+00
 0.114E+00 0.998E-01 0.924E-01 0.791E-01 0.734E-01 0.751E-01 0.770E-01 0.786E-01
 0.779E-01 0.810E-01 0.833E-01 0.851E-01 0.864E-01 0.864E-01 0.859E-01 0.855E-01
 0.852E-01 0.842E-01 0.839E-01 0.832E-01 0.824E-01 0.814E-01 0.804E-01 0.798E-01
 0.794E-01 0.793E-01 0.791E-01 0.795E-01 0.805E-01 0.813E-01 0.818E-01 0.827E-01
 0.830E-01 0.838E-01 0.840E-01 0.841E-01 0.842E-01 0.838E-01 0.837E-01 0.834E-01
 0.830E-01 0.826E-01 0.824E-01 0.823E-01 0.820E-01 0.817E-01 0.814E-01 0.813E-01
 0.811E-01 0.810E-01 0.808E-01 0.807E-01 0.806E-01 0.805E-01 0.000E+00 0.000E+00
 0.000E+00 0.000E+00 0.000E+00 0.000E+00 0.000E+00 0.000E+00 0.000E+00 0.000E+00
 0.000E+00 0.000E+00 0.000E+00 0.000E+00 0.000E+00 0.000E+00 0.000E+00 0.000E+00
 0.000E+00 0.000E+00 0.000E+00 0.000E+00
 0.316E-01 0.314E-01 0.321E-01 0.312E-01 0.301E-01 0.350E-01 0.461E-01 0.438E-01
 0.490E-01 0.454E-01 0.476E-01 0.456E-01 0.528E-01 0.556E-01 0.512E-01 0.652E-01
 0.506E-01 0.301E-01 0.161E-01 0.118E-01 0.847E-02 0.617E-02 0.616E-02 0.563E-02
 0.546E-02 0.492E-02 0.340E-02 0.285E-02 0.239E-02 0.203E-02 0.173E-02 0.197E-02
 0.203E-02 0.187E-02 0.158E-02 0.128E-02 0.118E-02 0.106E-02 0.952E-03 0.852E-03
 0.758E-03 0.584E-03 0.457E-03 0.384E-03 0.340E-03 0.307E-03 0.270E-03 0.238E-03
 0.227E-03 0.219E-03 0.211E-03 0.203E-03 0.189E-03 0.172E-03 0.157E-03 0.142E-03
 0.130E-03 0.118E-03 0.106E-03 0.101E-03 0.962E-04 0.819E-04 0.718E-04 0.619E-04
 0.530E-04 0.463E-04 0.414E-04 0.380E-04 0.365E-04 0.346E-04 0.325E-04 0.305E-04
 0.290E-04 0.275E-04 0.260E-04 0.245E-04 0.214E-04 0.194E-04 0.000E+00 0.000E+00
 0.000E+00 0.000E+00 0.000E+00 0.000E+00 0.000E+00 0.000E+00 0.000E+00 0.000E+00
 0.000E+00 0.000E+00 0.000E+00 0.000E+00 0.000E+00 0.000E+00 0.000E+00 0.000E+00
 0.000E+00 0.000E+00 0.000E+00 0.000E+00
 0.778E-01 0.805E-01 0.865E-01 0.882E-01 0.887E-01 0.108E+00 0.157E+00 0.159E+00
 0.195E+00 0.193E+00 0.218E+00 0.225E+00 0.275E+00 0.302E+00 0.295E+00 0.396E+00
 0.339E+00 0.220E+00 0.126E+00 0.995E-01 0.777E-01 0.590E-01 0.631E-01 0.617E-01
 0.623E-01 0.600E-01 0.448E-01 0.412E-01 0.376E-01 0.341E-01 0.311E-01 0.374E-01
 0.410E-01 0.398E-01 0.354E-01 0.298E-01 0.290E-01 0.272E-01 0.254E-01 0.236E-01
 0.218E-01 0.181E-01 0.150E-01 0.134E-01 0.126E-01 0.120E-01 0.110E-01 0.968E-02
 0.934E-02 0.916E-02 0.922E-02 0.979E-02 0.980E-02 0.943E-02 0.904E-02 0.842E-02
 0.787E-02 0.815E-02 0.829E-02 0.826E-02 0.815E-02 0.720E-02 0.663E-02 0.593E-02
 0.510E-02 0.442E-02 0.392E-02 0.350E-02 0.349E-02 0.343E-02 0.325E-02 0.310E-02
 0.302E-02 0.292E-02 0.277E-02 0.259E-02 0.224E-02 0.208E-02 0.000E+00 0.000E+00
 0.000E+00 0.000E+00 0.000E+00 0.000E+00 0.000E+00 0.000E+00 0.000E+00 0.000E+00
 0.000E+00 0.000E+00 0.000E+00 0.000E+00 0.000E+00 0.000E+00 0.000E+00 0.000E+00
 0.000E+00 0.000E+00 0.000E+00 0.000E+00
 0.203E+02 0.203E+02 0.203E+02 0.203E+02 0.203E+02 0.203E+02 0.203E+02 0.203E+02
 0.203E+02 0.203E+02 0.203E+02 0.204E+02 0.203E+02 0.204E+02 0.208E+02 0.208E+02
 0.208E+02 0.206E+02 0.206E+02 0.206E+02 0.206E+02 0.207E+02 0.206E+02 0.203E+02
 0.203E+02 0.203E+02 0.206E+02 0.204E+02 0.205E+02 0.205E+02 0.205E+02 0.206E+02
 0.206E+02 0.206E+02 0.206E+02 0.206E+02 0.207E+02 0.207E+02 0.207E+02 0.207E+02
 0.207E+02 0.207E+02 0.207E+02 0.207E+02 0.207E+02 0.207E+02 0.207E+02 0.207E+02
 0.206E+02 0.203E+02 0.203E+02 0.203E+02 0.203E+02 0.203E+02 0.203E+02 0.203E+02
 0.203E+02 0.207E+02 0.207E+02 0.207E+02 0.207E+02 0.207E+02 0.208E+02 0.208E+02
 0.208E+02 0.208E+02 0.208E+02 0.209E+02 0.203E+02 0.203E+02 0.203E+02 0.203E+02
 0.203E+02 0.203E+02 0.203E+02 0.203E+02 0.203E+02 0.203E+02 0.000E+00 0.000E+00
 0.000E+00 0.000E+00 0.000E+00 0.000E+00 0.000E+00 0.000E+00 0.000E+00 0.000E+00
 0.000E+00 0.000E+00 0.000E+00 0.000E+00 0.000E+00 0.000E+00 0.000E+00 0.000E+00
 0.000E+00 0.000E+00 0.000E+00 0.000E+00
 0.203E+02 0.203E+02 0.203E+02 0.203E+02 0.199E+02 0.203E+02 0.203E+02 0.203E+02
 0.203E+02 0.203E+02 0.203E+02 0.203E+02 0.203E+02 0.203E+02 0.208E+02 0.208E+02
 0.207E+02 0.206E+02 0.203E+02 0.203E+02 0.206E+02 0.203E+02 0.203E+02 0.203E+02
 0.203E+02 0.203E+02 0.202E+02 0.202E+02 0.207E+02 0.203E+02 0.207E+02 0.207E+02
 0.203E+02 0.203E+02 0.203E+02 0.203E+02 0.203E+02 0.203E+02 0.203E+02 0.203E+02
 0.203E+02 0.203E+02 0.203E+02 0.203E+02 0.203E+02 0.203E+02 0.203E+02 0.203E+02
 0.203E+02 0.203E+02 0.203E+02 0.203E+02 0.203E+02 0.203E+02 0.203E+02 0.203E+02
 0.203E+02 0.203E+02 0.203E+02 0.203E+02 0.203E+02 0.203E+02 0.203E+02 0.203E+02
 0.203E+02 0.203E+02 0.203E+02 0.203E+02 0.203E+02 0.203E+02 0.203E+02 0.203E+02
 0.203E+02 0.203E+02 0.203E+02 0.203E+02 0.203E+02 0.203E+02 0.000E+00 0.000E+00
 0.000E+00 0.000E+00 0.000E+00 0.000E+00 0.000E+00 0.000E+00 0.000E+00 0.000E+00
 0.000E+00 0.000E+00 0.000E+00 0.000E+00 0.000E+00 0.000E+00 0.000E+00 0.000E+00
 0.000E+00 0.000E+00 0.000E+00 0.000E+00
 0.203E+02 0.203E+02 0.203E+02 0.203E+02 0.203E+02 0.203E+02 0.203E+02 0.203E+02
 0.203E+02 0.203E+02 0.203E+02 0.203E+02 0.203E+02 0.204E+02 0.208E+02 0.208E+02
 0.207E+02 0.206E+02 0.206E+02 0.206E+02 0.206E+02 0.207E+02 0.206E+02 0.203E+02
 0.203E+02 0.203E+02 0.206E+02 0.204E+02 0.205E+02 0.205E+02 0.206E+02 0.206E+02
 0.206E+02 0.206E+02 0.206E+02 0.206E+02 0.207E+02 0.207E+02 0.207E+02 0.207E+02
 0.207E+02 0.207E+02 0.207E+02 0.207E+02 0.207E+02 0.207E+02 0.207E+02 0.203E+02
 0.203E+02 0.203E+02 0.203E+02 0.203E+02 0.203E+02 0.203E+02 0.203E+02 0.203E+02
 0.203E+02 0.203E+02 0.206E+02 0.207E+02 0.207E+02 0.207E+02 0.207E+02 0.207E+02
 0.207E+02 0.207E+02 0.207E+02 0.202E+02 0.202E+02 0.202E+02 0.202E+02 0.202E+02
 0.202E+02 0.202E+02 0.202E+02 0.202E+02 0.202E+02 0.202E+02 0.000E+00 0.000E+00
 0.000E+00 0.000E+00 0.000E+00 0.000E+00 0.000E+00 0.000E+00 0.000E+00 0.000E+00
 0.000E+00 0.000E+00 0.000E+00 0.000E+00 0.000E+00 0.000E+00 0.000E+00 0.000E+00
 0.000E+00 0.000E+00 0.000E+00 0.000E+00
/&   ----------  End of spectral data for channel  1  ----------
