Response and Fourier amplitude spectra (78 periods, 0.04 -  6.0 sec)   for      
Corrected accelerogram   58658-G0133-21116.07       Chan 17:  Long       from   
Uncorrected Accelerogram Data             Processed: 05/19/21, CGS  58658007    
Rcrd of Mon Apr 26, 2021 10:09:54.0 PDT           (Avol1 v6.6,64b, 2/20; PC86)  
CSMIP Preliminary Processing            (Origin:  To be determined)             
58658-G0133-21116.07                 Start time:  4/26/21, 17:09:54.0 UTC (GPS) 
Station No. 58658   37.691N, 122.099W    Granit  s/n  133 (18 Chns of 20 at Sta)
Hayward - Hwy 580/238 Interchange Bridge  CGS   Data: Acceleration              
Chan 17:  Long    (Sta Chn: 22)     Location: Bent 4: Deck Level                
Rcrd of Mon Apr 26, 2021 10:09:54.0 PDT    Mon Apr 26, 2021 10:09:54.0 PDT      
Hypocenter:  To be determined.               ML:  To be determined.
Instr Period = 0.0047 sec,  Damping = 0.700,  Sensitivity = 1.25 v/g
                        Record Length = 65.000 sec.
                                     Uncor Max  =  0.034 g, at   24.275 sec.
RMS accel of (uncor) record  =        .   Chn. metadata effective date: 09/01/11
Accelerogram bandpass filtered with 3 dB pts at  0.30 and 40.00 cyc/sec
                 instrument- and base-line corrected
                                                         (Avol3,v6.4,64b,12/18)




Rcrd of Mon Apr 26, 2021 10:09:54.0 PDT    Mon Apr 26, 2021 10:09:54.0 PDT

58658-G0133-21116.07      Hayward - Hwy 580/238 Interchange Bridge  CGChan 17:
Long
58658-G0133-21116.07      Hayward - Hwy 580/238 Interchange Bridge  CGChan 17:
Long
Units for spectra are inches and sec, except Sa is in fraction of g.

   17  100   22   18   20  200    1    3    2   24   30  133    058658    3    0
   17    9   54    0  116    4   26 2021   10    3  80013000   39   40   74   -1
13000    0  100    3  133    1    7  650    2 -999 -999 -999 -999 -999 -999 -999
 -999 -999    3 -99913000    1  222    1   24   21 -999 -999    3    1 -99913000
    313000    4   78    1   18    5    0    0 -999    0    0    1    3    1    2
    2    2    4    1   66   78    0    2 -999    0    0    1    0    0    0  222
    1    0    2    0
     0.005     0.700    65.000     0.006     1.000  1252.000     0.034    24.275
   212.000     0.596     0.476  -999.000     5.000  -999.000     4.000  -999.000
     5.000    32.189     5.000  -999.000    25.000    30.000  -999.000     0.979
     0.017    -0.962     2.000    15.000    37.691  -122.099     3.101     3.785
     1.221    -1.445    -0.480    49.000    25.000    35.900    13.700    71.960
     1.000    11.003    -8.000  -999.000  -999.000  -999.000  -999.000  -999.000
     7.200     6.600     6.600   980.665     0.005    65.000    33.741    -0.000
  -999.000    40.000  -999.000    65.000     0.005     0.300  -999.000  -999.000
    28.680    26.637    44.505    -5.231    33.575    30.549     0.415     0.300
    40.000     0.005     0.005   -11.030     0.005     0.935  -999.000  -999.000
     0.126     0.090     0.018     0.026     0.008     0.005  -999.000  -999.000
  -999.000  -999.000  -999.000  -999.000  -999.000  -999.000  -999.000  -999.000
  -999.000  -999.000  -999.000  -999.000
     0.050
     0.040     0.042     0.044     0.046     0.048     0.050     0.055     0.060
     0.065     0.070     0.075     0.080     0.085     0.090     0.095     0.100
     0.110     0.120     0.130     0.140     0.150     0.160     0.170     0.180
     0.190     0.200     0.220     0.240     0.260     0.280     0.300     0.320
     0.340     0.360     0.380     0.400     0.420     0.440     0.460     0.480
     0.500     0.550     0.600     0.650     0.700     0.750     0.800     0.850
     0.900     0.950     1.000     1.100     1.200     1.300     1.400     1.500
     1.600     1.700     1.800     1.900     2.000     2.200     2.400     2.600
     2.800     3.000     3.200     3.400     3.600     3.800     4.000     4.200
     4.400     4.600     4.800     5.000     5.500     6.000     0.000     0.000
     0.000     0.000     0.000     0.000     0.000     0.000     0.000     0.000
     0.000     0.000     0.000     0.000     0.000     0.000     0.000     0.000
     0.000     0.000     0.000     0.000
Fourier amplitude spectra in in/sec.
 0.000E+00 0.000E+00 0.000E+00 0.000E+00 0.000E+00 0.000E+00 0.000E+00 0.000E+00
 0.000E+00 0.000E+00 0.000E+00 0.000E+00 0.000E+00 0.000E+00 0.000E+00 0.000E+00
 0.000E+00 0.000E+00 0.000E+00 0.000E+00 0.000E+00 0.000E+00 0.000E+00 0.000E+00
 0.000E+00 0.000E+00 0.000E+00 0.000E+00 0.000E+00 0.000E+00 0.000E+00 0.000E+00
 0.000E+00 0.000E+00 0.000E+00 0.000E+00 0.000E+00 0.000E+00 0.000E+00 0.000E+00
 0.000E+00 0.000E+00 0.000E+00 0.000E+00 0.000E+00 0.000E+00 0.000E+00 0.000E+00
 0.000E+00 0.000E+00 0.000E+00 0.000E+00 0.000E+00 0.000E+00 0.000E+00 0.000E+00
 0.000E+00 0.000E+00 0.000E+00 0.000E+00 0.000E+00 0.000E+00 0.000E+00 0.000E+00
 0.000E+00 0.000E+00 0.000E+00 0.000E+00 0.000E+00 0.000E+00 0.000E+00 0.000E+00
 0.000E+00 0.000E+00 0.000E+00 0.000E+00 0.000E+00 0.000E+00 0.000E+00 0.000E+00
 0.000E+00 0.000E+00 0.000E+00 0.000E+00 0.000E+00 0.000E+00 0.000E+00 0.000E+00
 0.000E+00 0.000E+00 0.000E+00 0.000E+00 0.000E+00 0.000E+00 0.000E+00 0.000E+00
 0.000E+00 0.000E+00 0.000E+00 0.000E+00
Damping = 0.05. Data of Sd,Sv,Sa,Pssv,ttSd,ttSv,ttSa :
 0.950E-03 0.113E-02 0.107E-02 0.108E-02 0.122E-02 0.157E-02 0.250E-02 0.270E-02
 0.291E-02 0.390E-02 0.479E-02 0.569E-02 0.803E-02 0.978E-02 0.984E-02 0.778E-02
 0.675E-02 0.520E-02 0.444E-02 0.511E-02 0.582E-02 0.604E-02 0.612E-02 0.626E-02
 0.688E-02 0.725E-02 0.795E-02 0.986E-02 0.116E-01 0.155E-01 0.237E-01 0.314E-01
 0.478E-01 0.489E-01 0.674E-01 0.893E-01 0.943E-01 0.915E-01 0.944E-01 0.106E+00
 0.119E+00 0.168E+00 0.183E+00 0.155E+00 0.110E+00 0.822E-01 0.781E-01 0.733E-01
 0.710E-01 0.797E-01 0.814E-01 0.763E-01 0.788E-01 0.745E-01 0.981E-01 0.916E-01
 0.962E-01 0.103E+00 0.141E+00 0.168E+00 0.162E+00 0.218E+00 0.275E+00 0.286E+00
 0.376E+00 0.459E+00 0.535E+00 0.590E+00 0.692E+00 0.774E+00 0.799E+00 0.895E+00
 0.104E+01 0.108E+01 0.978E+00 0.824E+00 0.113E+01 0.146E+01 0.000E+00 0.000E+00
 0.000E+00 0.000E+00 0.000E+00 0.000E+00 0.000E+00 0.000E+00 0.000E+00 0.000E+00
 0.000E+00 0.000E+00 0.000E+00 0.000E+00 0.000E+00 0.000E+00 0.000E+00 0.000E+00
 0.000E+00 0.000E+00 0.000E+00 0.000E+00
 0.140E+00 0.157E+00 0.146E+00 0.125E+00 0.125E+00 0.161E+00 0.246E+00 0.248E+00
 0.241E+00 0.331E+00 0.397E+00 0.410E+00 0.563E+00 0.686E+00 0.668E+00 0.514E+00
 0.431E+00 0.310E+00 0.262E+00 0.249E+00 0.233E+00 0.259E+00 0.274E+00 0.210E+00
 0.185E+00 0.204E+00 0.229E+00 0.238E+00 0.255E+00 0.346E+00 0.431E+00 0.563E+00
 0.811E+00 0.806E+00 0.975E+00 0.137E+01 0.134E+01 0.120E+01 0.124E+01 0.139E+01
 0.153E+01 0.193E+01 0.211E+01 0.157E+01 0.120E+01 0.941E+00 0.870E+00 0.790E+00
 0.742E+00 0.753E+00 0.753E+00 0.673E+00 0.645E+00 0.681E+00 0.682E+00 0.580E+00
 0.572E+00 0.630E+00 0.701E+00 0.660E+00 0.648E+00 0.804E+00 0.903E+00 0.779E+00
 0.739E+00 0.810E+00 0.951E+00 0.113E+01 0.123E+01 0.119E+01 0.135E+01 0.145E+01
 0.149E+01 0.149E+01 0.137E+01 0.131E+01 0.131E+01 0.159E+01 0.000E+00 0.000E+00
 0.000E+00 0.000E+00 0.000E+00 0.000E+00 0.000E+00 0.000E+00 0.000E+00 0.000E+00
 0.000E+00 0.000E+00 0.000E+00 0.000E+00 0.000E+00 0.000E+00 0.000E+00 0.000E+00
 0.000E+00 0.000E+00 0.000E+00 0.000E+00
 0.604E-01 0.659E-01 0.567E-01 0.525E-01 0.544E-01 0.643E-01 0.847E-01 0.770E-01
 0.703E-01 0.818E-01 0.885E-01 0.922E-01 0.113E+00 0.126E+00 0.113E+00 0.791E-01
 0.572E-01 0.373E-01 0.271E-01 0.268E-01 0.265E-01 0.242E-01 0.218E-01 0.198E-01
 0.196E-01 0.186E-01 0.169E-01 0.176E-01 0.177E-01 0.203E-01 0.270E-01 0.315E-01
 0.425E-01 0.387E-01 0.479E-01 0.574E-01 0.550E-01 0.486E-01 0.458E-01 0.470E-01
 0.489E-01 0.570E-01 0.522E-01 0.377E-01 0.232E-01 0.151E-01 0.126E-01 0.105E-01
 0.908E-02 0.916E-02 0.842E-02 0.651E-02 0.566E-02 0.462E-02 0.524E-02 0.428E-02
 0.390E-02 0.368E-02 0.456E-02 0.488E-02 0.426E-02 0.467E-02 0.496E-02 0.435E-02
 0.493E-02 0.524E-02 0.536E-02 0.526E-02 0.550E-02 0.553E-02 0.514E-02 0.523E-02
 0.555E-02 0.525E-02 0.438E-02 0.341E-02 0.387E-02 0.417E-02 0.000E+00 0.000E+00
 0.000E+00 0.000E+00 0.000E+00 0.000E+00 0.000E+00 0.000E+00 0.000E+00 0.000E+00
 0.000E+00 0.000E+00 0.000E+00 0.000E+00 0.000E+00 0.000E+00 0.000E+00 0.000E+00
 0.000E+00 0.000E+00 0.000E+00 0.000E+00
 0.149E+00 0.168E+00 0.153E+00 0.147E+00 0.160E+00 0.197E+00 0.286E+00 0.283E+00
 0.282E+00 0.350E+00 0.402E+00 0.447E+00 0.594E+00 0.683E+00 0.651E+00 0.489E+00
 0.385E+00 0.272E+00 0.215E+00 0.229E+00 0.244E+00 0.237E+00 0.226E+00 0.219E+00
 0.227E+00 0.228E+00 0.227E+00 0.258E+00 0.281E+00 0.348E+00 0.496E+00 0.616E+00
 0.884E+00 0.854E+00 0.111E+01 0.140E+01 0.141E+01 0.131E+01 0.129E+01 0.138E+01
 0.150E+01 0.192E+01 0.191E+01 0.149E+01 0.987E+00 0.689E+00 0.613E+00 0.542E+00
 0.496E+00 0.527E+00 0.511E+00 0.436E+00 0.412E+00 0.360E+00 0.440E+00 0.383E+00
 0.378E+00 0.379E+00 0.493E+00 0.556E+00 0.510E+00 0.623E+00 0.720E+00 0.692E+00
 0.843E+00 0.962E+00 0.105E+01 0.109E+01 0.121E+01 0.128E+01 0.125E+01 0.134E+01
 0.149E+01 0.147E+01 0.128E+01 0.104E+01 0.130E+01 0.153E+01 0.000E+00 0.000E+00
 0.000E+00 0.000E+00 0.000E+00 0.000E+00 0.000E+00 0.000E+00 0.000E+00 0.000E+00
 0.000E+00 0.000E+00 0.000E+00 0.000E+00 0.000E+00 0.000E+00 0.000E+00 0.000E+00
 0.000E+00 0.000E+00 0.000E+00 0.000E+00
 0.287E+02 0.325E+02 0.238E+02 0.265E+02 0.293E+02 0.293E+02 0.294E+02 0.294E+02
 0.275E+02 0.252E+02 0.252E+02 0.312E+02 0.296E+02 0.278E+02 0.277E+02 0.277E+02
 0.294E+02 0.287E+02 0.287E+02 0.287E+02 0.287E+02 0.273E+02 0.273E+02 0.273E+02
 0.274E+02 0.274E+02 0.272E+02 0.270E+02 0.270E+02 0.268E+02 0.364E+02 0.364E+02
 0.366E+02 0.272E+02 0.273E+02 0.273E+02 0.275E+02 0.275E+02 0.276E+02 0.276E+02
 0.276E+02 0.290E+02 0.288E+02 0.283E+02 0.275E+02 0.275E+02 0.272E+02 0.272E+02
 0.272E+02 0.272E+02 0.284E+02 0.284E+02 0.284E+02 0.269E+02 0.269E+02 0.269E+02
 0.383E+02 0.384E+02 0.269E+02 0.270E+02 0.270E+02 0.284E+02 0.285E+02 0.519E+02
 0.522E+02 0.523E+02 0.525E+02 0.528E+02 0.311E+02 0.314E+02 0.315E+02 0.318E+02
 0.320E+02 0.322E+02 0.326E+02 0.326E+02 0.565E+02 0.571E+02 0.000E+00 0.000E+00
 0.000E+00 0.000E+00 0.000E+00 0.000E+00 0.000E+00 0.000E+00 0.000E+00 0.000E+00
 0.000E+00 0.000E+00 0.000E+00 0.000E+00 0.000E+00 0.000E+00 0.000E+00 0.000E+00
 0.000E+00 0.000E+00 0.000E+00 0.000E+00
 0.257E+02 0.326E+02 0.204E+02 0.204E+02 0.326E+02 0.293E+02 0.293E+02 0.327E+02
 0.274E+02 0.252E+02 0.252E+02 0.312E+02 0.296E+02 0.244E+02 0.278E+02 0.277E+02
 0.295E+02 0.293E+02 0.293E+02 0.287E+02 0.287E+02 0.251E+02 0.251E+02 0.251E+02
 0.276E+02 0.274E+02 0.246E+02 0.246E+02 0.314E+02 0.363E+02 0.363E+02 0.365E+02
 0.365E+02 0.368E+02 0.272E+02 0.274E+02 0.274E+02 0.276E+02 0.277E+02 0.277E+02
 0.277E+02 0.292E+02 0.287E+02 0.285E+02 0.273E+02 0.273E+02 0.274E+02 0.274E+02
 0.274E+02 0.271E+02 0.271E+02 0.271E+02 0.271E+02 0.271E+02 0.271E+02 0.271E+02
 0.271E+02 0.271E+02 0.271E+02 0.276E+02 0.276E+02 0.277E+02 0.268E+02 0.296E+02
 0.529E+02 0.529E+02 0.296E+02 0.283E+02 0.302E+02 0.302E+02 0.328E+02 0.328E+02
 0.328E+02 0.313E+02 0.313E+02 0.274E+02 0.552E+02 0.557E+02 0.000E+00 0.000E+00
 0.000E+00 0.000E+00 0.000E+00 0.000E+00 0.000E+00 0.000E+00 0.000E+00 0.000E+00
 0.000E+00 0.000E+00 0.000E+00 0.000E+00 0.000E+00 0.000E+00 0.000E+00 0.000E+00
 0.000E+00 0.000E+00 0.000E+00 0.000E+00
 0.287E+02 0.325E+02 0.326E+02 0.265E+02 0.293E+02 0.293E+02 0.294E+02 0.294E+02
 0.275E+02 0.252E+02 0.252E+02 0.312E+02 0.296E+02 0.278E+02 0.277E+02 0.277E+02
 0.294E+02 0.287E+02 0.287E+02 0.287E+02 0.287E+02 0.273E+02 0.273E+02 0.273E+02
 0.274E+02 0.274E+02 0.272E+02 0.270E+02 0.272E+02 0.268E+02 0.364E+02 0.364E+02
 0.366E+02 0.272E+02 0.272E+02 0.273E+02 0.275E+02 0.275E+02 0.276E+02 0.276E+02
 0.276E+02 0.290E+02 0.288E+02 0.283E+02 0.275E+02 0.275E+02 0.272E+02 0.272E+02
 0.272E+02 0.272E+02 0.283E+02 0.284E+02 0.284E+02 0.269E+02 0.269E+02 0.269E+02
 0.383E+02 0.384E+02 0.269E+02 0.269E+02 0.269E+02 0.283E+02 0.284E+02 0.519E+02
 0.521E+02 0.523E+02 0.525E+02 0.527E+02 0.310E+02 0.314E+02 0.315E+02 0.317E+02
 0.319E+02 0.321E+02 0.325E+02 0.326E+02 0.565E+02 0.570E+02 0.000E+00 0.000E+00
 0.000E+00 0.000E+00 0.000E+00 0.000E+00 0.000E+00 0.000E+00 0.000E+00 0.000E+00
 0.000E+00 0.000E+00 0.000E+00 0.000E+00 0.000E+00 0.000E+00 0.000E+00 0.000E+00
 0.000E+00 0.000E+00 0.000E+00 0.000E+00
/&   ----------  End of spectral data for channel 22  ----------
