Response and Fourier amplitude spectra (78 periods, 0.04 -  6.0 sec)   for      
Corrected accelerogram   58658-G0133-21116.07       Chan 15:  Tran       from   
Uncorrected Accelerogram Data             Processed: 05/19/21, CGS  58658007    
Rcrd of Mon Apr 26, 2021 10:09:54.0 PDT           (Avol1 v6.6,64b, 2/20; PC86)  
CSMIP Preliminary Processing            (Origin:  To be determined)             
58658-G0133-21116.07                 Start time:  4/26/21, 17:09:54.0 UTC (GPS) 
Station No. 58658   37.691N, 122.099W    Granit  s/n  133 (18 Chns of 20 at Sta)
Hayward - Hwy 580/238 Interchange Bridge  CGS   Data: Acceleration              
Chan 15:  Tran    (Sta Chn: 20)     Location: Bent 4: North Column, Top         
Rcrd of Mon Apr 26, 2021 10:09:54.0 PDT    Mon Apr 26, 2021 10:09:54.0 PDT      
Hypocenter:  To be determined.               ML:  To be determined.
Instr Period = 0.0047 sec,  Damping = 0.700,  Sensitivity = 1.25 v/g
                        Record Length = 65.000 sec.
                                     Uncor Max  = -0.005 g, at   25.115 sec.
RMS accel of (uncor) record  =        .   Chn. metadata effective date: 09/01/11
Accelerogram bandpass filtered with 3 dB pts at  0.30 and 40.00 cyc/sec
                 instrument- and base-line corrected
                                                         (Avol3,v6.4,64b,12/18)




Rcrd of Mon Apr 26, 2021 10:09:54.0 PDT    Mon Apr 26, 2021 10:09:54.0 PDT

58658-G0133-21116.07      Hayward - Hwy 580/238 Interchange Bridge  CGChan 15:
Tran
58658-G0133-21116.07      Hayward - Hwy 580/238 Interchange Bridge  CGChan 15:
Tran
Units for spectra are inches and sec, except Sa is in fraction of g.

   15  100   20   18   20  200    1    3    2   24   30  133    058658    3    0
   17    9   54    0  116    4   26 2021   10    3  90013000   39   40   74   -1
13000    0  100    3  133    1    7  650    2 -999 -999 -999 -999 -999 -999 -999
 -999 -999    3 -99913000    1  222    1   24   21 -999 -999    3    1 -99913000
    313000    4   78    1   18    5    0    0 -999    0    0    1    3    1    2
    2    2    4    1   66   78    0    2 -999    0    0    1    0    0    0  222
    1    0    2    0
     0.005     0.700    65.000     0.001     1.000  1250.000    -0.005    25.115
   214.000     0.596     0.477  -999.000     5.000  -999.000     4.000  -999.000
     5.000     5.737     5.000  -999.000    25.000    30.000  -999.000     0.003
     0.001    -0.002     2.000    15.000    37.691  -122.099     0.213     0.310
     1.454    -0.037     0.033    49.000    25.000    35.900    13.700    71.960
     1.000    11.003    -8.000  -999.000  -999.000  -999.000  -999.000  -999.000
     7.200     6.600     6.600   980.665     0.005    65.000    34.059     0.000
  -999.000    40.000  -999.000    65.000     0.005     0.300  -999.000  -999.000
    25.115    -4.728    23.900     0.122    26.360     0.341    -0.006     0.300
    40.000     0.005     0.005    -0.132     0.005     0.014  -999.000  -999.000
     0.023     0.090     0.002     0.003     0.001     0.000  -999.000  -999.000
  -999.000  -999.000  -999.000  -999.000  -999.000  -999.000  -999.000  -999.000
  -999.000  -999.000  -999.000  -999.000
     0.050
     0.040     0.042     0.044     0.046     0.048     0.050     0.055     0.060
     0.065     0.070     0.075     0.080     0.085     0.090     0.095     0.100
     0.110     0.120     0.130     0.140     0.150     0.160     0.170     0.180
     0.190     0.200     0.220     0.240     0.260     0.280     0.300     0.320
     0.340     0.360     0.380     0.400     0.420     0.440     0.460     0.480
     0.500     0.550     0.600     0.650     0.700     0.750     0.800     0.850
     0.900     0.950     1.000     1.100     1.200     1.300     1.400     1.500
     1.600     1.700     1.800     1.900     2.000     2.200     2.400     2.600
     2.800     3.000     3.200     3.400     3.600     3.800     4.000     4.200
     4.400     4.600     4.800     5.000     5.500     6.000     0.000     0.000
     0.000     0.000     0.000     0.000     0.000     0.000     0.000     0.000
     0.000     0.000     0.000     0.000     0.000     0.000     0.000     0.000
     0.000     0.000     0.000     0.000
Fourier amplitude spectra in in/sec.
 0.000E+00 0.000E+00 0.000E+00 0.000E+00 0.000E+00 0.000E+00 0.000E+00 0.000E+00
 0.000E+00 0.000E+00 0.000E+00 0.000E+00 0.000E+00 0.000E+00 0.000E+00 0.000E+00
 0.000E+00 0.000E+00 0.000E+00 0.000E+00 0.000E+00 0.000E+00 0.000E+00 0.000E+00
 0.000E+00 0.000E+00 0.000E+00 0.000E+00 0.000E+00 0.000E+00 0.000E+00 0.000E+00
 0.000E+00 0.000E+00 0.000E+00 0.000E+00 0.000E+00 0.000E+00 0.000E+00 0.000E+00
 0.000E+00 0.000E+00 0.000E+00 0.000E+00 0.000E+00 0.000E+00 0.000E+00 0.000E+00
 0.000E+00 0.000E+00 0.000E+00 0.000E+00 0.000E+00 0.000E+00 0.000E+00 0.000E+00
 0.000E+00 0.000E+00 0.000E+00 0.000E+00 0.000E+00 0.000E+00 0.000E+00 0.000E+00
 0.000E+00 0.000E+00 0.000E+00 0.000E+00 0.000E+00 0.000E+00 0.000E+00 0.000E+00
 0.000E+00 0.000E+00 0.000E+00 0.000E+00 0.000E+00 0.000E+00 0.000E+00 0.000E+00
 0.000E+00 0.000E+00 0.000E+00 0.000E+00 0.000E+00 0.000E+00 0.000E+00 0.000E+00
 0.000E+00 0.000E+00 0.000E+00 0.000E+00 0.000E+00 0.000E+00 0.000E+00 0.000E+00
 0.000E+00 0.000E+00 0.000E+00 0.000E+00
Damping = 0.05. Data of Sd,Sv,Sa,Pssv,ttSd,ttSv,ttSa :
 0.124E-03 0.115E-03 0.132E-03 0.150E-03 0.173E-03 0.194E-03 0.275E-03 0.408E-03
 0.570E-03 0.889E-03 0.970E-03 0.101E-02 0.128E-02 0.180E-02 0.197E-02 0.158E-02
 0.102E-02 0.934E-03 0.800E-03 0.830E-03 0.820E-03 0.779E-03 0.907E-03 0.891E-03
 0.856E-03 0.823E-03 0.110E-02 0.180E-02 0.198E-02 0.212E-02 0.267E-02 0.287E-02
 0.384E-02 0.505E-02 0.758E-02 0.877E-02 0.778E-02 0.694E-02 0.576E-02 0.532E-02
 0.511E-02 0.486E-02 0.591E-02 0.600E-02 0.413E-02 0.411E-02 0.491E-02 0.493E-02
 0.606E-02 0.539E-02 0.616E-02 0.979E-02 0.751E-02 0.604E-02 0.535E-02 0.456E-02
 0.436E-02 0.384E-02 0.352E-02 0.380E-02 0.417E-02 0.519E-02 0.551E-02 0.516E-02
 0.477E-02 0.401E-02 0.425E-02 0.410E-02 0.436E-02 0.501E-02 0.498E-02 0.517E-02
 0.530E-02 0.546E-02 0.576E-02 0.625E-02 0.753E-02 0.101E-01 0.000E+00 0.000E+00
 0.000E+00 0.000E+00 0.000E+00 0.000E+00 0.000E+00 0.000E+00 0.000E+00 0.000E+00
 0.000E+00 0.000E+00 0.000E+00 0.000E+00 0.000E+00 0.000E+00 0.000E+00 0.000E+00
 0.000E+00 0.000E+00 0.000E+00 0.000E+00
 0.157E-01 0.131E-01 0.143E-01 0.146E-01 0.160E-01 0.179E-01 0.234E-01 0.371E-01
 0.478E-01 0.738E-01 0.770E-01 0.725E-01 0.920E-01 0.126E+00 0.135E+00 0.105E+00
 0.630E-01 0.510E-01 0.417E-01 0.395E-01 0.326E-01 0.373E-01 0.406E-01 0.355E-01
 0.328E-01 0.292E-01 0.328E-01 0.421E-01 0.491E-01 0.595E-01 0.572E-01 0.566E-01
 0.744E-01 0.938E-01 0.130E+00 0.143E+00 0.127E+00 0.104E+00 0.934E-01 0.759E-01
 0.715E-01 0.688E-01 0.765E-01 0.762E-01 0.603E-01 0.564E-01 0.565E-01 0.571E-01
 0.558E-01 0.521E-01 0.630E-01 0.711E-01 0.664E-01 0.495E-01 0.443E-01 0.423E-01
 0.464E-01 0.454E-01 0.411E-01 0.397E-01 0.413E-01 0.451E-01 0.479E-01 0.468E-01
 0.460E-01 0.438E-01 0.416E-01 0.403E-01 0.397E-01 0.405E-01 0.417E-01 0.422E-01
 0.424E-01 0.426E-01 0.427E-01 0.426E-01 0.431E-01 0.446E-01 0.000E+00 0.000E+00
 0.000E+00 0.000E+00 0.000E+00 0.000E+00 0.000E+00 0.000E+00 0.000E+00 0.000E+00
 0.000E+00 0.000E+00 0.000E+00 0.000E+00 0.000E+00 0.000E+00 0.000E+00 0.000E+00
 0.000E+00 0.000E+00 0.000E+00 0.000E+00
 0.800E-02 0.671E-02 0.698E-02 0.726E-02 0.775E-02 0.801E-02 0.933E-02 0.116E-01
 0.137E-01 0.186E-01 0.179E-01 0.163E-01 0.181E-01 0.229E-01 0.225E-01 0.163E-01
 0.873E-02 0.672E-02 0.486E-02 0.433E-02 0.375E-02 0.317E-02 0.322E-02 0.285E-02
 0.244E-02 0.211E-02 0.234E-02 0.322E-02 0.301E-02 0.278E-02 0.305E-02 0.288E-02
 0.342E-02 0.400E-02 0.540E-02 0.564E-02 0.454E-02 0.369E-02 0.280E-02 0.238E-02
 0.210E-02 0.165E-02 0.168E-02 0.147E-02 0.875E-03 0.754E-03 0.792E-03 0.710E-03
 0.774E-03 0.621E-03 0.635E-03 0.840E-03 0.539E-03 0.370E-03 0.283E-03 0.213E-03
 0.183E-03 0.139E-03 0.112E-03 0.114E-03 0.122E-03 0.117E-03 0.105E-03 0.852E-04
 0.694E-04 0.584E-04 0.480E-04 0.407E-04 0.403E-04 0.412E-04 0.373E-04 0.364E-04
 0.354E-04 0.346E-04 0.332E-04 0.323E-04 0.317E-04 0.347E-04 0.000E+00 0.000E+00
 0.000E+00 0.000E+00 0.000E+00 0.000E+00 0.000E+00 0.000E+00 0.000E+00 0.000E+00
 0.000E+00 0.000E+00 0.000E+00 0.000E+00 0.000E+00 0.000E+00 0.000E+00 0.000E+00
 0.000E+00 0.000E+00 0.000E+00 0.000E+00
 0.195E-01 0.171E-01 0.188E-01 0.206E-01 0.227E-01 0.244E-01 0.315E-01 0.427E-01
 0.551E-01 0.798E-01 0.813E-01 0.792E-01 0.945E-01 0.126E+00 0.131E+00 0.993E-01
 0.585E-01 0.489E-01 0.387E-01 0.372E-01 0.343E-01 0.306E-01 0.335E-01 0.311E-01
 0.283E-01 0.259E-01 0.313E-01 0.472E-01 0.479E-01 0.476E-01 0.559E-01 0.563E-01
 0.710E-01 0.881E-01 0.125E+00 0.138E+00 0.116E+00 0.991E-01 0.787E-01 0.697E-01
 0.642E-01 0.555E-01 0.619E-01 0.580E-01 0.371E-01 0.344E-01 0.386E-01 0.365E-01
 0.423E-01 0.357E-01 0.387E-01 0.559E-01 0.393E-01 0.292E-01 0.240E-01 0.191E-01
 0.171E-01 0.142E-01 0.123E-01 0.126E-01 0.131E-01 0.148E-01 0.144E-01 0.125E-01
 0.107E-01 0.841E-02 0.834E-02 0.758E-02 0.761E-02 0.828E-02 0.783E-02 0.774E-02
 0.757E-02 0.746E-02 0.754E-02 0.786E-02 0.860E-02 0.106E-01 0.000E+00 0.000E+00
 0.000E+00 0.000E+00 0.000E+00 0.000E+00 0.000E+00 0.000E+00 0.000E+00 0.000E+00
 0.000E+00 0.000E+00 0.000E+00 0.000E+00 0.000E+00 0.000E+00 0.000E+00 0.000E+00
 0.000E+00 0.000E+00 0.000E+00 0.000E+00
 0.253E+02 0.253E+02 0.251E+02 0.239E+02 0.251E+02 0.251E+02 0.251E+02 0.251E+02
 0.252E+02 0.252E+02 0.252E+02 0.240E+02 0.252E+02 0.277E+02 0.276E+02 0.240E+02
 0.293E+02 0.240E+02 0.240E+02 0.248E+02 0.248E+02 0.251E+02 0.328E+02 0.249E+02
 0.249E+02 0.246E+02 0.254E+02 0.249E+02 0.249E+02 0.250E+02 0.457E+02 0.310E+02
 0.310E+02 0.250E+02 0.256E+02 0.260E+02 0.257E+02 0.412E+02 0.243E+02 0.398E+02
 0.398E+02 0.311E+02 0.244E+02 0.242E+02 0.242E+02 0.218E+02 0.407E+02 0.313E+02
 0.310E+02 0.310E+02 0.585E+02 0.242E+02 0.341E+02 0.341E+02 0.331E+02 0.308E+02
 0.258E+02 0.331E+02 0.326E+02 0.258E+02 0.251E+02 0.310E+02 0.245E+02 0.245E+02
 0.246E+02 0.239E+02 0.308E+02 0.308E+02 0.274E+02 0.276E+02 0.245E+02 0.246E+02
 0.246E+02 0.246E+02 0.258E+02 0.258E+02 0.258E+02 0.258E+02 0.000E+00 0.000E+00
 0.000E+00 0.000E+00 0.000E+00 0.000E+00 0.000E+00 0.000E+00 0.000E+00 0.000E+00
 0.000E+00 0.000E+00 0.000E+00 0.000E+00 0.000E+00 0.000E+00 0.000E+00 0.000E+00
 0.000E+00 0.000E+00 0.000E+00 0.000E+00
 0.253E+02 0.253E+02 0.251E+02 0.251E+02 0.251E+02 0.251E+02 0.251E+02 0.251E+02
 0.252E+02 0.252E+02 0.252E+02 0.252E+02 0.252E+02 0.276E+02 0.276E+02 0.251E+02
 0.275E+02 0.240E+02 0.239E+02 0.248E+02 0.248E+02 0.251E+02 0.251E+02 0.251E+02
 0.251E+02 0.251E+02 0.251E+02 0.251E+02 0.250E+02 0.250E+02 0.250E+02 0.250E+02
 0.250E+02 0.249E+02 0.257E+02 0.254E+02 0.256E+02 0.248E+02 0.249E+02 0.242E+02
 0.397E+02 0.313E+02 0.242E+02 0.240E+02 0.240E+02 0.240E+02 0.240E+02 0.311E+02
 0.311E+02 0.249E+02 0.249E+02 0.240E+02 0.240E+02 0.240E+02 0.240E+02 0.240E+02
 0.240E+02 0.240E+02 0.240E+02 0.240E+02 0.240E+02 0.240E+02 0.240E+02 0.240E+02
 0.240E+02 0.240E+02 0.240E+02 0.240E+02 0.240E+02 0.240E+02 0.240E+02 0.240E+02
 0.240E+02 0.240E+02 0.240E+02 0.240E+02 0.240E+02 0.240E+02 0.000E+00 0.000E+00
 0.000E+00 0.000E+00 0.000E+00 0.000E+00 0.000E+00 0.000E+00 0.000E+00 0.000E+00
 0.000E+00 0.000E+00 0.000E+00 0.000E+00 0.000E+00 0.000E+00 0.000E+00 0.000E+00
 0.000E+00 0.000E+00 0.000E+00 0.000E+00
 0.253E+02 0.253E+02 0.251E+02 0.239E+02 0.251E+02 0.251E+02 0.251E+02 0.251E+02
 0.252E+02 0.252E+02 0.252E+02 0.240E+02 0.252E+02 0.277E+02 0.276E+02 0.240E+02
 0.293E+02 0.240E+02 0.240E+02 0.248E+02 0.248E+02 0.251E+02 0.328E+02 0.249E+02
 0.249E+02 0.246E+02 0.254E+02 0.249E+02 0.249E+02 0.249E+02 0.457E+02 0.310E+02
 0.310E+02 0.252E+02 0.256E+02 0.260E+02 0.257E+02 0.412E+02 0.243E+02 0.398E+02
 0.398E+02 0.311E+02 0.243E+02 0.241E+02 0.242E+02 0.218E+02 0.406E+02 0.312E+02
 0.310E+02 0.310E+02 0.585E+02 0.242E+02 0.340E+02 0.341E+02 0.330E+02 0.308E+02
 0.257E+02 0.251E+02 0.325E+02 0.258E+02 0.251E+02 0.310E+02 0.245E+02 0.245E+02
 0.245E+02 0.239E+02 0.239E+02 0.308E+02 0.273E+02 0.276E+02 0.276E+02 0.249E+02
 0.249E+02 0.249E+02 0.249E+02 0.257E+02 0.257E+02 0.257E+02 0.000E+00 0.000E+00
 0.000E+00 0.000E+00 0.000E+00 0.000E+00 0.000E+00 0.000E+00 0.000E+00 0.000E+00
 0.000E+00 0.000E+00 0.000E+00 0.000E+00 0.000E+00 0.000E+00 0.000E+00 0.000E+00
 0.000E+00 0.000E+00 0.000E+00 0.000E+00
/&   ----------  End of spectral data for channel 20  ----------
