Response and Fourier amplitude spectra (78 periods, 0.04 -  6.0 sec)   for      
Corrected accelerogram   58658-G0133-21116.07       Chan 11:  Up         from   
Uncorrected Accelerogram Data             Processed: 05/19/21, CGS  58658007    
Rcrd of Mon Apr 26, 2021 10:09:54.0 PDT           (Avol1 v6.6,64b, 2/20; PC86)  
CSMIP Preliminary Processing            (Origin:  To be determined)             
58658-G0133-21116.07                 Start time:  4/26/21, 17:09:54.0 UTC (GPS) 
Station No. 58658   37.691N, 122.099W    Granit  s/n  133 (18 Chns of 20 at Sta)
Hayward - Hwy 580/238 Interchange Bridge  CGS   Data: Acceleration              
Chan 11:  Up      (Sta Chn: 16)     Location: Midspan between Bents 3&4: Deck   
Rcrd of Mon Apr 26, 2021 10:09:54.0 PDT    Mon Apr 26, 2021 10:09:54.0 PDT      
Hypocenter:  To be determined.               ML:  To be determined.
Instr Period = 0.0049 sec,  Damping = 0.700,  Sensitivity = 1.25 v/g
                        Record Length = 65.000 sec.
                                     Uncor Max  =  0.057 g, at   24.190 sec.
RMS accel of (uncor) record  =        .   Chn. metadata effective date: 09/01/11
Accelerogram bandpass filtered with 3 dB pts at  0.30 and 40.00 cyc/sec
                 instrument- and base-line corrected
                                                         (Avol3,v6.4,64b,12/18)




Rcrd of Mon Apr 26, 2021 10:09:54.0 PDT    Mon Apr 26, 2021 10:09:54.0 PDT

58658-G0133-21116.07      Hayward - Hwy 580/238 Interchange Bridge  CGChan 11:
Up
58658-G0133-21116.07      Hayward - Hwy 580/238 Interchange Bridge  CGChan 11:
Up
Units for spectra are inches and sec, except Sa is in fraction of g.

   11  100   16   18   20  200    1    3    2   24   30  133    058658    3    0
   17    9   54    0  116    4   26 2021   10    3  50013000   39   40   74   -1
13000    0  100    3  133    1    7  650    2 -999 -999 -999 -999 -999 -999 -999
 -999 -999    3 -99913000    1  222    1   24   21 -999 -999    3    1 -99913000
    313000    4   78    1   18    5    0    0 -999    0    0    1    3    1    2
    2    2    4    1   66   78    0    2 -999    0    0    1    0    0    0  222
    1    0    2    0
     0.005     0.700    65.000     0.006     1.000  1249.000     0.057    24.190
   206.000     0.596     0.477  -999.000     5.000  -999.000     4.000  -999.000
     5.000   -12.162     5.000  -999.000    25.000    30.000  -999.000     0.016
     0.040     0.023     2.000    15.000    37.691  -122.099     1.709     2.657
     1.555    -0.268     0.314    49.000    25.000    35.900    13.700    71.960
     1.000    11.003    -8.000  -999.000  -999.000  -999.000  -999.000  -999.000
     7.200     6.600     6.600   980.665     0.005    65.000    32.786     0.000
  -999.000    40.000  -999.000    65.000     0.005     0.300  -999.000  -999.000
    25.050    56.486    25.070     1.454    26.755     0.564     0.050     0.300
    40.000     0.005     0.005    -0.057     0.640     0.083  -999.000  -999.000
     0.311     0.095     0.034     0.030     0.005     0.001  -999.000  -999.000
  -999.000  -999.000  -999.000  -999.000  -999.000  -999.000  -999.000  -999.000
  -999.000  -999.000  -999.000  -999.000
     0.050
     0.040     0.042     0.044     0.046     0.048     0.050     0.055     0.060
     0.065     0.070     0.075     0.080     0.085     0.090     0.095     0.100
     0.110     0.120     0.130     0.140     0.150     0.160     0.170     0.180
     0.190     0.200     0.220     0.240     0.260     0.280     0.300     0.320
     0.340     0.360     0.380     0.400     0.420     0.440     0.460     0.480
     0.500     0.550     0.600     0.650     0.700     0.750     0.800     0.850
     0.900     0.950     1.000     1.100     1.200     1.300     1.400     1.500
     1.600     1.700     1.800     1.900     2.000     2.200     2.400     2.600
     2.800     3.000     3.200     3.400     3.600     3.800     4.000     4.200
     4.400     4.600     4.800     5.000     5.500     6.000     0.000     0.000
     0.000     0.000     0.000     0.000     0.000     0.000     0.000     0.000
     0.000     0.000     0.000     0.000     0.000     0.000     0.000     0.000
     0.000     0.000     0.000     0.000
Fourier amplitude spectra in in/sec.
 0.000E+00 0.000E+00 0.000E+00 0.000E+00 0.000E+00 0.000E+00 0.000E+00 0.000E+00
 0.000E+00 0.000E+00 0.000E+00 0.000E+00 0.000E+00 0.000E+00 0.000E+00 0.000E+00
 0.000E+00 0.000E+00 0.000E+00 0.000E+00 0.000E+00 0.000E+00 0.000E+00 0.000E+00
 0.000E+00 0.000E+00 0.000E+00 0.000E+00 0.000E+00 0.000E+00 0.000E+00 0.000E+00
 0.000E+00 0.000E+00 0.000E+00 0.000E+00 0.000E+00 0.000E+00 0.000E+00 0.000E+00
 0.000E+00 0.000E+00 0.000E+00 0.000E+00 0.000E+00 0.000E+00 0.000E+00 0.000E+00
 0.000E+00 0.000E+00 0.000E+00 0.000E+00 0.000E+00 0.000E+00 0.000E+00 0.000E+00
 0.000E+00 0.000E+00 0.000E+00 0.000E+00 0.000E+00 0.000E+00 0.000E+00 0.000E+00
 0.000E+00 0.000E+00 0.000E+00 0.000E+00 0.000E+00 0.000E+00 0.000E+00 0.000E+00
 0.000E+00 0.000E+00 0.000E+00 0.000E+00 0.000E+00 0.000E+00 0.000E+00 0.000E+00
 0.000E+00 0.000E+00 0.000E+00 0.000E+00 0.000E+00 0.000E+00 0.000E+00 0.000E+00
 0.000E+00 0.000E+00 0.000E+00 0.000E+00 0.000E+00 0.000E+00 0.000E+00 0.000E+00
 0.000E+00 0.000E+00 0.000E+00 0.000E+00
Damping = 0.05. Data of Sd,Sv,Sa,Pssv,ttSd,ttSv,ttSa :
 0.169E-02 0.173E-02 0.223E-02 0.298E-02 0.342E-02 0.359E-02 0.372E-02 0.387E-02
 0.696E-02 0.799E-02 0.913E-02 0.961E-02 0.128E-01 0.202E-01 0.275E-01 0.250E-01
 0.141E-01 0.950E-02 0.828E-02 0.804E-02 0.807E-02 0.958E-02 0.102E-01 0.118E-01
 0.131E-01 0.128E-01 0.143E-01 0.214E-01 0.194E-01 0.199E-01 0.270E-01 0.335E-01
 0.424E-01 0.625E-01 0.108E+00 0.147E+00 0.136E+00 0.119E+00 0.115E+00 0.113E+00
 0.120E+00 0.155E+00 0.154E+00 0.124E+00 0.100E+00 0.731E-01 0.627E-01 0.590E-01
 0.542E-01 0.502E-01 0.471E-01 0.439E-01 0.422E-01 0.418E-01 0.431E-01 0.422E-01
 0.436E-01 0.443E-01 0.404E-01 0.409E-01 0.518E-01 0.651E-01 0.782E-01 0.883E-01
 0.101E+00 0.103E+00 0.125E+00 0.149E+00 0.168E+00 0.166E+00 0.158E+00 0.149E+00
 0.153E+00 0.155E+00 0.151E+00 0.142E+00 0.136E+00 0.128E+00 0.000E+00 0.000E+00
 0.000E+00 0.000E+00 0.000E+00 0.000E+00 0.000E+00 0.000E+00 0.000E+00 0.000E+00
 0.000E+00 0.000E+00 0.000E+00 0.000E+00 0.000E+00 0.000E+00 0.000E+00 0.000E+00
 0.000E+00 0.000E+00 0.000E+00 0.000E+00
 0.192E+00 0.223E+00 0.261E+00 0.351E+00 0.391E+00 0.364E+00 0.380E+00 0.351E+00
 0.614E+00 0.653E+00 0.711E+00 0.678E+00 0.954E+00 0.138E+01 0.186E+01 0.162E+01
 0.914E+00 0.659E+00 0.548E+00 0.505E+00 0.513E+00 0.550E+00 0.530E+00 0.548E+00
 0.464E+00 0.453E+00 0.484E+00 0.666E+00 0.546E+00 0.493E+00 0.578E+00 0.653E+00
 0.821E+00 0.119E+01 0.165E+01 0.217E+01 0.197E+01 0.162E+01 0.155E+01 0.148E+01
 0.155E+01 0.186E+01 0.181E+01 0.137E+01 0.108E+01 0.866E+00 0.741E+00 0.698E+00
 0.656E+00 0.619E+00 0.587E+00 0.554E+00 0.542E+00 0.535E+00 0.520E+00 0.511E+00
 0.504E+00 0.507E+00 0.506E+00 0.512E+00 0.523E+00 0.498E+00 0.486E+00 0.548E+00
 0.610E+00 0.624E+00 0.635E+00 0.602E+00 0.533E+00 0.564E+00 0.580E+00 0.588E+00
 0.595E+00 0.606E+00 0.620E+00 0.630E+00 0.636E+00 0.635E+00 0.000E+00 0.000E+00
 0.000E+00 0.000E+00 0.000E+00 0.000E+00 0.000E+00 0.000E+00 0.000E+00 0.000E+00
 0.000E+00 0.000E+00 0.000E+00 0.000E+00 0.000E+00 0.000E+00 0.000E+00 0.000E+00
 0.000E+00 0.000E+00 0.000E+00 0.000E+00
 0.109E+00 0.101E+00 0.119E+00 0.146E+00 0.153E+00 0.146E+00 0.127E+00 0.109E+00
 0.169E+00 0.166E+00 0.165E+00 0.154E+00 0.182E+00 0.255E+00 0.311E+00 0.254E+00
 0.120E+00 0.681E-01 0.501E-01 0.419E-01 0.370E-01 0.391E-01 0.363E-01 0.374E-01
 0.374E-01 0.331E-01 0.306E-01 0.382E-01 0.296E-01 0.262E-01 0.307E-01 0.336E-01
 0.376E-01 0.497E-01 0.771E-01 0.947E-01 0.791E-01 0.631E-01 0.560E-01 0.505E-01
 0.494E-01 0.528E-01 0.441E-01 0.303E-01 0.211E-01 0.134E-01 0.101E-01 0.847E-02
 0.695E-02 0.579E-02 0.491E-02 0.380E-02 0.308E-02 0.261E-02 0.233E-02 0.200E-02
 0.180E-02 0.162E-02 0.133E-02 0.128E-02 0.145E-02 0.150E-02 0.146E-02 0.141E-02
 0.140E-02 0.126E-02 0.128E-02 0.138E-02 0.139E-02 0.124E-02 0.107E-02 0.922E-03
 0.863E-03 0.808E-03 0.727E-03 0.626E-03 0.504E-03 0.419E-03 0.000E+00 0.000E+00
 0.000E+00 0.000E+00 0.000E+00 0.000E+00 0.000E+00 0.000E+00 0.000E+00 0.000E+00
 0.000E+00 0.000E+00 0.000E+00 0.000E+00 0.000E+00 0.000E+00 0.000E+00 0.000E+00
 0.000E+00 0.000E+00 0.000E+00 0.000E+00
 0.266E+00 0.259E+00 0.318E+00 0.408E+00 0.447E+00 0.451E+00 0.425E+00 0.405E+00
 0.673E+00 0.717E+00 0.765E+00 0.755E+00 0.948E+00 0.141E+01 0.182E+01 0.157E+01
 0.804E+00 0.497E+00 0.400E+00 0.361E+00 0.338E+00 0.376E+00 0.377E+00 0.411E+00
 0.434E+00 0.401E+00 0.409E+00 0.560E+00 0.468E+00 0.447E+00 0.565E+00 0.659E+00
 0.783E+00 0.109E+01 0.179E+01 0.232E+01 0.203E+01 0.170E+01 0.158E+01 0.148E+01
 0.151E+01 0.178E+01 0.161E+01 0.120E+01 0.899E+00 0.613E+00 0.492E+00 0.436E+00
 0.379E+00 0.332E+00 0.296E+00 0.251E+00 0.221E+00 0.202E+00 0.194E+00 0.177E+00
 0.171E+00 0.164E+00 0.141E+00 0.135E+00 0.163E+00 0.186E+00 0.205E+00 0.213E+00
 0.227E+00 0.216E+00 0.246E+00 0.275E+00 0.293E+00 0.275E+00 0.248E+00 0.222E+00
 0.219E+00 0.212E+00 0.197E+00 0.178E+00 0.155E+00 0.135E+00 0.000E+00 0.000E+00
 0.000E+00 0.000E+00 0.000E+00 0.000E+00 0.000E+00 0.000E+00 0.000E+00 0.000E+00
 0.000E+00 0.000E+00 0.000E+00 0.000E+00 0.000E+00 0.000E+00 0.000E+00 0.000E+00
 0.000E+00 0.000E+00 0.000E+00 0.000E+00
 0.248E+02 0.244E+02 0.244E+02 0.244E+02 0.250E+02 0.250E+02 0.251E+02 0.251E+02
 0.251E+02 0.251E+02 0.252E+02 0.252E+02 0.246E+02 0.247E+02 0.248E+02 0.251E+02
 0.248E+02 0.245E+02 0.245E+02 0.250E+02 0.247E+02 0.248E+02 0.248E+02 0.246E+02
 0.250E+02 0.244E+02 0.250E+02 0.270E+02 0.246E+02 0.248E+02 0.270E+02 0.270E+02
 0.270E+02 0.252E+02 0.270E+02 0.273E+02 0.275E+02 0.276E+02 0.276E+02 0.276E+02
 0.276E+02 0.290E+02 0.286E+02 0.284E+02 0.272E+02 0.272E+02 0.272E+02 0.272E+02
 0.272E+02 0.272E+02 0.272E+02 0.272E+02 0.272E+02 0.272E+02 0.272E+02 0.272E+02
 0.270E+02 0.270E+02 0.270E+02 0.257E+02 0.257E+02 0.257E+02 0.272E+02 0.272E+02
 0.262E+02 0.262E+02 0.265E+02 0.269E+02 0.270E+02 0.270E+02 0.270E+02 0.270E+02
 0.275E+02 0.275E+02 0.275E+02 0.281E+02 0.281E+02 0.286E+02 0.000E+00 0.000E+00
 0.000E+00 0.000E+00 0.000E+00 0.000E+00 0.000E+00 0.000E+00 0.000E+00 0.000E+00
 0.000E+00 0.000E+00 0.000E+00 0.000E+00 0.000E+00 0.000E+00 0.000E+00 0.000E+00
 0.000E+00 0.000E+00 0.000E+00 0.000E+00
 0.251E+02 0.251E+02 0.244E+02 0.244E+02 0.244E+02 0.251E+02 0.251E+02 0.249E+02
 0.251E+02 0.252E+02 0.252E+02 0.252E+02 0.245E+02 0.247E+02 0.249E+02 0.249E+02
 0.246E+02 0.246E+02 0.246E+02 0.246E+02 0.246E+02 0.246E+02 0.246E+02 0.246E+02
 0.246E+02 0.251E+02 0.251E+02 0.251E+02 0.251E+02 0.251E+02 0.251E+02 0.251E+02
 0.251E+02 0.251E+02 0.269E+02 0.274E+02 0.274E+02 0.275E+02 0.275E+02 0.275E+02
 0.275E+02 0.289E+02 0.287E+02 0.285E+02 0.273E+02 0.271E+02 0.271E+02 0.271E+02
 0.271E+02 0.271E+02 0.271E+02 0.251E+02 0.251E+02 0.251E+02 0.251E+02 0.271E+02
 0.248E+02 0.248E+02 0.248E+02 0.248E+02 0.248E+02 0.248E+02 0.248E+02 0.271E+02
 0.271E+02 0.271E+02 0.271E+02 0.271E+02 0.251E+02 0.251E+02 0.251E+02 0.251E+02
 0.251E+02 0.251E+02 0.251E+02 0.251E+02 0.251E+02 0.251E+02 0.000E+00 0.000E+00
 0.000E+00 0.000E+00 0.000E+00 0.000E+00 0.000E+00 0.000E+00 0.000E+00 0.000E+00
 0.000E+00 0.000E+00 0.000E+00 0.000E+00 0.000E+00 0.000E+00 0.000E+00 0.000E+00
 0.000E+00 0.000E+00 0.000E+00 0.000E+00
 0.248E+02 0.244E+02 0.244E+02 0.244E+02 0.250E+02 0.250E+02 0.251E+02 0.251E+02
 0.251E+02 0.251E+02 0.252E+02 0.252E+02 0.245E+02 0.247E+02 0.248E+02 0.251E+02
 0.248E+02 0.246E+02 0.245E+02 0.250E+02 0.246E+02 0.248E+02 0.248E+02 0.246E+02
 0.250E+02 0.244E+02 0.250E+02 0.270E+02 0.246E+02 0.248E+02 0.270E+02 0.270E+02
 0.270E+02 0.252E+02 0.270E+02 0.273E+02 0.275E+02 0.275E+02 0.276E+02 0.276E+02
 0.276E+02 0.290E+02 0.286E+02 0.283E+02 0.272E+02 0.272E+02 0.272E+02 0.272E+02
 0.272E+02 0.272E+02 0.272E+02 0.272E+02 0.272E+02 0.272E+02 0.272E+02 0.272E+02
 0.269E+02 0.269E+02 0.270E+02 0.257E+02 0.257E+02 0.257E+02 0.272E+02 0.272E+02
 0.262E+02 0.262E+02 0.264E+02 0.269E+02 0.269E+02 0.269E+02 0.269E+02 0.269E+02
 0.274E+02 0.274E+02 0.274E+02 0.274E+02 0.281E+02 0.286E+02 0.000E+00 0.000E+00
 0.000E+00 0.000E+00 0.000E+00 0.000E+00 0.000E+00 0.000E+00 0.000E+00 0.000E+00
 0.000E+00 0.000E+00 0.000E+00 0.000E+00 0.000E+00 0.000E+00 0.000E+00 0.000E+00
 0.000E+00 0.000E+00 0.000E+00 0.000E+00
/&   ----------  End of spectral data for channel 16  ----------
